STATION,STATION_NAME,ELEVATION,LATITUDE,LONGITUDE,DATE,REPORTTYPE,HOURLYSKYCONDITIONS,HOURLYVISIBILITY,HOURLYPRSENTWEATHERTYPE,HOURLYDRYBULBTEMPF,HOURLYDRYBULBTEMPC,HOURLYWETBULBTEMPF,HOURLYWETBULBTEMPC,HOURLYDewPointTempF,HOURLYDewPointTempC,HOURLYRelativeHumidity,HOURLYWindSpeed,HOURLYWindDirection,HOURLYWindGustSpeed,HOURLYStationPressure,HOURLYPressureTendency,HOURLYPressureChange,HOURLYSeaLevelPressure,HOURLYPrecip,HOURLYAltimeterSetting,DAILYMaximumDryBulbTemp,DAILYMinimumDryBulbTemp,DAILYAverageDryBulbTemp,DAILYDeptFromNormalAverageTemp,DAILYAverageRelativeHumidity,DAILYAverageDewPointTemp,DAILYAverageWetBulbTemp,DAILYHeatingDegreeDays,DAILYCoolingDegreeDays,DAILYSunrise,DAILYSunset,DAILYWeather,DAILYPrecip,DAILYSnowfall,DAILYSnowDepth,DAILYAverageStationPressure,DAILYAverageSeaLevelPressure,DAILYAverageWindSpeed,DAILYPeakWindSpeed,PeakWindDirection,DAILYSustainedWindSpeed,DAILYSustainedWindDirection,MonthlyMaximumTemp,MonthlyMinimumTemp,MonthlyMeanTemp,MonthlyAverageRH,MonthlyDewpointTemp,MonthlyWetBulbTemp,MonthlyAvgHeatingDegreeDays,MonthlyAvgCoolingDegreeDays,MonthlyStationPressure,MonthlySeaLevelPressure,MonthlyAverageWindSpeed,MonthlyTotalSnowfall,MonthlyDeptFromNormalMaximumTemp,MonthlyDeptFromNormalMinimumTemp,MonthlyDeptFromNormalAverageTemp,MonthlyDeptFromNormalPrecip,MonthlyTotalLiquidPrecip,MonthlyGreatestPrecip,MonthlyGreatestPrecipDate,MonthlyGreatestSnowfall,MonthlyGreatestSnowfallDate,MonthlyGreatestSnowDepth,MonthlyGreatestSnowDepthDate,MonthlyDaysWithGT90Temp,MonthlyDaysWithLT32Temp,MonthlyDaysWithGT32Temp,MonthlyDaysWithLT0Temp,MonthlyDaysWithGT001Precip,MonthlyDaysWithGT010Precip,MonthlyDaysWithGT1Snow,MonthlyMaxSeaLevelPressureValue,MonthlyMaxSeaLevelPressureDate,MonthlyMaxSeaLevelPressureTime,MonthlyMinSeaLevelPressureValue,MonthlyMinSeaLevelPressureDate,MonthlyMinSeaLevelPressureTime,MonthlyTotalHeatingDegreeDays,MonthlyTotalCoolingDegreeDays,MonthlyDeptFromNormalHeatingDD,MonthlyDeptFromNormalCoolingDD,MonthlyTotalSeasonToDateHeatingDD,MonthlyTotalSeasonToDateCoolingDD
KBUR,Burbank,,34.1808,-118.3089,2012-02-29 23:53:00,,OVC,10.0,,52,,,,46.0,,80,,,,29.31,,,,,,58.0,38.0,,,,,,,,,,,,,,,,,,,,,,,,,,,,,,,,,,,,,,,,,,,,,,,,,,,,,,,,,,,,,,
KBUR,Burbank,,34.1808,-118.3089,2012-03-01 00:46:00,,OVC,10.0,,52,,,,45.0,,76,3.0,230.0,,29.33,,,,,,,,,,,,,,,,,,,,,,,,,,,,,,,,,,,,,,,,,,,,,,,,,,,,,,,,,,,,,,,,,,,,,
KBUR,Burbank,,34.1808,-118.3089,2012-03-01 00:53:00,,OVC,10.0,,52,,,,45.0,,77,5.0,220.0,,29.31,2.0,Falling,,,,,,,,,,,,,,,,,,,,,,,,,,,,,,,,,,,,,,,,,,,,,,,,,,,,,,,,,,,,,,,,,,,
KBUR,Burbank,,34.1808,-118.3089,2012-03-01 01:31:00,,OVC,10.0,,52,,,,45.0,,76,,,,29.33,,,,,,,,,,,,,,,,,,,,,,,,,,,,,,,,,,,,,,,,,,,,,,,,,,,,,,,,,,,,,,,,,,,,,
KBUR,Burbank,,34.1808,-118.3089,2012-03-01 01:53:00,,BKN,10.0,,51,,,,45.0,,80,,,,29.29,,,,,,,,,,,,,,,,,,,,,,,,,,,,,,,,,,,,,,,,,,,,,,,,,,,,,,,,,,,,,,,,,,,,,
KBUR,Burbank,,34.1808,-118.3089,2012-03-01 02:53:00,,BKN,10.0,,50,,,,44.0,,80,3.0,280.0,,29.28,,,,,,,,,,,,,,,,,,,,,,,,,,,,,,,,,,,,,,,,,,,,,,,,,,,,,,,,,,,,,,,,,,,,,
KBUR,Burbank,,34.1808,-118.3089,2012-03-01 03:53:00,,OVC,10.0,,49,,,,44.0,,83,,,,29.28,2.0,Falling,,,,53.0,49.0,,,,,,,,,,,,,,,,,,,,,,,,,,,,,,,,,,,,,,,,,,,,,,,,,,,,,,,,,,,,,,
KBUR,Burbank,,34.1808,-118.3089,2012-03-01 04:53:00,,FEW,10.0,,48,,,,43.0,,83,3.0,290.0,,29.28,,,,,,,,,,,,,,,,,,,,,,,,,,,,,,,,,,,,,,,,,,,,,,,,,,,,,,,,,,,,,,,,,,,,,
KBUR,Burbank,,34.1808,-118.3089,2012-03-01 05:53:00,,CLR,10.0,,46,,,,41.0,,83,,,,29.29,,,,,,,,,,,,,,,,,,,,,,,,,,,,,,,,,,,,,,,,,,,,,,,,,,,,,,,,,,,,,,,,,,,,,
KBUR,Burbank,,34.1808,-118.3089,2012-03-01 06:53:00,,SCT,10.0,,47,,,,43.0,,86,3.0,120.0,,29.3,1.0,Rising Rapidly,,,,,,,,,,,,,,,,,,,,,,,,,,,,,,,,,,,,,,,,,,,,,,,,,,,,,,,,,,,,,,,,,,,
KBUR,Burbank,,34.1808,-118.3089,2012-03-01 07:53:00,,CLR,10.0,,49,,,,43.0,,80,3.0,330.0,,29.32,,,,,,,,,,,,,,,,,,,,,,,,,,,,,,,,,,,,,,,,,,,,,,,,,,,,,,,,,,,,,,,,,,,,,
KBUR,Burbank,,34.1808,-118.3089,2012-03-01 08:53:00,,CLR,10.0,,52,,,,45.0,,77,,,,29.31,,,,,,,,,,,,,,,,,,,,,,,,,,,,,,,,,,,,,,,,,,,,,,,,,,,,,,,,,,,,,,,,,,,,,
KBUR,Burbank,,34.1808,-118.3089,2012-03-01 09:53:00,,SCT,10.0,,55,,,,44.0,,67,,,,29.31,0.0,Steady,,,,55.0,45.0,,,,,,,,,,,,,,,,,,,,,,,,,,,,,,,,,,,,,,,,,,,,,,,,,,,,,,,,,,,,,,
KBUR,Burbank,,34.1808,-118.3089,2012-03-01 10:53:00,,CLR,10.0,,57,,,,42.0,,57,3.0,,,29.29,,,,,,,,,,,,,,,,,,,,,,,,,,,,,,,,,,,,,,,,,,,,,,,,,,,,,,,,,,,,,,,,,,,,,
KBUR,Burbank,,34.1808,-118.3089,2012-03-01 11:53:00,,SCT,10.0,,59,,,,41.0,,51,8.0,140.0,,29.27,,,,,,,,,,,,,,,,,,,,,,,,,,,,,,,,,,,,,,,,,,,,,,,,,,,,,,,,,,,,,,,,,,,,,
KBUR,Burbank,,34.1808,-118.3089,2012-03-01 12:53:00,,FEW,10.0,,60,,,,40.0,,47,7.0,130.0,,29.24,2.0,Falling Rapidly,,,,,,,,,,,,,,,,,,,,,,,,,,,,,,,,,,,,,,,,,,,,,,,,,,,,,,,,,,,,,,,,,,,
KBUR,Burbank,,34.1808,-118.3089,2012-03-01 13:53:00,,SCT,10.0,,60,,,,43.0,,53,9.0,170.0,,29.22,,,,,,,,,,,,,,,,,,,,,,,,,,,,,,,,,,,,,,,,,,,,,,,,,,,,,,,,,,,,,,,,,,,,,
KBUR,Burbank,,34.1808,-118.3089,2012-03-01 14:53:00,,BKN,10.0,,59,,,,43.0,,55,9.0,180.0,,29.22,,,,,,,,,,,,,,,,,,,,,,,,,,,,,,,,,,,,,,,,,,,,,,,,,,,,,,,,,,,,,,,,,,,,,
KBUR,Burbank,,34.1808,-118.3089,2012-03-01 15:53:00,,SCT,10.0,,60,,,,42.0,,51,6.0,170.0,,29.2,2.0,Falling,,,,62.0,54.0,,,,,,,,,,,,,,,,,,,,,,,,,,,,,,,,,,,,,,,,,,,,,,,,,,,,,,,,,,,,,,
KBUR,Burbank,,34.1808,-118.3089,2012-03-01 16:53:00,,CLR,10.0,,59,,,,42.0,,53,6.0,170.0,,29.19,,,,,,,,,,,,,,,,,,,,,,,,,,,,,,,,,,,,,,,,,,,,,,,,,,,,,,,,,,,,,,,,,,,,,
KBUR,Burbank,,34.1808,-118.3089,2012-03-01 17:53:00,,CLR,10.0,,57,,,,40.0,,53,6.0,180.0,,29.19,,,,,,,,,,,,,,,,,,,,,,,,,,,,,,,,,,,,,,,,,,,,,,,,,,,,,,,,,,,,,,,,,,,,,
KBUR,Burbank,,34.1808,-118.3089,2012-03-01 18:53:00,,CLR,10.0,,57,,,,33.0,,40,,,,29.19,2.0,Falling,,,,,,,,,,,,,,,,,,,,,,,,,,,,,,,,,,,,,,,,,,,,,,,,,,,,,,,,,,,,,,,,,,,
KBUR,Burbank,,34.1808,-118.3089,2012-03-01 19:35:00,,CLR,10.0,,57,,,,28.0,,33,22.0,10.0,33.0,29.21,,,,,,,,,,,,,,,,,,,,,,,,,,,,,,,,,,,,,,,,,,,,,,,,,,,,,,,,,,,,,,,,,,,,,
KBUR,Burbank,,34.1808,-118.3089,2012-03-01 19:53:00,,CLR,10.0,,56,,,,28.0,,34,17.0,360.0,,29.19,,,,,,,,,,,,,,,,,,,,,,,,,,,,,,,,,,,,,,,,,,,,,,,,,,,,,,,,,,,,,,,,,,,,,
KBUR,Burbank,,34.1808,-118.3089,2012-03-01 20:53:00,,CLR,10.0,,56,,,,29.0,,36,18.0,340.0,24.0,29.2,,,,,,,,,,,,,,,,,,,,,,,,,,,,,,,,,,,,,,,,,,,,,,,,,,,,,,,,,,,,,,,,,,,,,
KBUR,Burbank,,34.1808,-118.3089,2012-03-01 21:53:00,,CLR,10.0,,55,,,,30.0,,38,10.0,340.0,23.0,29.2,1.0,Rising,,,,60.0,55.0,,,,,,,,,,,,,,,,,,,,,,,,,,,,,,,,,,,,,,,,,,,,,,,,,,,,,,,,,,,,,,
KBUR,Burbank,,34.1808,-118.3089,2012-03-01 22:53:00,,CLR,10.0,,56,,,,30.0,,37,6.0,330.0,,29.22,,,,,,,,,,,,,,,,,,,,,,,,,,,,,,,,,,,,,,,,,,,,,,,,,,,,,,,,,,,,,,,,,,,,,
KBUR,Burbank,,34.1808,-118.3089,2012-03-01 23:53:00,,CLR,10.0,,55,,,,31.0,,40,3.0,,17.0,29.22,,,,,,62.0,45.0,,,,,,,,,,,,,,,,,,,,,,,,,,,,,,,,,,,,,,,,,,,,,,,,,,,,,,,,,,,,,,
KBUR,Burbank,,34.1808,-118.3089,2012-03-02 00:53:00,,CLR,10.0,,54,,,,35.0,,49,10.0,110.0,21.0,29.23,1.0,Rising,,,,,,,,,,,,,,,,,,,,,,,,,,,,,,,,,,,,,,,,,,,,,,,,,,,,,,,,,,,,,,,,,,,
KBUR,Burbank,,34.1808,-118.3089,2012-03-02 01:53:00,,CLR,10.0,,48,,,,42.0,,80,,,,29.23,,,,,,,,,,,,,,,,,,,,,,,,,,,,,,,,,,,,,,,,,,,,,,,,,,,,,,,,,,,,,,,,,,,,,
KBUR,Burbank,,34.1808,-118.3089,2012-03-02 02:53:00,,CLR,10.0,,47,,,,42.0,,83,,,,29.23,,,,,,,,,,,,,,,,,,,,,,,,,,,,,,,,,,,,,,,,,,,,,,,,,,,,,,,,,,,,,,,,,,,,,
KBUR,Burbank,,34.1808,-118.3089,2012-03-02 03:53:00,,CLR,10.0,,46,,,,41.0,,83,,,,29.23,0.0,Steady,,,,56.0,46.0,,,,,,,,,,,,,,,,,,,,,,,,,,,,,,,,,,,,,,,,,,,,,,,,,,,,,,,,,,,,,,
KBUR,Burbank,,34.1808,-118.3089,2012-03-02 04:53:00,,CLR,10.0,,44,,,,39.0,,82,3.0,330.0,,29.24,,,,,,,,,,,,,,,,,,,,,,,,,,,,,,,,,,,,,,,,,,,,,,,,,,,,,,,,,,,,,,,,,,,,,
KBUR,Burbank,,34.1808,-118.3089,2012-03-02 05:53:00,,CLR,10.0,,44,,,,38.0,,79,,,,29.25,,,,,,,,,,,,,,,,,,,,,,,,,,,,,,,,,,,,,,,,,,,,,,,,,,,,,,,,,,,,,,,,,,,,,
KBUR,Burbank,,34.1808,-118.3089,2012-03-02 06:53:00,,CLR,10.0,,44,,,,38.0,,79,,,,29.26,1.0,Rising Rapidly,,,,,,,,,,,,,,,,,,,,,,,,,,,,,,,,,,,,,,,,,,,,,,,,,,,,,,,,,,,,,,,,,,,
KBUR,Burbank,,34.1808,-118.3089,2012-03-02 07:53:00,,CLR,10.0,,51,,,,40.0,,66,3.0,,,29.27,,,,,,,,,,,,,,,,,,,,,,,,,,,,,,,,,,,,,,,,,,,,,,,,,,,,,,,,,,,,,,,,,,,,,
KBUR,Burbank,,34.1808,-118.3089,2012-03-02 08:53:00,,CLR,10.0,,52,,,,41.0,,66,3.0,130.0,,29.29,,,,,,,,,,,,,,,,,,,,,,,,,,,,,,,,,,,,,,,,,,,,,,,,,,,,,,,,,,,,,,,,,,,,,
KBUR,Burbank,,34.1808,-118.3089,2012-03-02 09:53:00,,CLR,10.0,,58,,,,38.0,,47,5.0,,,29.3,1.0,Rising Rapidly,,,,58.0,43.0,,,,,,,,,,,,,,,,,,,,,,,,,,,,,,,,,,,,,,,,,,,,,,,,,,,,,,,,,,,,,,
KBUR,Burbank,,34.1808,-118.3089,2012-03-02 10:53:00,,CLR,10.0,,63,,,,30.0,,29,5.0,200.0,,29.3,,,,,,,,,,,,,,,,,,,,,,,,,,,,,,,,,,,,,,,,,,,,,,,,,,,,,,,,,,,,,,,,,,,,,
KBUR,Burbank,,34.1808,-118.3089,2012-03-02 11:53:00,,CLR,10.0,,69,,,,21.0,,16,5.0,290.0,,29.29,,,,,,,,,,,,,,,,,,,,,,,,,,,,,,,,,,,,,,,,,,,,,,,,,,,,,,,,,,,,,,,,,,,,,
KBUR,Burbank,,34.1808,-118.3089,2012-03-02 12:53:00,,CLR,10.0,,71,,,,19.0,,14,3.0,,,29.28,2.0,Falling Rapidly,,,,,,,,,,,,,,,,,,,,,,,,,,,,,,,,,,,,,,,,,,,,,,,,,,,,,,,,,,,,,,,,,,,
KBUR,Burbank,,34.1808,-118.3089,2012-03-02 13:23:00,,CLR,10.0,,73,,,,0.0,,5,17.0,10.0,24.0,29.3,,,,,,,,,,,,,,,,,,,,,,,,,,,,,,,,,,,,,,,,,,,,,,,,,,,,,,,,,,,,,,,,,,,,,
KBUR,Burbank,,34.1808,-118.3089,2012-03-02 13:53:00,,CLR,10.0,,72,,,,-6.0,,4,17.0,20.0,,29.26,,,,,,,,,,,,,,,,,,,,,,,,,,,,,,,,,,,,,,,,,,,,,,,,,,,,,,,,,,,,,,,,,,,,,
KBUR,Burbank,,34.1808,-118.3089,2012-03-02 14:53:00,,CLR,10.0,,71,,,,-7.0,,4,17.0,340.0,28.0,29.24,,,,,,,,,,,,,,,,,,,,,,,,,,,,,,,,,,,,,,,,,,,,,,,,,,,,,,,,,,,,,,,,,,,,,
KBUR,Burbank,,34.1808,-118.3089,2012-03-02 15:23:00,,CLR,10.0,,72,,,,23.0,,16,13.0,90.0,,29.29,,,,,,,,,,,,,,,,,,,,,,,,,,,,,,,,,,,,,,,,,,,,,,,,,,,,,,,,,,,,,,,,,,,,,
KBUR,Burbank,,34.1808,-118.3089,2012-03-02 15:53:00,,CLR,10.0,,71,,,,24.0,,17,6.0,80.0,,29.26,0.0,Steady,,,,73.0,58.0,,,,,,,,,,,,,,,,,,,,,,,,,,,,,,,,,,,,,,,,,,,,,,,,,,,,,,,,,,,,,,
KBUR,Burbank,,34.1808,-118.3089,2012-03-02 16:53:00,,CLR,10.0,,68,,,,29.0,,23,6.0,160.0,,29.27,,,,,,,,,,,,,,,,,,,,,,,,,,,,,,,,,,,,,,,,,,,,,,,,,,,,,,,,,,,,,,,,,,,,,
KBUR,Burbank,,34.1808,-118.3089,2012-03-02 17:53:00,,CLR,10.0,,64,,,,28.0,,26,5.0,180.0,,29.29,,,,,,,,,,,,,,,,,,,,,,,,,,,,,,,,,,,,,,,,,,,,,,,,,,,,,,,,,,,,,,,,,,,,,
KBUR,Burbank,,34.1808,-118.3089,2012-03-02 18:53:00,,CLR,10.0,,64,,,,23.0,,21,,,,29.31,1.0,Rising Rapidly,,,,,,,,,,,,,,,,,,,,,,,,,,,,,,,,,,,,,,,,,,,,,,,,,,,,,,,,,,,,,,,,,,,
KBUR,Burbank,,34.1808,-118.3089,2012-03-02 19:53:00,,CLR,10.0,,60,,,,25.0,,26,5.0,140.0,,29.33,,,,,,,,,,,,,,,,,,,,,,,,,,,,,,,,,,,,,,,,,,,,,,,,,,,,,,,,,,,,,,,,,,,,,
KBUR,Burbank,,34.1808,-118.3089,2012-03-02 20:53:00,,CLR,10.0,,59,,,,21.0,,23,3.0,300.0,,29.36,,,,,,,,,,,,,,,,,,,,,,,,,,,,,,,,,,,,,,,,,,,,,,,,,,,,,,,,,,,,,,,,,,,,,
KBUR,Burbank,,34.1808,-118.3089,2012-03-02 21:53:00,,CLR,10.0,,54,,,,20.0,,26,,,,29.38,1.0,Rising,,,,72.0,54.0,,,,,,,,,,,,,,,,,,,,,,,,,,,,,,,,,,,,,,,,,,,,,,,,,,,,,,,,,,,,,,
KBUR,Burbank,,34.1808,-118.3089,2012-03-02 22:53:00,,CLR,10.0,,52,,,,19.0,,27,3.0,250.0,,29.4,,,,,,,,,,,,,,,,,,,,,,,,,,,,,,,,,,,,,,,,,,,,,,,,,,,,,,,,,,,,,,,,,,,,,
KBUR,Burbank,,34.1808,-118.3089,2012-03-02 23:53:00,,CLR,10.0,,49,,,,21.0,,33,,,,29.4,,,,,,73.0,43.0,,,,,,,,,,,,,,,,,,,,,,,,,,,,,,,,,,,,,,,,,,,,,,,,,,,,,,,,,,,,,,
KBUR,Burbank,,34.1808,-118.3089,2012-03-03 00:53:00,,CLR,10.0,,50,,,,18.0,,28,,,,29.39,0.0,Steady,,,,,,,,,,,,,,,,,,,,,,,,,,,,,,,,,,,,,,,,,,,,,,,,,,,,,,,,,,,,,,,,,,,
KBUR,Burbank,,34.1808,-118.3089,2012-03-03 01:53:00,,CLR,10.0,,47,,,,19.0,,33,3.0,360.0,,29.38,,,,,,,,,,,,,,,,,,,,,,,,,,,,,,,,,,,,,,,,,,,,,,,,,,,,,,,,,,,,,,,,,,,,,
KBUR,Burbank,,34.1808,-118.3089,2012-03-03 02:53:00,,CLR,10.0,,49,,,,16.0,,27,,,,29.36,,,,,,,,,,,,,,,,,,,,,,,,,,,,,,,,,,,,,,,,,,,,,,,,,,,,,,,,,,,,,,,,,,,,,
KBUR,Burbank,,34.1808,-118.3089,2012-03-03 03:53:00,,CLR,10.0,,45,,,,20.0,,37,6.0,10.0,,29.38,0.0,Steady,,,,54.0,45.0,,,,,,,,,,,,,,,,,,,,,,,,,,,,,,,,,,,,,,,,,,,,,,,,,,,,,,,,,,,,,,
KBUR,Burbank,,34.1808,-118.3089,2012-03-03 04:53:00,,CLR,10.0,,45,,,,18.0,,34,,,,29.38,,,,,,,,,,,,,,,,,,,,,,,,,,,,,,,,,,,,,,,,,,,,,,,,,,,,,,,,,,,,,,,,,,,,,
KBUR,Burbank,,34.1808,-118.3089,2012-03-03 05:53:00,,CLR,10.0,,44,,,,20.0,,38,,,,29.39,,,,,,,,,,,,,,,,,,,,,,,,,,,,,,,,,,,,,,,,,,,,,,,,,,,,,,,,,,,,,,,,,,,,,
KBUR,Burbank,,34.1808,-118.3089,2012-03-03 06:53:00,,CLR,10.0,,44,,,,21.0,,40,3.0,360.0,,29.4,1.0,Rising Rapidly,,,,,,,,,,,,,,,,,,,,,,,,,,,,,,,,,,,,,,,,,,,,,,,,,,,,,,,,,,,,,,,,,,,
KBUR,Burbank,,34.1808,-118.3089,2012-03-03 07:53:00,,CLR,10.0,,53,,,,21.0,,29,,,,29.41,,,,,,,,,,,,,,,,,,,,,,,,,,,,,,,,,,,,,,,,,,,,,,,,,,,,,,,,,,,,,,,,,,,,,
KBUR,Burbank,,34.1808,-118.3089,2012-03-03 08:53:00,,CLR,10.0,,59,,,,20.0,,22,,,,29.41,,,,,,,,,,,,,,,,,,,,,,,,,,,,,,,,,,,,,,,,,,,,,,,,,,,,,,,,,,,,,,,,,,,,,
KBUR,Burbank,,34.1808,-118.3089,2012-03-03 09:53:00,,CLR,10.0,,64,,,,16.0,,16,,,,29.4,0.0,Steady,,,,64.0,43.0,,,,,,,,,,,,,,,,,,,,,,,,,,,,,,,,,,,,,,,,,,,,,,,,,,,,,,,,,,,,,,
KBUR,Burbank,,34.1808,-118.3089,2012-03-03 10:53:00,,CLR,10.0,,69,,,,15.0,,13,3.0,150.0,,29.4,,,,,,,,,,,,,,,,,,,,,,,,,,,,,,,,,,,,,,,,,,,,,,,,,,,,,,,,,,,,,,,,,,,,,
KBUR,Burbank,,34.1808,-118.3089,2012-03-03 11:53:00,,CLR,10.0,,73,,,,10.0,,9,5.0,240.0,,29.38,,,,,,,,,,,,,,,,,,,,,,,,,,,,,,,,,,,,,,,,,,,,,,,,,,,,,,,,,,,,,,,,,,,,,
KBUR,Burbank,,34.1808,-118.3089,2012-03-03 12:53:00,,CLR,10.0,,76,,,,13.0,,9,8.0,150.0,,29.36,2.0,Falling Rapidly,,,,,,,,,,,,,,,,,,,,,,,,,,,,,,,,,,,,,,,,,,,,,,,,,,,,,,,,,,,,,,,,,,,
KBUR,Burbank,,34.1808,-118.3089,2012-03-03 13:53:00,,CLR,10.0,,77,,,,16.0,,10,3.0,,,29.34,,,,,,,,,,,,,,,,,,,,,,,,,,,,,,,,,,,,,,,,,,,,,,,,,,,,,,,,,,,,,,,,,,,,,
KBUR,Burbank,,34.1808,-118.3089,2012-03-03 14:53:00,,CLR,10.0,,77,,,,16.0,,10,7.0,180.0,,29.32,,,,,,,,,,,,,,,,,,,,,,,,,,,,,,,,,,,,,,,,,,,,,,,,,,,,,,,,,,,,,,,,,,,,,
KBUR,Burbank,,34.1808,-118.3089,2012-03-03 15:53:00,,CLR,10.0,,76,,,,14.0,,10,7.0,180.0,,29.31,2.0,Falling,,,,78.0,65.0,,,,,,,,,,,,,,,,,,,,,,,,,,,,,,,,,,,,,,,,,,,,,,,,,,,,,,,,,,,,,,
KBUR,Burbank,,34.1808,-118.3089,2012-03-03 16:53:00,,CLR,10.0,,74,,,,16.0,,11,7.0,180.0,,29.31,,,,,,,,,,,,,,,,,,,,,,,,,,,,,,,,,,,,,,,,,,,,,,,,,,,,,,,,,,,,,,,,,,,,,
KBUR,Burbank,,34.1808,-118.3089,2012-03-03 17:53:00,,CLR,10.0,,70,,,,18.0,,14,3.0,180.0,,29.32,,,,,,,,,,,,,,,,,,,,,,,,,,,,,,,,,,,,,,,,,,,,,,,,,,,,,,,,,,,,,,,,,,,,,
KBUR,Burbank,,34.1808,-118.3089,2012-03-03 18:53:00,,CLR,10.0,,67,,,,19.0,,16,,,,29.33,1.0,Rising Rapidly,,,,,,,,,,,,,,,,,,,,,,,,,,,,,,,,,,,,,,,,,,,,,,,,,,,,,,,,,,,,,,,,,,,
KBUR,Burbank,,34.1808,-118.3089,2012-03-03 19:53:00,,CLR,10.0,,63,,,,23.0,,22,3.0,330.0,,29.33,,,,,,,,,,,,,,,,,,,,,,,,,,,,,,,,,,,,,,,,,,,,,,,,,,,,,,,,,,,,,,,,,,,,,
KBUR,Burbank,,34.1808,-118.3089,2012-03-03 20:53:00,,CLR,10.0,,61,,,,23.0,,23,,,,29.33,,,,,,,,,,,,,,,,,,,,,,,,,,,,,,,,,,,,,,,,,,,,,,,,,,,,,,,,,,,,,,,,,,,,,
KBUR,Burbank,,34.1808,-118.3089,2012-03-03 21:53:00,,CLR,10.0,,59,,,,21.0,,23,,,,29.33,1.0,Rising,,,,76.0,59.0,,,,,,,,,,,,,,,,,,,,,,,,,,,,,,,,,,,,,,,,,,,,,,,,,,,,,,,,,,,,,,
KBUR,Burbank,,34.1808,-118.3089,2012-03-03 22:53:00,,CLR,10.0,,59,,,,23.0,,25,,,,29.32,,,,,,,,,,,,,,,,,,,,,,,,,,,,,,,,,,,,,,,,,,,,,,,,,,,,,,,,,,,,,,,,,,,,,
KBUR,Burbank,,34.1808,-118.3089,2012-03-03 23:53:00,,CLR,10.0,,56,,,,25.0,,30,3.0,340.0,,29.31,,,,,,78.0,43.0,,,,,,,,,,,,,,,,,,,,,,,,,,,,,,,,,,,,,,,,,,,,,,,,,,,,,,,,,,,,,,
KBUR,Burbank,,34.1808,-118.3089,2012-03-04 00:53:00,,CLR,10.0,,56,,,,26.0,,32,5.0,330.0,,29.3,2.0,Falling Rapidly,,,,,,,,,,,,,,,,,,,,,,,,,,,,,,,,,,,,,,,,,,,,,,,,,,,,,,,,,,,,,,,,,,,
KBUR,Burbank,,34.1808,-118.3089,2012-03-04 01:53:00,,CLR,10.0,,56,,,,25.0,,30,3.0,340.0,,29.28,,,,,,,,,,,,,,,,,,,,,,,,,,,,,,,,,,,,,,,,,,,,,,,,,,,,,,,,,,,,,,,,,,,,,
KBUR,Burbank,,34.1808,-118.3089,2012-03-04 02:53:00,,CLR,10.0,,54,,,,26.0,,34,,,,29.27,,,,,,,,,,,,,,,,,,,,,,,,,,,,,,,,,,,,,,,,,,,,,,,,,,,,,,,,,,,,,,,,,,,,,
KBUR,Burbank,,34.1808,-118.3089,2012-03-04 03:53:00,,CLR,10.0,,51,,,,26.0,,38,,,,29.26,2.0,Falling,,,,60.0,51.0,,,,,,,,,,,,,,,,,,,,,,,,,,,,,,,,,,,,,,,,,,,,,,,,,,,,,,,,,,,,,,
KBUR,Burbank,,34.1808,-118.3089,2012-03-04 04:53:00,,CLR,10.0,,50,,,,27.0,,41,,,,29.26,,,,,,,,,,,,,,,,,,,,,,,,,,,,,,,,,,,,,,,,,,,,,,,,,,,,,,,,,,,,,,,,,,,,,
KBUR,Burbank,,34.1808,-118.3089,2012-03-04 05:53:00,,CLR,10.0,,50,,,,27.0,,41,,,,29.26,,,,,,,,,,,,,,,,,,,,,,,,,,,,,,,,,,,,,,,,,,,,,,,,,,,,,,,,,,,,,,,,,,,,,
KBUR,Burbank,,34.1808,-118.3089,2012-03-04 06:53:00,,CLR,10.0,,49,,,,28.0,,44,,,,29.27,1.0,Rising Rapidly,,,,,,,,,,,,,,,,,,,,,,,,,,,,,,,,,,,,,,,,,,,,,,,,,,,,,,,,,,,,,,,,,,,
KBUR,Burbank,,34.1808,-118.3089,2012-03-04 07:53:00,,CLR,10.0,,60,,,,28.0,,30,,,,29.27,,,,,,,,,,,,,,,,,,,,,,,,,,,,,,,,,,,,,,,,,,,,,,,,,,,,,,,,,,,,,,,,,,,,,
KBUR,Burbank,,34.1808,-118.3089,2012-03-04 08:53:00,,CLR,10.0,,67,,,,26.0,,21,,,,29.27,,,,,,,,,,,,,,,,,,,,,,,,,,,,,,,,,,,,,,,,,,,,,,,,,,,,,,,,,,,,,,,,,,,,,
KBUR,Burbank,,34.1808,-118.3089,2012-03-04 09:53:00,,CLR,10.0,,74,,,,22.0,,14,,,,29.26,0.0,Steady,,,,74.0,48.0,,,,,,,,,,,,,,,,,,,,,,,,,,,,,,,,,,,,,,,,,,,,,,,,,,,,,,,,,,,,,,
KBUR,Burbank,,34.1808,-118.3089,2012-03-04 10:53:00,,CLR,10.0,,78,,,,20.0,,11,,,,29.25,,,,,,,,,,,,,,,,,,,,,,,,,,,,,,,,,,,,,,,,,,,,,,,,,,,,,,,,,,,,,,,,,,,,,
KBUR,Burbank,,34.1808,-118.3089,2012-03-04 11:53:00,,CLR,10.0,,81,,,,20.0,,10,,,,29.22,,,,,,,,,,,,,,,,,,,,,,,,,,,,,,,,,,,,,,,,,,,,,,,,,,,,,,,,,,,,,,,,,,,,,
KBUR,Burbank,,34.1808,-118.3089,2012-03-04 12:53:00,,CLR,10.0,,83,,,,19.0,,9,6.0,,,29.18,2.0,Falling Rapidly,,,,,,,,,,,,,,,,,,,,,,,,,,,,,,,,,,,,,,,,,,,,,,,,,,,,,,,,,,,,,,,,,,,
KBUR,Burbank,,34.1808,-118.3089,2012-03-04 13:53:00,,CLR,10.0,,85,,,,19.0,,9,,,,29.15,,,,,,,,,,,,,,,,,,,,,,,,,,,,,,,,,,,,,,,,,,,,,,,,,,,,,,,,,,,,,,,,,,,,,
KBUR,Burbank,,34.1808,-118.3089,2012-03-04 14:53:00,,CLR,10.0,,85,,,,18.0,,8,7.0,200.0,,29.14,,,,,,,,,,,,,,,,,,,,,,,,,,,,,,,,,,,,,,,,,,,,,,,,,,,,,,,,,,,,,,,,,,,,,
KBUR,Burbank,,34.1808,-118.3089,2012-03-04 15:53:00,,CLR,10.0,,85,,,,18.0,,8,7.0,250.0,,29.12,2.0,Falling,,,,86.0,74.0,,,,,,,,,,,,,,,,,,,,,,,,,,,,,,,,,,,,,,,,,,,,,,,,,,,,,,,,,,,,,,
KBUR,Burbank,,34.1808,-118.3089,2012-03-04 16:53:00,,CLR,10.0,,84,,,,22.0,,10,9.0,190.0,,29.11,,,,,,,,,,,,,,,,,,,,,,,,,,,,,,,,,,,,,,,,,,,,,,,,,,,,,,,,,,,,,,,,,,,,,
KBUR,Burbank,,34.1808,-118.3089,2012-03-04 17:53:00,,CLR,10.0,,79,,,,23.0,,13,9.0,130.0,,29.13,,,,,,,,,,,,,,,,,,,,,,,,,,,,,,,,,,,,,,,,,,,,,,,,,,,,,,,,,,,,,,,,,,,,,
KBUR,Burbank,,34.1808,-118.3089,2012-03-04 18:53:00,,CLR,10.0,,76,,,,22.0,,13,6.0,150.0,,29.13,1.0,Rising Rapidly,,,,,,,,,,,,,,,,,,,,,,,,,,,,,,,,,,,,,,,,,,,,,,,,,,,,,,,,,,,,,,,,,,,
KBUR,Burbank,,34.1808,-118.3089,2012-03-04 19:53:00,,CLR,10.0,,70,,,,26.0,,19,6.0,320.0,,29.14,,,,,,,,,,,,,,,,,,,,,,,,,,,,,,,,,,,,,,,,,,,,,,,,,,,,,,,,,,,,,,,,,,,,,
KBUR,Burbank,,34.1808,-118.3089,2012-03-04 20:53:00,,CLR,10.0,,67,,,,28.0,,23,8.0,300.0,,29.15,,,,,,,,,,,,,,,,,,,,,,,,,,,,,,,,,,,,,,,,,,,,,,,,,,,,,,,,,,,,,,,,,,,,,
KBUR,Burbank,,34.1808,-118.3089,2012-03-04 21:53:00,,CLR,10.0,,67,,,,26.0,,21,,,,29.15,1.0,Rising,,,,86.0,67.0,,,,,,,,,,,,,,,,,,,,,,,,,,,,,,,,,,,,,,,,,,,,,,,,,,,,,,,,,,,,,,
KBUR,Burbank,,34.1808,-118.3089,2012-03-04 22:53:00,,CLR,10.0,,64,,,,27.0,,25,,,,29.15,,,,,,,,,,,,,,,,,,,,,,,,,,,,,,,,,,,,,,,,,,,,,,,,,,,,,,,,,,,,,,,,,,,,,
KBUR,Burbank,,34.1808,-118.3089,2012-03-04 23:53:00,,CLR,10.0,,60,,,,30.0,,32,,,,29.15,,,,,,86.0,48.0,,,,,,,,,,,,,,,,,,,,,,,,,,,,,,,,,,,,,,,,,,,,,,,,,,,,,,,,,,,,,,
KBUR,Burbank,,34.1808,-118.3089,2012-03-05 00:53:00,,CLR,10.0,,58,,,,30.0,,35,,,,29.15,0.0,Steady,,,,,,,,,,,,,,,,,,,,,,,,,,,,,,,,,,,,,,,,,,,,,,,,,,,,,,,,,,,,,,,,,,,
KBUR,Burbank,,34.1808,-118.3089,2012-03-05 01:53:00,,CLR,10.0,,58,,,,29.0,,33,,,,29.13,,,,,,,,,,,,,,,,,,,,,,,,,,,,,,,,,,,,,,,,,,,,,,,,,,,,,,,,,,,,,,,,,,,,,
KBUR,Burbank,,34.1808,-118.3089,2012-03-05 02:53:00,,CLR,10.0,,57,,,,30.0,,36,,,,29.12,,,,,,,,,,,,,,,,,,,,,,,,,,,,,,,,,,,,,,,,,,,,,,,,,,,,,,,,,,,,,,,,,,,,,
KBUR,Burbank,,34.1808,-118.3089,2012-03-05 03:53:00,,CLR,10.0,,59,,,,27.0,,29,,,,29.11,2.0,Falling,,,,67.0,56.0,,,,,,,,,,,,,,,,,,,,,,,,,,,,,,,,,,,,,,,,,,,,,,,,,,,,,,,,,,,,,,
KBUR,Burbank,,34.1808,-118.3089,2012-03-05 04:53:00,,CLR,10.0,,56,,,,31.0,,39,,,,29.12,,,,,,,,,,,,,,,,,,,,,,,,,,,,,,,,,,,,,,,,,,,,,,,,,,,,,,,,,,,,,,,,,,,,,
KBUR,Burbank,,34.1808,-118.3089,2012-03-05 05:53:00,,CLR,10.0,,55,,,,33.0,,43,,,,29.13,,,,,,,,,,,,,,,,,,,,,,,,,,,,,,,,,,,,,,,,,,,,,,,,,,,,,,,,,,,,,,,,,,,,,
KBUR,Burbank,,34.1808,-118.3089,2012-03-05 06:53:00,,CLR,10.0,,55,,,,33.0,,43,,,,29.13,1.0,Rising Rapidly,,,,,,,,,,,,,,,,,,,,,,,,,,,,,,,,,,,,,,,,,,,,,,,,,,,,,,,,,,,,,,,,,,,
KBUR,Burbank,,34.1808,-118.3089,2012-03-05 07:53:00,,CLR,10.0,,63,,,,30.0,,29,,,,29.15,,,,,,,,,,,,,,,,,,,,,,,,,,,,,,,,,,,,,,,,,,,,,,,,,,,,,,,,,,,,,,,,,,,,,
KBUR,Burbank,,34.1808,-118.3089,2012-03-05 08:53:00,,CLR,10.0,,68,,,,,,26,3.0,150.0,,29.16,,,,,,,,,,,,,,,,,,,,,,,,,,,,,,,,,,,,,,,,,,,,,,,,,,,,,,,,,,,,,,,,,,,,,
KBUR,Burbank,,34.1808,-118.3089,2012-03-05 09:53:00,,CLR,10.0,,73,,,,27.0,,18,,,,29.16,1.0,Rising,,,,73.0,54.0,,,,,,,,,,,,,,,,,,,,,,,,,,,,,,,,,,,,,,,,,,,,,,,,,,,,,,,,,,,,,,
KBUR,Burbank,,34.1808,-118.3089,2012-03-05 10:53:00,,CLR,10.0,,75,,,,26.0,,16,5.0,140.0,,29.15,,,,,,,,,,,,,,,,,,,,,,,,,,,,,,,,,,,,,,,,,,,,,,,,,,,,,,,,,,,,,,,,,,,,,
KBUR,Burbank,,34.1808,-118.3089,2012-03-05 11:53:00,,CLR,10.0,,79,,,,26.0,,14,9.0,140.0,,29.14,,,,,,,,,,,,,,,,,,,,,,,,,,,,,,,,,,,,,,,,,,,,,,,,,,,,,,,,,,,,,,,,,,,,,
KBUR,Burbank,,34.1808,-118.3089,2012-03-05 12:53:00,,CLR,10.0,,81,,,,24.0,,12,9.0,120.0,,29.11,2.0,Falling Rapidly,,,,,,,,,,,,,,,,,,,,,,,,,,,,,,,,,,,,,,,,,,,,,,,,,,,,,,,,,,,,,,,,,,,
KBUR,Burbank,,34.1808,-118.3089,2012-03-05 13:53:00,,CLR,10.0,,80,,,,28.0,,15,7.0,190.0,,29.09,,,,,,,,,,,,,,,,,,,,,,,,,,,,,,,,,,,,,,,,,,,,,,,,,,,,,,,,,,,,,,,,,,,,,
KBUR,Burbank,,34.1808,-118.3089,2012-03-05 14:53:00,,CLR,10.0,,79,,,,35.0,,20,8.0,180.0,,29.08,,,,,,,,,,,,,,,,,,,,,,,,,,,,,,,,,,,,,,,,,,,,,,,,,,,,,,,,,,,,,,,,,,,,,
KBUR,Burbank,,34.1808,-118.3089,2012-03-05 15:53:00,,CLR,10.0,,79,,,,33.0,,19,7.0,190.0,,29.06,2.0,Falling,,,,82.0,73.0,,,,,,,,,,,,,,,,,,,,,,,,,,,,,,,,,,,,,,,,,,,,,,,,,,,,,,,,,,,,,,
KBUR,Burbank,,34.1808,-118.3089,2012-03-05 16:53:00,,CLR,10.0,,77,,,,33.0,,20,7.0,170.0,,29.06,,,,,,,,,,,,,,,,,,,,,,,,,,,,,,,,,,,,,,,,,,,,,,,,,,,,,,,,,,,,,,,,,,,,,
KBUR,Burbank,,34.1808,-118.3089,2012-03-05 17:53:00,,CLR,10.0,,71,,,,36.0,,28,7.0,180.0,,29.07,,,,,,,,,,,,,,,,,,,,,,,,,,,,,,,,,,,,,,,,,,,,,,,,,,,,,,,,,,,,,,,,,,,,,
KBUR,Burbank,,34.1808,-118.3089,2012-03-05 18:53:00,,CLR,10.0,,69,,,,34.0,,27,3.0,140.0,,29.09,1.0,Rising Rapidly,,,,,,,,,,,,,,,,,,,,,,,,,,,,,,,,,,,,,,,,,,,,,,,,,,,,,,,,,,,,,,,,,,,
KBUR,Burbank,,34.1808,-118.3089,2012-03-05 19:53:00,,CLR,10.0,,65,,,,39.0,,39,,,,29.09,,,,,,,,,,,,,,,,,,,,,,,,,,,,,,,,,,,,,,,,,,,,,,,,,,,,,,,,,,,,,,,,,,,,,
KBUR,Burbank,,34.1808,-118.3089,2012-03-05 20:53:00,,CLR,10.0,,63,,,,39.0,,41,6.0,80.0,,29.1,,,,,,,,,,,,,,,,,,,,,,,,,,,,,,,,,,,,,,,,,,,,,,,,,,,,,,,,,,,,,,,,,,,,,
KBUR,Burbank,,34.1808,-118.3089,2012-03-05 21:53:00,,CLR,10.0,,61,,,,44.0,,54,5.0,140.0,,29.1,1.0,Rising,,,,79.0,61.0,,,,,,,,,,,,,,,,,,,,,,,,,,,,,,,,,,,,,,,,,,,,,,,,,,,,,,,,,,,,,,
KBUR,Burbank,,34.1808,-118.3089,2012-03-05 22:53:00,,CLR,10.0,,59,,,,42.0,,53,,,,29.09,,,,,,,,,,,,,,,,,,,,,,,,,,,,,,,,,,,,,,,,,,,,,,,,,,,,,,,,,,,,,,,,,,,,,
KBUR,Burbank,,34.1808,-118.3089,2012-03-05 23:53:00,,CLR,10.0,,58,,,,43.0,,58,3.0,90.0,,29.08,,,,,,82.0,54.0,,,,,,,,,,,,,,,,,,,,,,,,,,,,,,,,,,,,,,,,,,,,,,,,,,,,,,,,,,,,,,
KBUR,Burbank,,34.1808,-118.3089,2012-03-06 00:53:00,,CLR,10.0,,55,,,,43.0,,64,3.0,20.0,,29.07,2.0,Falling,,,,,,,,,,,,,,,,,,,,,,,,,,,,,,,,,,,,,,,,,,,,,,,,,,,,,,,,,,,,,,,,,,,
KBUR,Burbank,,34.1808,-118.3089,2012-03-06 01:53:00,,CLR,10.0,,54,,,,43.0,,66,5.0,110.0,,29.07,,,,,,,,,,,,,,,,,,,,,,,,,,,,,,,,,,,,,,,,,,,,,,,,,,,,,,,,,,,,,,,,,,,,,
KBUR,Burbank,,34.1808,-118.3089,2012-03-06 02:53:00,,CLR,10.0,,51,,,,47.0,,86,5.0,120.0,,29.04,,,,,,,,,,,,,,,,,,,,,,,,,,,,,,,,,,,,,,,,,,,,,,,,,,,,,,,,,,,,,,,,,,,,,
KBUR,Burbank,,34.1808,-118.3089,2012-03-06 03:06:00,,BKN,2.0,,48,,,,46.0,,93,8.0,130.0,,29.06,,,,,,,,,,,,,,,,,,,,,,,,,,,,,,,,,,,,,,,,,,,,,,,,,,,,,,,,,,,,,,,,,,,,,
KBUR,Burbank,,34.1808,-118.3089,2012-03-06 03:10:00,,OVC,1.0,,48,,,,48.0,,100,6.0,120.0,,29.06,,,,,,,,,,,,,,,,,,,,,,,,,,,,,,,,,,,,,,,,,,,,,,,,,,,,,,,,,,,,,,,,,,,,,
KBUR,Burbank,,34.1808,-118.3089,2012-03-06 03:17:00,,OVC,0.5,,48,,,,48.0,,100,7.0,110.0,,29.06,,,,,,,,,,,,,,,,,,,,,,,,,,,,,,,,,,,,,,,,,,,,,,,,,,,,,,,,,,,,,,,,,,,,,
KBUR,Burbank,,34.1808,-118.3089,2012-03-06 03:49:00,,OVC,2.0,,48,,,,48.0,,100,7.0,100.0,,29.06,,,,,,,,,,,,,,,,,,,,,,,,,,,,,,,,,,,,,,,,,,,,,,,,,,,,,,,,,,,,,,,,,,,,,
KBUR,Burbank,,34.1808,-118.3089,2012-03-06 03:53:00,,OVC,3.0,,49,,,,48.0,,97,5.0,90.0,,29.03,2.0,Falling Rapidly,,,,61.0,48.0,,,,,,,,,,,,,,,,,,,,,,,,,,,,,,,,,,,,,,,,,,,,,,,,,,,,,,,,,,,,,,
KBUR,Burbank,,34.1808,-118.3089,2012-03-06 04:53:00,,OVC,4.0,,49,,,,47.0,,93,6.0,110.0,,29.04,,,,,,,,,,,,,,,,,,,,,,,,,,,,,,,,,,,,,,,,,,,,,,,,,,,,,,,,,,,,,,,,,,,,,
KBUR,Burbank,,34.1808,-118.3089,2012-03-06 05:35:00,,OVC,4.0,,50,,,,46.0,,87,,,,29.07,,,,,,,,,,,,,,,,,,,,,,,,,,,,,,,,,,,,,,,,,,,,,,,,,,,,,,,,,,,,,,,,,,,,,
KBUR,Burbank,,34.1808,-118.3089,2012-03-06 05:53:00,,OVC,5.0,,51,,,,47.0,,86,8.0,150.0,,29.04,,,,,,,,,,,,,,,,,,,,,,,,,,,,,,,,,,,,,,,,,,,,,,,,,,,,,,,,,,,,,,,,,,,,,
KBUR,Burbank,,34.1808,-118.3089,2012-03-06 06:53:00,,OVC,4.0,,51,,,,46.0,,83,5.0,100.0,,29.05,1.0,Rising Rapidly,,,,,,,,,,,,,,,,,,,,,,,,,,,,,,,,,,,,,,,,,,,,,,,,,,,,,,,,,,,,,,,,,,,
KBUR,Burbank,,34.1808,-118.3089,2012-03-06 07:53:00,,OVC,5.0,,51,,,,46.0,,83,6.0,140.0,,29.05,,,,,,,,,,,,,,,,,,,,,,,,,,,,,,,,,,,,,,,,,,,,,,,,,,,,,,,,,,,,,,,,,,,,,
KBUR,Burbank,,34.1808,-118.3089,2012-03-06 08:53:00,,OVC,6.0,,51,,,,45.0,,80,3.0,130.0,,29.07,,,,,,,,,,,,,,,,,,,,,,,,,,,,,,,,,,,,,,,,,,,,,,,,,,,,,,,,,,,,,,,,,,,,,
KBUR,Burbank,,34.1808,-118.3089,2012-03-06 09:53:00,,OVC,6.0,,53,,,,46.0,,77,7.0,180.0,,29.06,0.0,Steady,,,,53.0,49.0,,,,,,,,,,,,,,,,,,,,,,,,,,,,,,,,,,,,,,,,,,,,,,,,,,,,,,,,,,,,,,
KBUR,Burbank,,34.1808,-118.3089,2012-03-06 10:53:00,,OVC,7.0,,54,,,,45.0,,72,7.0,160.0,,29.06,,,,,,,,,,,,,,,,,,,,,,,,,,,,,,,,,,,,,,,,,,,,,,,,,,,,,,,,,,,,,,,,,,,,,
KBUR,Burbank,,34.1808,-118.3089,2012-03-06 11:53:00,,OVC,10.0,,56,,,,46.0,,69,10.0,120.0,,29.03,,,,,,,,,,,,,,,,,,,,,,,,,,,,,,,,,,,,,,,,,,,,,,,,,,,,,,,,,,,,,,,,,,,,,
KBUR,Burbank,,34.1808,-118.3089,2012-03-06 12:23:00,,BKN,7.0,,57,,,,46.0,,67,15.0,170.0,20.0,29.02,,,,,,,,,,,,,,,,,,,,,,,,,,,,,,,,,,,,,,,,,,,,,,,,,,,,,,,,,,,,,,,,,,,,,
KBUR,Burbank,,34.1808,-118.3089,2012-03-06 12:30:00,,BKN,7.0,,55,,,,46.0,,72,13.0,170.0,,29.02,,,,,,,,,,,,,,,,,,,,,,,,,,,,,,,,,,,,,,,,,,,,,,,,,,,,,,,,,,,,,,,,,,,,,
KBUR,Burbank,,34.1808,-118.3089,2012-03-06 12:53:00,,BKN,10.0,,56,,,,45.0,,67,14.0,190.0,,29.0,2.0,Falling Rapidly,,,,,,,,,,,,,,,,,,,,,,,,,,,,,,,,,,,,,,,,,,,,,,,,,,,,,,,,,,,,,,,,,,,
KBUR,Burbank,,34.1808,-118.3089,2012-03-06 13:28:00,,BKN,10.0,,55,,,,43.0,,63,10.0,180.0,,28.99,,,,,,,,,,,,,,,,,,,,,,,,,,,,,,,,,,,,,,,,,,,,,,,,,,,,,,,,,,,,,,,,,,,,,
KBUR,Burbank,,34.1808,-118.3089,2012-03-06 13:53:00,,BKN,10.0,,55,,,,45.0,,69,14.0,200.0,18.0,28.97,,,,,,,,,,,,,,,,,,,,,,,,,,,,,,,,,,,,,,,,,,,,,,,,,,,,,,,,,,,,,,,,,,,,,
KBUR,Burbank,,34.1808,-118.3089,2012-03-06 14:30:00,,OVC,10.0,,55,,,,45.0,,67,13.0,180.0,,28.98,,,,,,,,,,,,,,,,,,,,,,,,,,,,,,,,,,,,,,,,,,,,,,,,,,,,,,,,,,,,,,,,,,,,,
KBUR,Burbank,,34.1808,-118.3089,2012-03-06 14:53:00,,OVC,10.0,,54,,,,43.0,,66,13.0,180.0,,28.96,,,,,,,,,,,,,,,,,,,,,,,,,,,,,,,,,,,,,,,,,,,,,,,,,,,,,,,,,,,,,,,,,,,,,
KBUR,Burbank,,34.1808,-118.3089,2012-03-06 15:53:00,,BKN,10.0,,54,,,,41.0,,62,13.0,160.0,,28.94,2.0,Falling,,,,57.0,52.0,,,,,,,,,,,,,,,,,,,,,,,,,,,,,,,,,,,,,,,,,,,,,,,,,,,,,,,,,,,,,,
KBUR,Burbank,,34.1808,-118.3089,2012-03-06 16:53:00,,BKN,10.0,,53,,,,41.0,,64,9.0,150.0,,28.93,,,,,,,,,,,,,,,,,,,,,,,,,,,,,,,,,,,,,,,,,,,,,,,,,,,,,,,,,,,,,,,,,,,,,
KBUR,Burbank,,34.1808,-118.3089,2012-03-06 17:53:00,,BKN,10.0,,52,,,,41.0,,66,12.0,130.0,,28.93,,,,,,,,,,,,,,,,,,,,,,,,,,,,,,,,,,,,,,,,,,,,,,,,,,,,,,,,,,,,,,,,,,,,,
KBUR,Burbank,,34.1808,-118.3089,2012-03-06 18:53:00,,OVC,10.0,,52,,,,40.0,,63,,,,28.96,1.0,Rising Rapidly,,,,,,,,,,,,,,,,,,,,,,,,,,,,,,,,,,,,,,,,,,,,,,,,,,,,,,,,,,,,,,,,,,,
KBUR,Burbank,,34.1808,-118.3089,2012-03-06 19:53:00,,SCT,10.0,,52,,,,21.0,,30,14.0,350.0,,28.93,,,,,,,,,,,,,,,,,,,,,,,,,,,,,,,,,,,,,,,,,,,,,,,,,,,,,,,,,,,,,,,,,,,,,
KBUR,Burbank,,34.1808,-118.3089,2012-03-06 20:53:00,,CLR,10.0,,51,,,,19.0,,28,21.0,360.0,35.0,28.98,,,,,,,,,,,,,,,,,,,,,,,,,,,,,,,,,,,,,,,,,,,,,,,,,,,,,,,,,,,,,,,,,,,,,
KBUR,Burbank,,34.1808,-118.3089,2012-03-06 21:53:00,,CLR,10.0,,51,,,,13.0,,22,16.0,350.0,35.0,28.99,1.0,Rising Rapidly,,,,54.0,51.0,,,,,,,,,,,,,,,,,,,,,,,,,,,,,,,,,,,,,,,,,,,,,,,,,,,,,,,,,,,,,,
KBUR,Burbank,,34.1808,-118.3089,2012-03-06 22:53:00,,CLR,10.0,,49,,,,14.0,,25,12.0,10.0,,29.0,,,,,,,,,,,,,,,,,,,,,,,,,,,,,,,,,,,,,,,,,,,,,,,,,,,,,,,,,,,,,,,,,,,,,
KBUR,Burbank,,34.1808,-118.3089,2012-03-06 23:53:00,,CLR,10.0,,49,,,,15.0,,26,6.0,340.0,,29.01,,,,,,58.0,48.0,,,,,,,,,,,,,,,,,,,,,,,,,,,,,,,,,,,,,,,,,,,,,,,,,,,,,,,,,,,,,,
KBUR,Burbank,,34.1808,-118.3089,2012-03-07 00:53:00,,CLR,10.0,,48,,,,13.0,,24,15.0,350.0,20.0,29.03,1.0,Rising Rapidly,,,,,,,,,,,,,,,,,,,,,,,,,,,,,,,,,,,,,,,,,,,,,,,,,,,,,,,,,,,,,,,,,,,
KBUR,Burbank,,34.1808,-118.3089,2012-03-07 01:53:00,,CLR,10.0,,47,,,,12.0,,24,16.0,360.0,25.0,29.03,,,,,,,,,,,,,,,,,,,,,,,,,,,,,,,,,,,,,,,,,,,,,,,,,,,,,,,,,,,,,,,,,,,,,
KBUR,Burbank,,34.1808,-118.3089,2012-03-07 02:53:00,,CLR,10.0,,47,,,,12.0,,24,13.0,360.0,,29.03,,,,,,,,,,,,,,,,,,,,,,,,,,,,,,,,,,,,,,,,,,,,,,,,,,,,,,,,,,,,,,,,,,,,,
KBUR,Burbank,,34.1808,-118.3089,2012-03-07 03:53:00,,CLR,10.0,,47,,,,13.0,,25,16.0,360.0,25.0,29.04,1.0,Rising Rapidly,,,,51.0,47.0,,,,,,,,,,,,,,,,,,,,,,,,,,,,,,,,,,,,,,,,,,,,,,,,,,,,,,,,,,,,,,
KBUR,Burbank,,34.1808,-118.3089,2012-03-07 04:53:00,,CLR,10.0,,47,,,,13.0,,25,18.0,340.0,29.0,29.08,,,,,,,,,,,,,,,,,,,,,,,,,,,,,,,,,,,,,,,,,,,,,,,,,,,,,,,,,,,,,,,,,,,,,
KBUR,Burbank,,34.1808,-118.3089,2012-03-07 05:53:00,,CLR,10.0,,45,,,,13.0,,27,13.0,20.0,22.0,29.1,,,,,,,,,,,,,,,,,,,,,,,,,,,,,,,,,,,,,,,,,,,,,,,,,,,,,,,,,,,,,,,,,,,,,
KBUR,Burbank,,34.1808,-118.3089,2012-03-07 06:53:00,,CLR,10.0,,45,,,,8.0,,22,9.0,330.0,,29.12,1.0,Rising,,,,,,,,,,,,,,,,,,,,,,,,,,,,,,,,,,,,,,,,,,,,,,,,,,,,,,,,,,,,,,,,,,,
KBUR,Burbank,,34.1808,-118.3089,2012-03-07 07:53:00,,CLR,10.0,,47,,,,6.0,,19,8.0,330.0,,29.14,,,,,,,,,,,,,,,,,,,,,,,,,,,,,,,,,,,,,,,,,,,,,,,,,,,,,,,,,,,,,,,,,,,,,
KBUR,Burbank,,34.1808,-118.3089,2012-03-07 08:53:00,,CLR,10.0,,51,,,,1.0,,13,7.0,330.0,,29.16,,,,,,,,,,,,,,,,,,,,,,,,,,,,,,,,,,,,,,,,,,,,,,,,,,,,,,,,,,,,,,,,,,,,,
KBUR,Burbank,,34.1808,-118.3089,2012-03-07 09:53:00,,CLR,10.0,,53,,,,-1.0,,11,15.0,340.0,,29.17,1.0,Rising,,,,53.0,45.0,,,,,,,,,,,,,,,,,,,,,,,,,,,,,,,,,,,,,,,,,,,,,,,,,,,,,,,,,,,,,,
KBUR,Burbank,,34.1808,-118.3089,2012-03-07 10:53:00,,CLR,10.0,,56,,,,3.0,,12,16.0,340.0,22.0,29.16,,,,,,,,,,,,,,,,,,,,,,,,,,,,,,,,,,,,,,,,,,,,,,,,,,,,,,,,,,,,,,,,,,,,,
KBUR,Burbank,,34.1808,-118.3089,2012-03-07 11:53:00,,CLR,10.0,,58,,,,1.0,,10,7.0,,,29.17,,,,,,,,,,,,,,,,,,,,,,,,,,,,,,,,,,,,,,,,,,,,,,,,,,,,,,,,,,,,,,,,,,,,,
KBUR,Burbank,,34.1808,-118.3089,2012-03-07 12:53:00,,CLR,10.0,,60,,,,3.0,,10,3.0,,,29.17,0.0,Steady,,,,,,,,,,,,,,,,,,,,,,,,,,,,,,,,,,,,,,,,,,,,,,,,,,,,,,,,,,,,,,,,,,,
KBUR,Burbank,,34.1808,-118.3089,2012-03-07 13:53:00,,CLR,10.0,,61,,,,4.0,,10,3.0,,,29.16,,,,,,,,,,,,,,,,,,,,,,,,,,,,,,,,,,,,,,,,,,,,,,,,,,,,,,,,,,,,,,,,,,,,,
KBUR,Burbank,,34.1808,-118.3089,2012-03-07 14:53:00,,CLR,10.0,,62,,,,14.0,,15,13.0,200.0,20.0,29.16,,,,,,,,,,,,,,,,,,,,,,,,,,,,,,,,,,,,,,,,,,,,,,,,,,,,,,,,,,,,,,,,,,,,,
KBUR,Burbank,,34.1808,-118.3089,2012-03-07 15:53:00,,CLR,10.0,,59,,,,18.0,,20,10.0,210.0,,29.18,1.0,Rising Rapidly,,,,63.0,53.0,,,,,,,,,,,,,,,,,,,,,,,,,,,,,,,,,,,,,,,,,,,,,,,,,,,,,,,,,,,,,,
KBUR,Burbank,,34.1808,-118.3089,2012-03-07 16:53:00,,CLR,10.0,,56,,,,26.0,,32,9.0,190.0,,29.2,,,,,,,,,,,,,,,,,,,,,,,,,,,,,,,,,,,,,,,,,,,,,,,,,,,,,,,,,,,,,,,,,,,,,
KBUR,Burbank,,34.1808,-118.3089,2012-03-07 17:53:00,,CLR,10.0,,53,,,,31.0,,43,8.0,160.0,,29.23,,,,,,,,,,,,,,,,,,,,,,,,,,,,,,,,,,,,,,,,,,,,,,,,,,,,,,,,,,,,,,,,,,,,,
KBUR,Burbank,,34.1808,-118.3089,2012-03-07 18:53:00,,CLR,10.0,,50,,,,,,50,5.0,170.0,,29.24,1.0,Rising,,,,,,,,,,,,,,,,,,,,,,,,,,,,,,,,,,,,,,,,,,,,,,,,,,,,,,,,,,,,,,,,,,,
KBUR,Burbank,,34.1808,-118.3089,2012-03-07 19:53:00,,CLR,10.0,,49,,,,34.0,,56,3.0,180.0,,29.26,,,,,,,,,,,,,,,,,,,,,,,,,,,,,,,,,,,,,,,,,,,,,,,,,,,,,,,,,,,,,,,,,,,,,
KBUR,Burbank,,34.1808,-118.3089,2012-03-07 20:53:00,,CLR,10.0,,48,,,,34.0,,58,,,,29.28,,,,,,,,,,,,,,,,,,,,,,,,,,,,,,,,,,,,,,,,,,,,,,,,,,,,,,,,,,,,,,,,,,,,,
KBUR,Burbank,,34.1808,-118.3089,2012-03-07 21:53:00,,CLR,10.0,,47,,,,26.0,,44,8.0,260.0,,29.28,1.0,Rising,,,,59.0,47.0,,,,,,,,,,,,,,,,,,,,,,,,,,,,,,,,,,,,,,,,,,,,,,,,,,,,,,,,,,,,,,
KBUR,Burbank,,34.1808,-118.3089,2012-03-07 22:53:00,,CLR,10.0,,46,,,,25.0,,44,,,,29.29,,,,,,,,,,,,,,,,,,,,,,,,,,,,,,,,,,,,,,,,,,,,,,,,,,,,,,,,,,,,,,,,,,,,,
KBUR,Burbank,,34.1808,-118.3089,2012-03-07 23:53:00,,CLR,10.0,,43,,,,24.0,,47,,,,29.3,,,,,,63.0,43.0,,,,,,,,,,,,,,,,,,,,,,,,,,,,,,,,,,,,,,,,,,,,,,,,,,,,,,,,,,,,,,
KBUR,Burbank,,34.1808,-118.3089,2012-03-08 00:53:00,,CLR,10.0,,43,,,,20.0,,40,,,,29.3,0.0,Steady,,,,,,,,,,,,,,,,,,,,,,,,,,,,,,,,,,,,,,,,,,,,,,,,,,,,,,,,,,,,,,,,,,,
KBUR,Burbank,,34.1808,-118.3089,2012-03-08 01:53:00,,CLR,10.0,,43,,,,20.0,,40,,,,29.3,,,,,,,,,,,,,,,,,,,,,,,,,,,,,,,,,,,,,,,,,,,,,,,,,,,,,,,,,,,,,,,,,,,,,
KBUR,Burbank,,34.1808,-118.3089,2012-03-08 02:53:00,,CLR,10.0,,41,,,,20.0,,43,3.0,340.0,,29.3,,,,,,,,,,,,,,,,,,,,,,,,,,,,,,,,,,,,,,,,,,,,,,,,,,,,,,,,,,,,,,,,,,,,,
KBUR,Burbank,,34.1808,-118.3089,2012-03-08 03:53:00,,CLR,10.0,,42,,,,20.0,,41,,,,29.3,0.0,Steady,,,,47.0,40.0,,,,,,,,,,,,,,,,,,,,,,,,,,,,,,,,,,,,,,,,,,,,,,,,,,,,,,,,,,,,,,
KBUR,Burbank,,34.1808,-118.3089,2012-03-08 04:53:00,,CLR,10.0,,40,,,,23.0,,51,,,,29.32,,,,,,,,,,,,,,,,,,,,,,,,,,,,,,,,,,,,,,,,,,,,,,,,,,,,,,,,,,,,,,,,,,,,,
KBUR,Burbank,,34.1808,-118.3089,2012-03-08 05:53:00,,CLR,10.0,,39,,,,22.0,,50,,,,29.34,,,,,,,,,,,,,,,,,,,,,,,,,,,,,,,,,,,,,,,,,,,,,,,,,,,,,,,,,,,,,,,,,,,,,
KBUR,Burbank,,34.1808,-118.3089,2012-03-08 06:53:00,,CLR,10.0,,42,,,,19.0,,40,5.0,360.0,,29.37,1.0,Rising Rapidly,,,,,,,,,,,,,,,,,,,,,,,,,,,,,,,,,,,,,,,,,,,,,,,,,,,,,,,,,,,,,,,,,,,
KBUR,Burbank,,34.1808,-118.3089,2012-03-08 07:53:00,,CLR,10.0,,50,,,,20.0,,31,3.0,120.0,,29.39,,,,,,,,,,,,,,,,,,,,,,,,,,,,,,,,,,,,,,,,,,,,,,,,,,,,,,,,,,,,,,,,,,,,,
KBUR,Burbank,,34.1808,-118.3089,2012-03-08 08:53:00,,CLR,10.0,,57,,,,17.0,,21,,,,29.4,,,,,,,,,,,,,,,,,,,,,,,,,,,,,,,,,,,,,,,,,,,,,,,,,,,,,,,,,,,,,,,,,,,,,
KBUR,Burbank,,34.1808,-118.3089,2012-03-08 09:53:00,,CLR,10.0,,63,,,,13.0,,14,,,,29.4,1.0,Rising,,,,63.0,39.0,,,,,,,,,,,,,,,,,,,,,,,,,,,,,,,,,,,,,,,,,,,,,,,,,,,,,,,,,,,,,,
KBUR,Burbank,,34.1808,-118.3089,2012-03-08 10:53:00,,CLR,10.0,,68,,,,13.0,,12,3.0,,,29.4,,,,,,,,,,,,,,,,,,,,,,,,,,,,,,,,,,,,,,,,,,,,,,,,,,,,,,,,,,,,,,,,,,,,,
KBUR,Burbank,,34.1808,-118.3089,2012-03-08 11:53:00,,CLR,10.0,,70,,,,12.0,,11,10.0,160.0,,29.37,,,,,,,,,,,,,,,,,,,,,,,,,,,,,,,,,,,,,,,,,,,,,,,,,,,,,,,,,,,,,,,,,,,,,
KBUR,Burbank,,34.1808,-118.3089,2012-03-08 12:53:00,,CLR,10.0,,72,,,,13.0,,10,3.0,,,29.35,2.0,Falling Rapidly,,,,,,,,,,,,,,,,,,,,,,,,,,,,,,,,,,,,,,,,,,,,,,,,,,,,,,,,,,,,,,,,,,,
KBUR,Burbank,,34.1808,-118.3089,2012-03-08 13:53:00,,CLR,10.0,,73,,,,17.0,,12,9.0,160.0,,29.33,,,,,,,,,,,,,,,,,,,,,,,,,,,,,,,,,,,,,,,,,,,,,,,,,,,,,,,,,,,,,,,,,,,,,
KBUR,Burbank,,34.1808,-118.3089,2012-03-08 14:53:00,,CLR,10.0,,73,,,,15.0,,11,10.0,160.0,,29.33,,,,,,,,,,,,,,,,,,,,,,,,,,,,,,,,,,,,,,,,,,,,,,,,,,,,,,,,,,,,,,,,,,,,,
KBUR,Burbank,,34.1808,-118.3089,2012-03-08 15:53:00,,CLR,10.0,,70,,,,14.0,,12,10.0,190.0,,29.33,0.0,Steady,,,,74.0,63.0,,,,,,,,,,,,,,,,,,,,,,,,,,,,,,,,,,,,,,,,,,,,,,,,,,,,,,,,,,,,,,
KBUR,Burbank,,34.1808,-118.3089,2012-03-08 16:53:00,,CLR,10.0,,68,,,,13.0,,12,9.0,180.0,,29.35,,,,,,,,,,,,,,,,,,,,,,,,,,,,,,,,,,,,,,,,,,,,,,,,,,,,,,,,,,,,,,,,,,,,,
KBUR,Burbank,,34.1808,-118.3089,2012-03-08 17:53:00,,CLR,10.0,,66,,,,16.0,,15,3.0,150.0,,29.36,,,,,,,,,,,,,,,,,,,,,,,,,,,,,,,,,,,,,,,,,,,,,,,,,,,,,,,,,,,,,,,,,,,,,
KBUR,Burbank,,34.1808,-118.3089,2012-03-08 18:53:00,,CLR,10.0,,64,,,,17.0,,16,,,,29.36,1.0,Rising,,,,,,,,,,,,,,,,,,,,,,,,,,,,,,,,,,,,,,,,,,,,,,,,,,,,,,,,,,,,,,,,,,,
KBUR,Burbank,,34.1808,-118.3089,2012-03-08 19:53:00,,CLR,10.0,,59,,,,21.0,,23,3.0,330.0,,29.37,,,,,,,,,,,,,,,,,,,,,,,,,,,,,,,,,,,,,,,,,,,,,,,,,,,,,,,,,,,,,,,,,,,,,
KBUR,Burbank,,34.1808,-118.3089,2012-03-08 20:53:00,,CLR,10.0,,57,,,,20.0,,24,5.0,310.0,,29.37,,,,,,,,,,,,,,,,,,,,,,,,,,,,,,,,,,,,,,,,,,,,,,,,,,,,,,,,,,,,,,,,,,,,,
KBUR,Burbank,,34.1808,-118.3089,2012-03-08 21:53:00,,CLR,10.0,,55,,,,20.0,,25,,,,29.38,1.0,Rising Rapidly,,,,70.0,55.0,,,,,,,,,,,,,,,,,,,,,,,,,,,,,,,,,,,,,,,,,,,,,,,,,,,,,,,,,,,,,,
KBUR,Burbank,,34.1808,-118.3089,2012-03-08 22:53:00,,CLR,10.0,,53,,,,22.0,,30,,,,29.39,,,,,,,,,,,,,,,,,,,,,,,,,,,,,,,,,,,,,,,,,,,,,,,,,,,,,,,,,,,,,,,,,,,,,
KBUR,Burbank,,34.1808,-118.3089,2012-03-08 23:53:00,,CLR,10.0,,52,,,,18.0,,26,,,,29.4,,,,,,74.0,39.0,,,,,,,,,,,,,,,,,,,,,,,,,,,,,,,,,,,,,,,,,,,,,,,,,,,,,,,,,,,,,,
KBUR,Burbank,,34.1808,-118.3089,2012-03-09 00:53:00,,CLR,10.0,,51,,,,19.0,,28,5.0,330.0,,29.4,0.0,Steady,,,,,,,,,,,,,,,,,,,,,,,,,,,,,,,,,,,,,,,,,,,,,,,,,,,,,,,,,,,,,,,,,,,
KBUR,Burbank,,34.1808,-118.3089,2012-03-09 01:53:00,,CLR,10.0,,53,,,,16.0,,23,5.0,340.0,,29.38,,,,,,,,,,,,,,,,,,,,,,,,,,,,,,,,,,,,,,,,,,,,,,,,,,,,,,,,,,,,,,,,,,,,,
KBUR,Burbank,,34.1808,-118.3089,2012-03-09 02:53:00,,CLR,10.0,,50,,,,20.0,,31,,,,29.37,,,,,,,,,,,,,,,,,,,,,,,,,,,,,,,,,,,,,,,,,,,,,,,,,,,,,,,,,,,,,,,,,,,,,
KBUR,Burbank,,34.1808,-118.3089,2012-03-09 03:53:00,,CLR,10.0,,46,,,,22.0,,39,,,,29.37,2.0,Falling,,,,57.0,46.0,,,,,,,,,,,,,,,,,,,,,,,,,,,,,,,,,,,,,,,,,,,,,,,,,,,,,,,,,,,,,,
KBUR,Burbank,,34.1808,-118.3089,2012-03-09 04:53:00,,CLR,10.0,,49,,,,17.0,,28,5.0,240.0,,29.37,,,,,,,,,,,,,,,,,,,,,,,,,,,,,,,,,,,,,,,,,,,,,,,,,,,,,,,,,,,,,,,,,,,,,
KBUR,Burbank,,34.1808,-118.3089,2012-03-09 05:53:00,,CLR,10.0,,47,,,,18.0,,32,5.0,250.0,,29.37,,,,,,,,,,,,,,,,,,,,,,,,,,,,,,,,,,,,,,,,,,,,,,,,,,,,,,,,,,,,,,,,,,,,,
KBUR,Burbank,,34.1808,-118.3089,2012-03-09 06:53:00,,CLR,10.0,,48,,,,19.0,,32,3.0,270.0,,29.38,0.0,Steady,,,,,,,,,,,,,,,,,,,,,,,,,,,,,,,,,,,,,,,,,,,,,,,,,,,,,,,,,,,,,,,,,,,
KBUR,Burbank,,34.1808,-118.3089,2012-03-09 07:53:00,,CLR,10.0,,54,,,,18.0,,24,3.0,,,29.38,,,,,,,,,,,,,,,,,,,,,,,,,,,,,,,,,,,,,,,,,,,,,,,,,,,,,,,,,,,,,,,,,,,,,
KBUR,Burbank,,34.1808,-118.3089,2012-03-09 08:53:00,,CLR,10.0,,64,,,,15.0,,15,,,,29.37,,,,,,,,,,,,,,,,,,,,,,,,,,,,,,,,,,,,,,,,,,,,,,,,,,,,,,,,,,,,,,,,,,,,,
KBUR,Burbank,,34.1808,-118.3089,2012-03-09 09:53:00,,CLR,10.0,,72,,,,19.0,,13,,,,29.36,2.0,Falling Rapidly,,,,72.0,45.0,,,,,,,,,,,,,,,,,,,,,,,,,,,,,,,,,,,,,,,,,,,,,,,,,,,,,,,,,,,,,,
KBUR,Burbank,,34.1808,-118.3089,2012-03-09 10:53:00,,CLR,10.0,,78,,,,15.0,,9,7.0,170.0,,29.34,,,,,,,,,,,,,,,,,,,,,,,,,,,,,,,,,,,,,,,,,,,,,,,,,,,,,,,,,,,,,,,,,,,,,
KBUR,Burbank,,34.1808,-118.3089,2012-03-09 11:53:00,,CLR,10.0,,79,,,,14.0,,9,5.0,270.0,,29.3,,,,,,,,,,,,,,,,,,,,,,,,,,,,,,,,,,,,,,,,,,,,,,,,,,,,,,,,,,,,,,,,,,,,,
KBUR,Burbank,,34.1808,-118.3089,2012-03-09 12:53:00,,CLR,10.0,,80,,,,15.0,,9,7.0,,,29.27,2.0,Falling Rapidly,,,,,,,,,,,,,,,,,,,,,,,,,,,,,,,,,,,,,,,,,,,,,,,,,,,,,,,,,,,,,,,,,,,
KBUR,Burbank,,34.1808,-118.3089,2012-03-09 13:53:00,,CLR,10.0,,80,,,,16.0,,9,13.0,180.0,,29.23,,,,,,,,,,,,,,,,,,,,,,,,,,,,,,,,,,,,,,,,,,,,,,,,,,,,,,,,,,,,,,,,,,,,,
KBUR,Burbank,,34.1808,-118.3089,2012-03-09 14:53:00,,CLR,10.0,,80,,,,17.0,,9,13.0,190.0,,29.22,,,,,,,,,,,,,,,,,,,,,,,,,,,,,,,,,,,,,,,,,,,,,,,,,,,,,,,,,,,,,,,,,,,,,
KBUR,Burbank,,34.1808,-118.3089,2012-03-09 15:53:00,,CLR,10.0,,78,,,,17.0,,10,8.0,170.0,,29.2,2.0,Falling,,,,82.0,72.0,,,,,,,,,,,,,,,,,,,,,,,,,,,,,,,,,,,,,,,,,,,,,,,,,,,,,,,,,,,,,,
KBUR,Burbank,,34.1808,-118.3089,2012-03-09 16:53:00,,CLR,10.0,,76,,,,16.0,,10,9.0,130.0,,29.18,,,,,,,,,,,,,,,,,,,,,,,,,,,,,,,,,,,,,,,,,,,,,,,,,,,,,,,,,,,,,,,,,,,,,
KBUR,Burbank,,34.1808,-118.3089,2012-03-09 17:53:00,,CLR,10.0,,74,,,,17.0,,12,5.0,110.0,,29.18,,,,,,,,,,,,,,,,,,,,,,,,,,,,,,,,,,,,,,,,,,,,,,,,,,,,,,,,,,,,,,,,,,,,,
KBUR,Burbank,,34.1808,-118.3089,2012-03-09 18:53:00,,CLR,10.0,,70,,,,19.0,,14,,,,29.19,0.0,Steady,,,,,,,,,,,,,,,,,,,,,,,,,,,,,,,,,,,,,,,,,,,,,,,,,,,,,,,,,,,,,,,,,,,
KBUR,Burbank,,34.1808,-118.3089,2012-03-09 19:53:00,,CLR,10.0,,67,,,,20.0,,17,3.0,280.0,,29.19,,,,,,,,,,,,,,,,,,,,,,,,,,,,,,,,,,,,,,,,,,,,,,,,,,,,,,,,,,,,,,,,,,,,,
KBUR,Burbank,,34.1808,-118.3089,2012-03-09 20:53:00,,CLR,10.0,,63,,,,22.0,,21,5.0,290.0,,29.18,,,,,,,,,,,,,,,,,,,,,,,,,,,,,,,,,,,,,,,,,,,,,,,,,,,,,,,,,,,,,,,,,,,,,
KBUR,Burbank,,34.1808,-118.3089,2012-03-09 21:53:00,,CLR,10.0,,60,,,,20.0,,21,6.0,290.0,,29.17,2.0,Falling Rapidly,,,,79.0,60.0,,,,,,,,,,,,,,,,,,,,,,,,,,,,,,,,,,,,,,,,,,,,,,,,,,,,,,,,,,,,,,
KBUR,Burbank,,34.1808,-118.3089,2012-03-09 22:53:00,,CLR,10.0,,56,,,,19.0,,24,3.0,40.0,,29.17,,,,,,,,,,,,,,,,,,,,,,,,,,,,,,,,,,,,,,,,,,,,,,,,,,,,,,,,,,,,,,,,,,,,,
KBUR,Burbank,,34.1808,-118.3089,2012-03-09 23:53:00,,CLR,10.0,,54,,,,19.0,,25,,,,29.16,,,,,,82.0,45.0,,,,,,,,,,,,,,,,,,,,,,,,,,,,,,,,,,,,,,,,,,,,,,,,,,,,,,,,,,,,,,
KBUR,Burbank,,34.1808,-118.3089,2012-03-10 00:53:00,,CLR,10.0,,52,,,,17.0,,25,5.0,350.0,,29.16,2.0,Falling,,,,,,,,,,,,,,,,,,,,,,,,,,,,,,,,,,,,,,,,,,,,,,,,,,,,,,,,,,,,,,,,,,,
KBUR,Burbank,,34.1808,-118.3089,2012-03-10 01:53:00,,CLR,10.0,,55,,,,14.0,,20,7.0,10.0,,29.14,,,,,,,,,,,,,,,,,,,,,,,,,,,,,,,,,,,,,,,,,,,,,,,,,,,,,,,,,,,,,,,,,,,,,
KBUR,Burbank,,34.1808,-118.3089,2012-03-10 02:53:00,,CLR,10.0,,56,,,,14.0,,19,5.0,90.0,,29.13,,,,,,,,,,,,,,,,,,,,,,,,,,,,,,,,,,,,,,,,,,,,,,,,,,,,,,,,,,,,,,,,,,,,,
KBUR,Burbank,,34.1808,-118.3089,2012-03-10 03:53:00,,CLR,10.0,,51,,,,21.0,,31,,,,29.13,2.0,Falling,,,,60.0,51.0,,,,,,,,,,,,,,,,,,,,,,,,,,,,,,,,,,,,,,,,,,,,,,,,,,,,,,,,,,,,,,
KBUR,Burbank,,34.1808,-118.3089,2012-03-10 04:53:00,,CLR,10.0,,49,,,,22.0,,35,,,,29.12,,,,,,,,,,,,,,,,,,,,,,,,,,,,,,,,,,,,,,,,,,,,,,,,,,,,,,,,,,,,,,,,,,,,,
KBUR,Burbank,,34.1808,-118.3089,2012-03-10 05:53:00,,CLR,10.0,,48,,,,22.0,,36,,,,29.13,,,,,,,,,,,,,,,,,,,,,,,,,,,,,,,,,,,,,,,,,,,,,,,,,,,,,,,,,,,,,,,,,,,,,
KBUR,Burbank,,34.1808,-118.3089,2012-03-10 06:53:00,,CLR,10.0,,50,,,,18.0,,28,,,,29.15,1.0,Rising Rapidly,,,,,,,,,,,,,,,,,,,,,,,,,,,,,,,,,,,,,,,,,,,,,,,,,,,,,,,,,,,,,,,,,,,
KBUR,Burbank,,34.1808,-118.3089,2012-03-10 07:53:00,,CLR,10.0,,59,,,,21.0,,23,,,,29.16,,,,,,,,,,,,,,,,,,,,,,,,,,,,,,,,,,,,,,,,,,,,,,,,,,,,,,,,,,,,,,,,,,,,,
KBUR,Burbank,,34.1808,-118.3089,2012-03-10 08:53:00,,CLR,10.0,,62,,,,21.0,,21,3.0,170.0,,29.16,,,,,,,,,,,,,,,,,,,,,,,,,,,,,,,,,,,,,,,,,,,,,,,,,,,,,,,,,,,,,,,,,,,,,
KBUR,Burbank,,34.1808,-118.3089,2012-03-10 09:53:00,,CLR,10.0,,67,,,,22.0,,18,5.0,130.0,,29.16,0.0,Steady,,,,67.0,48.0,,,,,,,,,,,,,,,,,,,,,,,,,,,,,,,,,,,,,,,,,,,,,,,,,,,,,,,,,,,,,,
KBUR,Burbank,,34.1808,-118.3089,2012-03-10 10:53:00,,CLR,10.0,,70,,,,21.0,,16,12.0,130.0,,29.15,,,,,,,,,,,,,,,,,,,,,,,,,,,,,,,,,,,,,,,,,,,,,,,,,,,,,,,,,,,,,,,,,,,,,
KBUR,Burbank,,34.1808,-118.3089,2012-03-10 11:53:00,,CLR,10.0,,72,,,,25.0,,17,9.0,190.0,,29.13,,,,,,,,,,,,,,,,,,,,,,,,,,,,,,,,,,,,,,,,,,,,,,,,,,,,,,,,,,,,,,,,,,,,,
KBUR,Burbank,,34.1808,-118.3089,2012-03-10 12:53:00,,CLR,10.0,,73,,,,27.0,,18,7.0,150.0,,29.11,2.0,Falling Rapidly,,,,,,,,,,,,,,,,,,,,,,,,,,,,,,,,,,,,,,,,,,,,,,,,,,,,,,,,,,,,,,,,,,,
KBUR,Burbank,,34.1808,-118.3089,2012-03-10 13:53:00,,CLR,10.0,,74,,,,27.0,,18,13.0,170.0,17.0,29.09,,,,,,,,,,,,,,,,,,,,,,,,,,,,,,,,,,,,,,,,,,,,,,,,,,,,,,,,,,,,,,,,,,,,,
KBUR,Burbank,,34.1808,-118.3089,2012-03-10 14:53:00,,CLR,10.0,,72,,,,34.0,,25,10.0,180.0,,29.08,,,,,,,,,,,,,,,,,,,,,,,,,,,,,,,,,,,,,,,,,,,,,,,,,,,,,,,,,,,,,,,,,,,,,
KBUR,Burbank,,34.1808,-118.3089,2012-03-10 15:53:00,,CLR,10.0,,71,,,,36.0,,28,10.0,180.0,,29.08,2.0,Falling,,,,75.0,67.0,,,,,,,,,,,,,,,,,,,,,,,,,,,,,,,,,,,,,,,,,,,,,,,,,,,,,,,,,,,,,,
KBUR,Burbank,,34.1808,-118.3089,2012-03-10 16:53:00,,CLR,10.0,,69,,,,37.0,,31,7.0,170.0,,29.09,,,,,,,,,,,,,,,,,,,,,,,,,,,,,,,,,,,,,,,,,,,,,,,,,,,,,,,,,,,,,,,,,,,,,
KBUR,Burbank,,34.1808,-118.3089,2012-03-10 17:53:00,,CLR,10.0,,64,,,,40.0,,41,8.0,190.0,,29.1,,,,,,,,,,,,,,,,,,,,,,,,,,,,,,,,,,,,,,,,,,,,,,,,,,,,,,,,,,,,,,,,,,,,,
KBUR,Burbank,,34.1808,-118.3089,2012-03-10 18:53:00,,CLR,10.0,,61,,,,39.0,,44,6.0,160.0,,29.11,1.0,Rising Rapidly,,,,,,,,,,,,,,,,,,,,,,,,,,,,,,,,,,,,,,,,,,,,,,,,,,,,,,,,,,,,,,,,,,,
KBUR,Burbank,,34.1808,-118.3089,2012-03-10 19:53:00,,CLR,10.0,,61,,,,39.0,,44,6.0,140.0,,29.13,,,,,,,,,,,,,,,,,,,,,,,,,,,,,,,,,,,,,,,,,,,,,,,,,,,,,,,,,,,,,,,,,,,,,
KBUR,Burbank,,34.1808,-118.3089,2012-03-10 20:53:00,,CLR,10.0,,59,,,,40.0,,49,9.0,130.0,,29.15,,,,,,,,,,,,,,,,,,,,,,,,,,,,,,,,,,,,,,,,,,,,,,,,,,,,,,,,,,,,,,,,,,,,,
KBUR,Burbank,,34.1808,-118.3089,2012-03-10 21:53:00,,CLR,10.0,,56,,,,44.0,,64,7.0,130.0,,29.15,1.0,Rising,,,,71.0,56.0,,,,,,,,,,,,,,,,,,,,,,,,,,,,,,,,,,,,,,,,,,,,,,,,,,,,,,,,,,,,,,
KBUR,Burbank,,34.1808,-118.3089,2012-03-10 22:53:00,,CLR,10.0,,54,,,,47.0,,77,7.0,140.0,,29.15,,,,,,,,,,,,,,,,,,,,,,,,,,,,,,,,,,,,,,,,,,,,,,,,,,,,,,,,,,,,,,,,,,,,,
KBUR,Burbank,,34.1808,-118.3089,2012-03-10 23:53:00,,CLR,10.0,,53,,,,48.0,,83,7.0,130.0,,29.15,,,,,,75.0,48.0,,,,,,,,,,,,,,,,,,,,,,,,,,,,,,,,,,,,,,,,,,,,,,,,,,,,,,,,,,,,,,
KBUR,Burbank,,34.1808,-118.3089,2012-03-11 00:28:00,,BKN,8.0,,52,,,,48.0,,88,6.0,140.0,,29.18,,,,,,,,,,,,,,,,,,,,,,,,,,,,,,,,,,,,,,,,,,,,,,,,,,,,,,,,,,,,,,,,,,,,,
KBUR,Burbank,,34.1808,-118.3089,2012-03-11 00:53:00,,BKN,8.0,,52,,,,49.0,,89,7.0,150.0,,29.16,1.0,Rising Rapidly,,,,,,,,,,,,,,,,,,,,,,,,,,,,,,,,,,,,,,,,,,,,,,,,,,,,,,,,,,,,,,,,,,,
KBUR,Burbank,,34.1808,-118.3089,2012-03-11 01:00:00,,BKN,8.0,,52,,,,48.0,,88,8.0,140.0,,29.19,,,,,,,,,,,,,,,,,,,,,,,,,,,,,,,,,,,,,,,,,,,,,,,,,,,,,,,,,,,,,,,,,,,,,
KBUR,Burbank,,34.1808,-118.3089,2012-03-11 01:53:00,,OVC,10.0,,52,,,,47.0,,83,7.0,160.0,,29.15,,,,,,,,,,,,,,,,,,,,,,,,,,,,,,,,,,,,,,,,,,,,,,,,,,,,,,,,,,,,,,,,,,,,,
KBUR,Burbank,,34.1808,-118.3089,2012-03-11 03:46:00,,OVC,10.0,,52,,,,46.0,,82,9.0,140.0,,29.16,,,,,,,,,,,,,,,,,,,,,,,,,,,,,,,,,,,,,,,,,,,,,,,,,,,,,,,,,,,,,,,,,,,,,
KBUR,Burbank,,34.1808,-118.3089,2012-03-11 03:53:00,,OVC,10.0,,52,,,,46.0,,80,9.0,140.0,,29.13,,,,,,,,,,,,,,,,,,,,,,,,,,,,,,,,,,,,,,,,,,,,,,,,,,,,,,,,,,,,,,,,,,,,,
KBUR,Burbank,,34.1808,-118.3089,2012-03-11 04:53:00,,OVC,10.0,,52,,,,45.0,,77,7.0,160.0,,29.14,0.0,Steady,,,,56.0,52.0,,,,,,,,,,,,,,,,,,,,,,,,,,,,,,,,,,,,,,,,,,,,,,,,,,,,,,,,,,,,,,
KBUR,Burbank,,34.1808,-118.3089,2012-03-11 05:53:00,,OVC,10.0,,52,,,,44.0,,74,9.0,140.0,,29.15,,,,,,,,,,,,,,,,,,,,,,,,,,,,,,,,,,,,,,,,,,,,,,,,,,,,,,,,,,,,,,,,,,,,,
KBUR,Burbank,,34.1808,-118.3089,2012-03-11 06:53:00,,OVC,10.0,,52,,,,45.0,,77,7.0,120.0,,29.16,,,,,,,,,,,,,,,,,,,,,,,,,,,,,,,,,,,,,,,,,,,,,,,,,,,,,,,,,,,,,,,,,,,,,
KBUR,Burbank,,34.1808,-118.3089,2012-03-11 07:53:00,,OVC,10.0,,51,,,,44.0,,77,7.0,140.0,,29.18,1.0,Rising Rapidly,,,,,,,,,,,,,,,,,,,,,,,,,,,,,,,,,,,,,,,,,,,,,,,,,,,,,,,,,,,,,,,,,,,
KBUR,Burbank,,34.1808,-118.3089,2012-03-11 08:53:00,,OVC,10.0,,52,,,,44.0,,74,6.0,,,29.19,,,,,,,,,,,,,,,,,,,,,,,,,,,,,,,,,,,,,,,,,,,,,,,,,,,,,,,,,,,,,,,,,,,,,
KBUR,Burbank,,34.1808,-118.3089,2012-03-11 09:53:00,,OVC,10.0,,52,,,,43.0,,71,7.0,100.0,,29.2,,,,,,,,,,,,,,,,,,,,,,,,,,,,,,,,,,,,,,,,,,,,,,,,,,,,,,,,,,,,,,,,,,,,,
KBUR,Burbank,,34.1808,-118.3089,2012-03-11 10:53:00,,BKN,10.0,,54,,,,43.0,,66,9.0,170.0,,29.22,1.0,Rising Rapidly,,,,54.0,51.0,,,,,,,,,,,,,,,,,,,,,,,,,,,,,,,,,,,,,,,,,,,,,,,,,,,,,,,,,,,,,,
KBUR,Burbank,,34.1808,-118.3089,2012-03-11 11:53:00,,SCT,10.0,,57,,,,43.0,,59,6.0,,,29.21,,,,,,,,,,,,,,,,,,,,,,,,,,,,,,,,,,,,,,,,,,,,,,,,,,,,,,,,,,,,,,,,,,,,,
KBUR,Burbank,,34.1808,-118.3089,2012-03-11 12:53:00,,CLR,10.0,,59,,,,43.0,,55,6.0,170.0,,29.19,,,,,,,,,,,,,,,,,,,,,,,,,,,,,,,,,,,,,,,,,,,,,,,,,,,,,,,,,,,,,,,,,,,,,
KBUR,Burbank,,34.1808,-118.3089,2012-03-11 13:53:00,,CLR,10.0,,61,,,,43.0,,52,7.0,,,29.15,2.0,Falling Rapidly,,,,,,,,,,,,,,,,,,,,,,,,,,,,,,,,,,,,,,,,,,,,,,,,,,,,,,,,,,,,,,,,,,,
KBUR,Burbank,,34.1808,-118.3089,2012-03-11 14:53:00,,CLR,10.0,,63,,,,42.0,,46,13.0,180.0,,29.13,,,,,,,,,,,,,,,,,,,,,,,,,,,,,,,,,,,,,,,,,,,,,,,,,,,,,,,,,,,,,,,,,,,,,
KBUR,Burbank,,34.1808,-118.3089,2012-03-11 15:53:00,,CLR,10.0,,63,,,,43.0,,48,8.0,170.0,,29.12,,,,,,,,,,,,,,,,,,,,,,,,,,,,,,,,,,,,,,,,,,,,,,,,,,,,,,,,,,,,,,,,,,,,,
KBUR,Burbank,,34.1808,-118.3089,2012-03-11 16:53:00,,CLR,10.0,,61,,,,43.0,,52,9.0,190.0,,29.12,2.0,Falling,,,,63.0,54.0,,,,,,,,,,,,,,,,,,,,,,,,,,,,,,,,,,,,,,,,,,,,,,,,,,,,,,,,,,,,,,
KBUR,Burbank,,34.1808,-118.3089,2012-03-11 17:53:00,,CLR,10.0,,59,,,,44.0,,58,9.0,190.0,,29.13,,,,,,,,,,,,,,,,,,,,,,,,,,,,,,,,,,,,,,,,,,,,,,,,,,,,,,,,,,,,,,,,,,,,,
KBUR,Burbank,,34.1808,-118.3089,2012-03-11 18:53:00,,CLR,10.0,,56,,,,44.0,,64,7.0,180.0,,29.14,,,,,,,,,,,,,,,,,,,,,,,,,,,,,,,,,,,,,,,,,,,,,,,,,,,,,,,,,,,,,,,,,,,,,
KBUR,Burbank,,34.1808,-118.3089,2012-03-11 19:53:00,,CLR,10.0,,54,,,,44.0,,69,3.0,180.0,,29.15,1.0,Rising Rapidly,,,,,,,,,,,,,,,,,,,,,,,,,,,,,,,,,,,,,,,,,,,,,,,,,,,,,,,,,,,,,,,,,,,
KBUR,Burbank,,34.1808,-118.3089,2012-03-11 20:53:00,,CLR,10.0,,52,,,,45.0,,77,5.0,180.0,,29.16,,,,,,,,,,,,,,,,,,,,,,,,,,,,,,,,,,,,,,,,,,,,,,,,,,,,,,,,,,,,,,,,,,,,,
KBUR,Burbank,,34.1808,-118.3089,2012-03-11 21:53:00,,CLR,10.0,,52,,,,45.0,,77,3.0,,,29.17,,,,,,,,,,,,,,,,,,,,,,,,,,,,,,,,,,,,,,,,,,,,,,,,,,,,,,,,,,,,,,,,,,,,,
KBUR,Burbank,,34.1808,-118.3089,2012-03-11 22:53:00,,CLR,10.0,,51,,,,45.0,,80,3.0,150.0,,29.17,1.0,Rising,,,,61.0,51.0,,,,,,,,,,,,,,,,,,,,,,,,,,,,,,,,,,,,,,,,,,,,,,,,,,,,,,,,,,,,,,
KBUR,Burbank,,34.1808,-118.3089,2012-03-11 23:33:00,,BKN,10.0,,52,,,,45.0,,76,5.0,110.0,,29.19,,,,,,,,,,,,,,,,,,,,,,,,,,,,,,,,,,,,,,,,,,,,,,,,,,,,,,,,,,,,,,,,,,,,,
KBUR,Burbank,,34.1808,-118.3089,2012-03-11 23:53:00,,OVC,10.0,,50,,,,45.0,,83,5.0,150.0,,29.17,,,,,,,,,,,,,,,,,,,,,,,,,,,,,,,,,,,,,,,,,,,,,,,,,,,,,,,,,,,,,,,,,,,,,
KBUR,Burbank,,34.1808,-118.3089,2012-03-12 00:42:00,,OVC,10.0,,52,,,,45.0,,76,,,,29.19,,,,,,,,,,,,,,,,,,,,,,,,,,,,,,,,,,,,,,,,,,,,,,,,,,,,,,,,,,,,,,,,,,,,,
KBUR,Burbank,,34.1808,-118.3089,2012-03-12 00:53:00,,OVC,10.0,,51,,,,45.0,,80,6.0,100.0,,29.17,,,,,,63.0,50.0,,,,,,,,,,,,,,,,,,,,,,,,,,,,,,,,,,,,,,,,,,,,,,,,,,,,,,,,,,,,,,
KBUR,Burbank,,34.1808,-118.3089,2012-03-12 01:51:00,,OVC,10.0,,52,,,,45.0,,76,3.0,100.0,,29.2,,,,,,,,,,,,,,,,,,,,,,,,,,,,,,,,,,,,,,,,,,,,,,,,,,,,,,,,,,,,,,,,,,,,,
KBUR,Burbank,,34.1808,-118.3089,2012-03-12 01:53:00,,OVC,10.0,,51,,,,45.0,,80,5.0,110.0,,29.17,1.0,Rising Rapidly,,,,,,,,,,,,,,,,,,,,,,,,,,,,,,,,,,,,,,,,,,,,,,,,,,,,,,,,,,,,,,,,,,,
KBUR,Burbank,,34.1808,-118.3089,2012-03-12 02:53:00,,OVC,10.0,,52,,,,45.0,,77,5.0,90.0,,29.17,,,,,,,,,,,,,,,,,,,,,,,,,,,,,,,,,,,,,,,,,,,,,,,,,,,,,,,,,,,,,,,,,,,,,
KBUR,Burbank,,34.1808,-118.3089,2012-03-12 03:53:00,,OVC,10.0,,51,,,,45.0,,80,6.0,170.0,,29.16,,,,,,,,,,,,,,,,,,,,,,,,,,,,,,,,,,,,,,,,,,,,,,,,,,,,,,,,,,,,,,,,,,,,,
KBUR,Burbank,,34.1808,-118.3089,2012-03-12 04:53:00,,OVC,10.0,,50,,,,44.0,,80,3.0,170.0,,29.16,2.0,Falling,,,,52.0,50.0,,,,,,,,,,,,,,,,,,,,,,,,,,,,,,,,,,,,,,,,,,,,,,,,,,,,,,,,,,,,,,
KBUR,Burbank,,34.1808,-118.3089,2012-03-12 05:53:00,,OVC,10.0,,51,,,,44.0,,77,3.0,160.0,,29.17,,,,,,,,,,,,,,,,,,,,,,,,,,,,,,,,,,,,,,,,,,,,,,,,,,,,,,,,,,,,,,,,,,,,,
KBUR,Burbank,,34.1808,-118.3089,2012-03-12 06:53:00,,OVC,7.0,,51,,,,44.0,,77,5.0,170.0,,29.17,,,,,,,,,,,,,,,,,,,,,,,,,,,,,,,,,,,,,,,,,,,,,,,,,,,,,,,,,,,,,,,,,,,,,
KBUR,Burbank,,34.1808,-118.3089,2012-03-12 07:53:00,,OVC,7.0,,51,,,,44.0,,77,3.0,180.0,,29.19,1.0,Rising Rapidly,,,,,,,,,,,,,,,,,,,,,,,,,,,,,,,,,,,,,,,,,,,,,,,,,,,,,,,,,,,,,,,,,,,
KBUR,Burbank,,34.1808,-118.3089,2012-03-12 08:53:00,,OVC,10.0,,51,,,,44.0,,77,5.0,150.0,,29.21,,,,,,,,,,,,,,,,,,,,,,,,,,,,,,,,,,,,,,,,,,,,,,,,,,,,,,,,,,,,,,,,,,,,,
KBUR,Burbank,,34.1808,-118.3089,2012-03-12 09:53:00,,OVC,10.0,,52,,,,44.0,,74,3.0,180.0,,29.22,,,,,,,,,,,,,,,,,,,,,,,,,,,,,,,,,,,,,,,,,,,,,,,,,,,,,,,,,,,,,,,,,,,,,
KBUR,Burbank,,34.1808,-118.3089,2012-03-12 10:53:00,,BKN,10.0,,54,,,,43.0,,66,,,,29.21,1.0,Rising,,,,54.0,50.0,,,,,,,,,,,,,,,,,,,,,,,,,,,,,,,,,,,,,,,,,,,,,,,,,,,,,,,,,,,,,,
KBUR,Burbank,,34.1808,-118.3089,2012-03-12 11:17:00,,FEW,10.0,,55,,,,45.0,,67,5.0,,,29.24,,,,,,,,,,,,,,,,,,,,,,,,,,,,,,,,,,,,,,,,,,,,,,,,,,,,,,,,,,,,,,,,,,,,,
KBUR,Burbank,,34.1808,-118.3089,2012-03-12 11:53:00,,CLR,10.0,,58,,,,44.0,,60,5.0,160.0,,29.2,,,,,,,,,,,,,,,,,,,,,,,,,,,,,,,,,,,,,,,,,,,,,,,,,,,,,,,,,,,,,,,,,,,,,
KBUR,Burbank,,34.1808,-118.3089,2012-03-12 12:53:00,,CLR,10.0,,60,,,,43.0,,53,6.0,230.0,,29.17,,,,,,,,,,,,,,,,,,,,,,,,,,,,,,,,,,,,,,,,,,,,,,,,,,,,,,,,,,,,,,,,,,,,,
KBUR,Burbank,,34.1808,-118.3089,2012-03-12 13:53:00,,CLR,10.0,,63,,,,43.0,,48,6.0,,,29.15,2.0,Falling Rapidly,,,,,,,,,,,,,,,,,,,,,,,,,,,,,,,,,,,,,,,,,,,,,,,,,,,,,,,,,,,,,,,,,,,
KBUR,Burbank,,34.1808,-118.3089,2012-03-12 14:53:00,,CLR,10.0,,63,,,,43.0,,48,8.0,170.0,,29.13,,,,,,,,,,,,,,,,,,,,,,,,,,,,,,,,,,,,,,,,,,,,,,,,,,,,,,,,,,,,,,,,,,,,,
KBUR,Burbank,,34.1808,-118.3089,2012-03-12 15:53:00,,CLR,10.0,,64,,,,44.0,,48,7.0,,,29.12,,,,,,,,,,,,,,,,,,,,,,,,,,,,,,,,,,,,,,,,,,,,,,,,,,,,,,,,,,,,,,,,,,,,,
KBUR,Burbank,,34.1808,-118.3089,2012-03-12 16:53:00,,CLR,10.0,,63,,,,44.0,,50,9.0,180.0,,29.11,2.0,Falling,,,,65.0,54.0,,,,,,,,,,,,,,,,,,,,,,,,,,,,,,,,,,,,,,,,,,,,,,,,,,,,,,,,,,,,,,
KBUR,Burbank,,34.1808,-118.3089,2012-03-12 17:53:00,,CLR,10.0,,61,,,,44.0,,54,9.0,180.0,,29.11,,,,,,,,,,,,,,,,,,,,,,,,,,,,,,,,,,,,,,,,,,,,,,,,,,,,,,,,,,,,,,,,,,,,,
KBUR,Burbank,,34.1808,-118.3089,2012-03-12 18:53:00,,CLR,10.0,,57,,,,44.0,,62,7.0,170.0,,29.12,,,,,,,,,,,,,,,,,,,,,,,,,,,,,,,,,,,,,,,,,,,,,,,,,,,,,,,,,,,,,,,,,,,,,
KBUR,Burbank,,34.1808,-118.3089,2012-03-12 19:53:00,,CLR,10.0,,54,,,,44.0,,69,6.0,180.0,,29.14,1.0,Rising Rapidly,,,,,,,,,,,,,,,,,,,,,,,,,,,,,,,,,,,,,,,,,,,,,,,,,,,,,,,,,,,,,,,,,,,
KBUR,Burbank,,34.1808,-118.3089,2012-03-12 20:53:00,,CLR,10.0,,53,,,,44.0,,71,5.0,140.0,,29.16,,,,,,,,,,,,,,,,,,,,,,,,,,,,,,,,,,,,,,,,,,,,,,,,,,,,,,,,,,,,,,,,,,,,,
KBUR,Burbank,,34.1808,-118.3089,2012-03-12 21:53:00,,CLR,10.0,,53,,,,45.0,,74,7.0,130.0,,29.18,,,,,,,,,,,,,,,,,,,,,,,,,,,,,,,,,,,,,,,,,,,,,,,,,,,,,,,,,,,,,,,,,,,,,
KBUR,Burbank,,34.1808,-118.3089,2012-03-12 22:53:00,,CLR,8.0,,51,,,,47.0,,86,7.0,130.0,,29.19,1.0,Rising,,,,63.0,51.0,,,,,,,,,,,,,,,,,,,,,,,,,,,,,,,,,,,,,,,,,,,,,,,,,,,,,,,,,,,,,,
KBUR,Burbank,,34.1808,-118.3089,2012-03-12 23:53:00,,CLR,7.0,,50,,,,46.0,,86,,,,29.2,,,,,,,,,,,,,,,,,,,,,,,,,,,,,,,,,,,,,,,,,,,,,,,,,,,,,,,,,,,,,,,,,,,,,
KBUR,Burbank,,34.1808,-118.3089,2012-03-13 00:09:00,,BKN,6.0,,50,,,,46.0,,87,3.0,130.0,,29.22,,,,,,,,,,,,,,,,,,,,,,,,,,,,,,,,,,,,,,,,,,,,,,,,,,,,,,,,,,,,,,,,,,,,,
KBUR,Burbank,,34.1808,-118.3089,2012-03-13 00:53:00,,OVC,6.0,,50,,,,47.0,,89,,,,29.19,,,,,,65.0,50.0,,,,,,,,,,,,,,,,,,,,,,,,,,,,,,,,,,,,,,,,,,,,,,,,,,,,,,,,,,,,,,
KBUR,Burbank,,34.1808,-118.3089,2012-03-13 01:53:00,,OVC,6.0,,50,,,,46.0,,86,6.0,140.0,,29.19,1.0,Rising,,,,,,,,,,,,,,,,,,,,,,,,,,,,,,,,,,,,,,,,,,,,,,,,,,,,,,,,,,,,,,,,,,,
KBUR,Burbank,,34.1808,-118.3089,2012-03-13 02:53:00,,OVC,6.0,,49,,,,46.0,,90,,,,29.21,,,,,,,,,,,,,,,,,,,,,,,,,,,,,,,,,,,,,,,,,,,,,,,,,,,,,,,,,,,,,,,,,,,,,
KBUR,Burbank,,34.1808,-118.3089,2012-03-13 03:53:00,,OVC,7.0,,50,,,,46.0,,86,6.0,140.0,,29.19,,,,,,,,,,,,,,,,,,,,,,,,,,,,,,,,,,,,,,,,,,,,,,,,,,,,,,,,,,,,,,,,,,,,,
KBUR,Burbank,,34.1808,-118.3089,2012-03-13 04:53:00,,OVC,7.0,,50,,,,46.0,,86,5.0,80.0,,29.17,2.0,Falling Rapidly,,,,51.0,49.0,,,,,,,,,,,,,,,,,,,,,,,,,,,,,,,,,,,,,,,,,,,,,,,,,,,,,,,,,,,,,,
KBUR,Burbank,,34.1808,-118.3089,2012-03-13 05:53:00,,OVC,5.0,,50,,,,45.0,,83,5.0,90.0,,29.18,,,,,,,,,,,,,,,,,,,,,,,,,,,,,,,,,,,,,,,,,,,,,,,,,,,,,,,,,,,,,,,,,,,,,
KBUR,Burbank,,34.1808,-118.3089,2012-03-13 06:53:00,,OVC,5.0,,50,,,,45.0,,83,5.0,70.0,,29.19,,,,,,,,,,,,,,,,,,,,,,,,,,,,,,,,,,,,,,,,,,,,,,,,,,,,,,,,,,,,,,,,,,,,,
KBUR,Burbank,,34.1808,-118.3089,2012-03-13 07:53:00,,OVC,5.0,,50,,,,45.0,,83,5.0,130.0,,29.2,1.0,Rising Rapidly,,,,,,,,,,,,,,,,,,,,,,,,,,,,,,,,,,,,,,,,,,,,,,,,,,,,,,,,,,,,,,,,,,,
KBUR,Burbank,,34.1808,-118.3089,2012-03-13 08:53:00,,OVC,6.0,,50,,,,45.0,,83,,,,29.22,,,,,,,,,,,,,,,,,,,,,,,,,,,,,,,,,,,,,,,,,,,,,,,,,,,,,,,,,,,,,,,,,,,,,
KBUR,Burbank,,34.1808,-118.3089,2012-03-13 09:53:00,,OVC,6.0,,51,,,,44.0,,77,,,,29.24,,,,,,,,,,,,,,,,,,,,,,,,,,,,,,,,,,,,,,,,,,,,,,,,,,,,,,,,,,,,,,,,,,,,,
KBUR,Burbank,,34.1808,-118.3089,2012-03-13 10:37:00,,OVC,6.0,,52,,,,45.0,,76,,,,29.26,,,,,,,,,,,,,,,,,,,,,,,,,,,,,,,,,,,,,,,,,,,,,,,,,,,,,,,,,,,,,,,,,,,,,
KBUR,Burbank,,34.1808,-118.3089,2012-03-13 10:53:00,,OVC,6.0,,52,,,,44.0,,74,,,,29.24,1.0,Rising,,,,52.0,50.0,,,,,,,,,,,,,,,,,,,,,,,,,,,,,,,,,,,,,,,,,,,,,,,,,,,,,,,,,,,,,,
KBUR,Burbank,,34.1808,-118.3089,2012-03-13 11:37:00,,SCT,7.0,,55,,,,45.0,,67,,,,29.26,,,,,,,,,,,,,,,,,,,,,,,,,,,,,,,,,,,,,,,,,,,,,,,,,,,,,,,,,,,,,,,,,,,,,
KBUR,Burbank,,34.1808,-118.3089,2012-03-13 11:53:00,,FEW,7.0,,57,,,,45.0,,64,,,,29.23,,,,,,,,,,,,,,,,,,,,,,,,,,,,,,,,,,,,,,,,,,,,,,,,,,,,,,,,,,,,,,,,,,,,,
KBUR,Burbank,,34.1808,-118.3089,2012-03-13 12:53:00,,CLR,8.0,,59,,,,44.0,,58,3.0,110.0,,29.21,,,,,,,,,,,,,,,,,,,,,,,,,,,,,,,,,,,,,,,,,,,,,,,,,,,,,,,,,,,,,,,,,,,,,
KBUR,Burbank,,34.1808,-118.3089,2012-03-13 13:53:00,,CLR,10.0,,61,,,,44.0,,54,3.0,,,29.19,2.0,Falling Rapidly,,,,,,,,,,,,,,,,,,,,,,,,,,,,,,,,,,,,,,,,,,,,,,,,,,,,,,,,,,,,,,,,,,,
KBUR,Burbank,,34.1808,-118.3089,2012-03-13 14:53:00,,CLR,10.0,,62,,,,44.0,,52,7.0,180.0,,29.17,,,,,,,,,,,,,,,,,,,,,,,,,,,,,,,,,,,,,,,,,,,,,,,,,,,,,,,,,,,,,,,,,,,,,
KBUR,Burbank,,34.1808,-118.3089,2012-03-13 15:53:00,,CLR,10.0,,62,,,,45.0,,53,10.0,170.0,,29.16,,,,,,,,,,,,,,,,,,,,,,,,,,,,,,,,,,,,,,,,,,,,,,,,,,,,,,,,,,,,,,,,,,,,,
KBUR,Burbank,,34.1808,-118.3089,2012-03-13 16:53:00,,CLR,10.0,,61,,,,46.0,,58,10.0,160.0,,29.17,0.0,Steady,,,,63.0,52.0,,,,,,,,,,,,,,,,,,,,,,,,,,,,,,,,,,,,,,,,,,,,,,,,,,,,,,,,,,,,,,
KBUR,Burbank,,34.1808,-118.3089,2012-03-13 17:53:00,,CLR,10.0,,59,,,,45.0,,60,8.0,180.0,,29.17,,,,,,,,,,,,,,,,,,,,,,,,,,,,,,,,,,,,,,,,,,,,,,,,,,,,,,,,,,,,,,,,,,,,,
KBUR,Burbank,,34.1808,-118.3089,2012-03-13 18:53:00,,CLR,10.0,,56,,,,45.0,,67,6.0,180.0,,29.19,,,,,,,,,,,,,,,,,,,,,,,,,,,,,,,,,,,,,,,,,,,,,,,,,,,,,,,,,,,,,,,,,,,,,
KBUR,Burbank,,34.1808,-118.3089,2012-03-13 19:53:00,,CLR,10.0,,54,,,,46.0,,75,5.0,180.0,,29.19,1.0,Rising Rapidly,,,,,,,,,,,,,,,,,,,,,,,,,,,,,,,,,,,,,,,,,,,,,,,,,,,,,,,,,,,,,,,,,,,
KBUR,Burbank,,34.1808,-118.3089,2012-03-13 20:53:00,,CLR,10.0,,54,,,,46.0,,75,,,,29.21,,,,,,,,,,,,,,,,,,,,,,,,,,,,,,,,,,,,,,,,,,,,,,,,,,,,,,,,,,,,,,,,,,,,,
KBUR,Burbank,,34.1808,-118.3089,2012-03-13 21:53:00,,CLR,10.0,,54,,,,44.0,,69,3.0,180.0,,29.22,,,,,,,,,,,,,,,,,,,,,,,,,,,,,,,,,,,,,,,,,,,,,,,,,,,,,,,,,,,,,,,,,,,,,
KBUR,Burbank,,34.1808,-118.3089,2012-03-13 22:53:00,,CLR,10.0,,52,,,,44.0,,74,6.0,290.0,,29.23,1.0,Rising,,,,61.0,52.0,,,,,,,,,,,,,,,,,,,,,,,,,,,,,,,,,,,,,,,,,,,,,,,,,,,,,,,,,,,,,,
KBUR,Burbank,,34.1808,-118.3089,2012-03-13 23:53:00,,CLR,10.0,,51,,,,44.0,,77,5.0,300.0,,29.23,,,,,,,,,,,,,,,,,,,,,,,,,,,,,,,,,,,,,,,,,,,,,,,,,,,,,,,,,,,,,,,,,,,,,
KBUR,Burbank,,34.1808,-118.3089,2012-03-14 00:53:00,,CLR,10.0,,50,,,,43.0,,77,3.0,340.0,,29.23,,,,,,63.0,49.0,,,,,,,,,,,,,,,,,,,,,,,,,,,,,,,,,,,,,,,,,,,,,,,,,,,,,,,,,,,,,,
KBUR,Burbank,,34.1808,-118.3089,2012-03-14 01:53:00,,CLR,10.0,,49,,,,43.0,,80,,,,29.22,0.0,Steady,,,,,,,,,,,,,,,,,,,,,,,,,,,,,,,,,,,,,,,,,,,,,,,,,,,,,,,,,,,,,,,,,,,
KBUR,Burbank,,34.1808,-118.3089,2012-03-14 02:53:00,,CLR,10.0,,49,,,,42.0,,77,,,,29.23,,,,,,,,,,,,,,,,,,,,,,,,,,,,,,,,,,,,,,,,,,,,,,,,,,,,,,,,,,,,,,,,,,,,,
KBUR,Burbank,,34.1808,-118.3089,2012-03-14 03:53:00,,CLR,10.0,,48,,,,43.0,,83,,,,29.23,,,,,,,,,,,,,,,,,,,,,,,,,,,,,,,,,,,,,,,,,,,,,,,,,,,,,,,,,,,,,,,,,,,,,
KBUR,Burbank,,34.1808,-118.3089,2012-03-14 04:53:00,,CLR,10.0,,46,,,,41.0,,83,,,,29.22,2.0,Falling Rapidly,,,,52.0,46.0,,,,,,,,,,,,,,,,,,,,,,,,,,,,,,,,,,,,,,,,,,,,,,,,,,,,,,,,,,,,,,
KBUR,Burbank,,34.1808,-118.3089,2012-03-14 05:53:00,,CLR,10.0,,46,,,,41.0,,83,,,,29.23,,,,,,,,,,,,,,,,,,,,,,,,,,,,,,,,,,,,,,,,,,,,,,,,,,,,,,,,,,,,,,,,,,,,,
KBUR,Burbank,,34.1808,-118.3089,2012-03-14 06:53:00,,SCT,6.0,,45,,,,41.0,,86,,,,29.25,,,,,,,,,,,,,,,,,,,,,,,,,,,,,,,,,,,,,,,,,,,,,,,,,,,,,,,,,,,,,,,,,,,,,
KBUR,Burbank,,34.1808,-118.3089,2012-03-14 07:53:00,,FEW,6.0,,47,,,,42.0,,83,,,,29.26,1.0,Rising,,,,,,,,,,,,,,,,,,,,,,,,,,,,,,,,,,,,,,,,,,,,,,,,,,,,,,,,,,,,,,,,,,,
KBUR,Burbank,,34.1808,-118.3089,2012-03-14 08:53:00,,CLR,6.0,,50,,,,45.0,,83,,,,29.27,,,,,,,,,,,,,,,,,,,,,,,,,,,,,,,,,,,,,,,,,,,,,,,,,,,,,,,,,,,,,,,,,,,,,
KBUR,Burbank,,34.1808,-118.3089,2012-03-14 09:53:00,,CLR,8.0,,54,,,,46.0,,75,5.0,,,29.27,,,,,,,,,,,,,,,,,,,,,,,,,,,,,,,,,,,,,,,,,,,,,,,,,,,,,,,,,,,,,,,,,,,,,
KBUR,Burbank,,34.1808,-118.3089,2012-03-14 10:53:00,,CLR,9.0,,58,,,,46.0,,65,3.0,,,29.28,1.0,Rising,,,,58.0,45.0,,,,,,,,,,,,,,,,,,,,,,,,,,,,,,,,,,,,,,,,,,,,,,,,,,,,,,,,,,,,,,
KBUR,Burbank,,34.1808,-118.3089,2012-03-14 11:53:00,,CLR,8.0,,60,,,,45.0,,57,3.0,,,29.26,,,,,,,,,,,,,,,,,,,,,,,,,,,,,,,,,,,,,,,,,,,,,,,,,,,,,,,,,,,,,,,,,,,,,
KBUR,Burbank,,34.1808,-118.3089,2012-03-14 12:53:00,,CLR,10.0,,65,,,,45.0,,48,6.0,120.0,,29.24,,,,,,,,,,,,,,,,,,,,,,,,,,,,,,,,,,,,,,,,,,,,,,,,,,,,,,,,,,,,,,,,,,,,,
KBUR,Burbank,,34.1808,-118.3089,2012-03-14 13:53:00,,CLR,10.0,,66,,,,45.0,,47,5.0,,,29.22,2.0,Falling Rapidly,,,,,,,,,,,,,,,,,,,,,,,,,,,,,,,,,,,,,,,,,,,,,,,,,,,,,,,,,,,,,,,,,,,
KBUR,Burbank,,34.1808,-118.3089,2012-03-14 14:53:00,,CLR,10.0,,67,,,,47.0,,49,12.0,150.0,,29.21,,,,,,,,,,,,,,,,,,,,,,,,,,,,,,,,,,,,,,,,,,,,,,,,,,,,,,,,,,,,,,,,,,,,,
KBUR,Burbank,,34.1808,-118.3089,2012-03-14 15:53:00,,CLR,10.0,,64,,,,47.0,,54,10.0,180.0,,29.22,,,,,,,,,,,,,,,,,,,,,,,,,,,,,,,,,,,,,,,,,,,,,,,,,,,,,,,,,,,,,,,,,,,,,
KBUR,Burbank,,34.1808,-118.3089,2012-03-14 16:53:00,,CLR,10.0,,63,,,,48.0,,58,8.0,170.0,,29.22,2.0,Falling,,,,67.0,58.0,,,,,,,,,,,,,,,,,,,,,,,,,,,,,,,,,,,,,,,,,,,,,,,,,,,,,,,,,,,,,,
KBUR,Burbank,,34.1808,-118.3089,2012-03-14 17:53:00,,CLR,10.0,,59,,,,49.0,,69,9.0,170.0,,29.23,,,,,,,,,,,,,,,,,,,,,,,,,,,,,,,,,,,,,,,,,,,,,,,,,,,,,,,,,,,,,,,,,,,,,
KBUR,Burbank,,34.1808,-118.3089,2012-03-14 18:53:00,,CLR,10.0,,57,,,,49.0,,74,5.0,180.0,,29.24,,,,,,,,,,,,,,,,,,,,,,,,,,,,,,,,,,,,,,,,,,,,,,,,,,,,,,,,,,,,,,,,,,,,,
KBUR,Burbank,,34.1808,-118.3089,2012-03-14 19:53:00,,CLR,10.0,,55,,,,49.0,,80,,,,29.26,1.0,Rising Rapidly,,,,,,,,,,,,,,,,,,,,,,,,,,,,,,,,,,,,,,,,,,,,,,,,,,,,,,,,,,,,,,,,,,,
KBUR,Burbank,,34.1808,-118.3089,2012-03-14 20:53:00,,CLR,10.0,,55,,,,49.0,,80,3.0,130.0,,29.28,,,,,,,,,,,,,,,,,,,,,,,,,,,,,,,,,,,,,,,,,,,,,,,,,,,,,,,,,,,,,,,,,,,,,
KBUR,Burbank,,34.1808,-118.3089,2012-03-14 21:53:00,,CLR,10.0,,54,,,,49.0,,83,5.0,150.0,,29.3,,,,,,,,,,,,,,,,,,,,,,,,,,,,,,,,,,,,,,,,,,,,,,,,,,,,,,,,,,,,,,,,,,,,,
KBUR,Burbank,,34.1808,-118.3089,2012-03-14 22:53:00,,CLR,10.0,,53,,,,49.0,,86,7.0,100.0,,29.3,1.0,Rising,,,,64.0,53.0,,,,,,,,,,,,,,,,,,,,,,,,,,,,,,,,,,,,,,,,,,,,,,,,,,,,,,,,,,,,,,
KBUR,Burbank,,34.1808,-118.3089,2012-03-14 23:27:00,,SCT,9.0,,52,,,,50.0,,94,5.0,140.0,,29.33,,,,,,,,,,,,,,,,,,,,,,,,,,,,,,,,,,,,,,,,,,,,,,,,,,,,,,,,,,,,,,,,,,,,,
KBUR,Burbank,,34.1808,-118.3089,2012-03-14 23:53:00,,BKN,8.0,,52,,,,50.0,,93,3.0,140.0,,29.3,,,,,,,,,,,,,,,,,,,,,,,,,,,,,,,,,,,,,,,,,,,,,,,,,,,,,,,,,,,,,,,,,,,,,
KBUR,Burbank,,34.1808,-118.3089,2012-03-15 00:53:00,,OVC,7.0,,52,,,,49.0,,89,5.0,110.0,,29.29,,,,,,67.0,45.0,,,,,,,,,,,,,,,,,,,,,,,,,,,,,,,,,,,,,,,,,,,,,,,,,,,,,,,,,,,,,,
KBUR,Burbank,,34.1808,-118.3089,2012-03-15 01:53:00,,OVC,7.0,,52,,,,49.0,,89,6.0,100.0,,29.3,0.0,Steady,,,,,,,,,,,,,,,,,,,,,,,,,,,,,,,,,,,,,,,,,,,,,,,,,,,,,,,,,,,,,,,,,,,
KBUR,Burbank,,34.1808,-118.3089,2012-03-15 02:53:00,,OVC,7.0,,52,,,,49.0,,89,5.0,90.0,,29.28,,,,,,,,,,,,,,,,,,,,,,,,,,,,,,,,,,,,,,,,,,,,,,,,,,,,,,,,,,,,,,,,,,,,,
KBUR,Burbank,,34.1808,-118.3089,2012-03-15 03:53:00,,OVC,7.0,,52,,,,48.0,,86,10.0,120.0,,29.26,,,,,,,,,,,,,,,,,,,,,,,,,,,,,,,,,,,,,,,,,,,,,,,,,,,,,,,,,,,,,,,,,,,,,
KBUR,Burbank,,34.1808,-118.3089,2012-03-15 04:53:00,,OVC,5.0,,51,,,,49.0,,92,6.0,160.0,,29.26,0.0,Steady,,,,53.0,51.0,,,,,,,,,,,,,,,,,,,,,,,,,,,,,,,,,,,,,,,,,,,,,,,,,,,,,,,,,,,,,,
KBUR,Burbank,,34.1808,-118.3089,2012-03-15 05:53:00,,OVC,6.0,,51,,,,48.0,,89,3.0,180.0,,29.27,,,,,,,,,,,,,,,,,,,,,,,,,,,,,,,,,,,,,,,,,,,,,,,,,,,,,,,,,,,,,,,,,,,,,
KBUR,Burbank,,34.1808,-118.3089,2012-03-15 06:31:00,,OVC,6.0,,52,,,,48.0,,88,,,,29.3,,,,,,,,,,,,,,,,,,,,,,,,,,,,,,,,,,,,,,,,,,,,,,,,,,,,,,,,,,,,,,,,,,,,,
KBUR,Burbank,,34.1808,-118.3089,2012-03-15 06:53:00,,OVC,7.0,,52,,,,48.0,,86,,,,29.28,,,,,,,,,,,,,,,,,,,,,,,,,,,,,,,,,,,,,,,,,,,,,,,,,,,,,,,,,,,,,,,,,,,,,
KBUR,Burbank,,34.1808,-118.3089,2012-03-15 07:53:00,,OVC,6.0,,52,,,,47.0,,83,,,,29.28,0.0,Steady,,,,,,,,,,,,,,,,,,,,,,,,,,,,,,,,,,,,,,,,,,,,,,,,,,,,,,,,,,,,,,,,,,,
KBUR,Burbank,,34.1808,-118.3089,2012-03-15 08:53:00,,OVC,5.0,,53,,,,47.0,,80,,,,29.28,,,,,,,,,,,,,,,,,,,,,,,,,,,,,,,,,,,,,,,,,,,,,,,,,,,,,,,,,,,,,,,,,,,,,
KBUR,Burbank,,34.1808,-118.3089,2012-03-15 09:53:00,,CLR,6.0,,55,,,,47.0,,74,6.0,,,29.28,,,,,,,,,,,,,,,,,,,,,,,,,,,,,,,,,,,,,,,,,,,,,,,,,,,,,,,,,,,,,,,,,,,,,
KBUR,Burbank,,34.1808,-118.3089,2012-03-15 10:53:00,,CLR,7.0,,59,,,,47.0,,64,,,,29.27,2.0,Falling Rapidly,,,,59.0,51.0,,,,,,,,,,,,,,,,,,,,,,,,,,,,,,,,,,,,,,,,,,,,,,,,,,,,,,,,,,,,,,
KBUR,Burbank,,34.1808,-118.3089,2012-03-15 11:53:00,,CLR,7.0,,62,,,,48.0,,60,6.0,,,29.26,,,,,,,,,,,,,,,,,,,,,,,,,,,,,,,,,,,,,,,,,,,,,,,,,,,,,,,,,,,,,,,,,,,,,
KBUR,Burbank,,34.1808,-118.3089,2012-03-15 12:53:00,,CLR,7.0,,64,,,,48.0,,56,8.0,190.0,,29.23,,,,,,,,,,,,,,,,,,,,,,,,,,,,,,,,,,,,,,,,,,,,,,,,,,,,,,,,,,,,,,,,,,,,,
KBUR,Burbank,,34.1808,-118.3089,2012-03-15 13:53:00,,CLR,9.0,,65,,,,49.0,,56,9.0,180.0,,29.21,2.0,Falling Rapidly,,,,,,,,,,,,,,,,,,,,,,,,,,,,,,,,,,,,,,,,,,,,,,,,,,,,,,,,,,,,,,,,,,,
KBUR,Burbank,,34.1808,-118.3089,2012-03-15 14:53:00,,CLR,10.0,,64,,,,50.0,,60,10.0,190.0,,29.19,,,,,,,,,,,,,,,,,,,,,,,,,,,,,,,,,,,,,,,,,,,,,,,,,,,,,,,,,,,,,,,,,,,,,
KBUR,Burbank,,34.1808,-118.3089,2012-03-15 15:53:00,,CLR,10.0,,64,,,,49.0,,58,8.0,170.0,,29.19,,,,,,,,,,,,,,,,,,,,,,,,,,,,,,,,,,,,,,,,,,,,,,,,,,,,,,,,,,,,,,,,,,,,,
KBUR,Burbank,,34.1808,-118.3089,2012-03-15 16:53:00,,CLR,10.0,,64,,,,47.0,,54,9.0,170.0,,29.19,2.0,Falling,,,,66.0,59.0,,,,,,,,,,,,,,,,,,,,,,,,,,,,,,,,,,,,,,,,,,,,,,,,,,,,,,,,,,,,,,
KBUR,Burbank,,34.1808,-118.3089,2012-03-15 17:53:00,,CLR,10.0,,61,,,,48.0,,62,12.0,180.0,,29.19,,,,,,,,,,,,,,,,,,,,,,,,,,,,,,,,,,,,,,,,,,,,,,,,,,,,,,,,,,,,,,,,,,,,,
KBUR,Burbank,,34.1808,-118.3089,2012-03-15 18:53:00,,CLR,10.0,,57,,,,48.0,,72,8.0,180.0,,29.2,,,,,,,,,,,,,,,,,,,,,,,,,,,,,,,,,,,,,,,,,,,,,,,,,,,,,,,,,,,,,,,,,,,,,
KBUR,Burbank,,34.1808,-118.3089,2012-03-15 19:53:00,,CLR,10.0,,55,,,,49.0,,80,7.0,150.0,,29.22,1.0,Rising Rapidly,,,,,,,,,,,,,,,,,,,,,,,,,,,,,,,,,,,,,,,,,,,,,,,,,,,,,,,,,,,,,,,,,,,
KBUR,Burbank,,34.1808,-118.3089,2012-03-15 20:53:00,,CLR,10.0,,55,,,,49.0,,80,9.0,120.0,,29.22,,,,,,,,,,,,,,,,,,,,,,,,,,,,,,,,,,,,,,,,,,,,,,,,,,,,,,,,,,,,,,,,,,,,,
KBUR,Burbank,,34.1808,-118.3089,2012-03-15 21:53:00,,CLR,10.0,,55,,,,49.0,,80,9.0,110.0,,29.23,,,,,,,,,,,,,,,,,,,,,,,,,,,,,,,,,,,,,,,,,,,,,,,,,,,,,,,,,,,,,,,,,,,,,
KBUR,Burbank,,34.1808,-118.3089,2012-03-15 22:53:00,,SCT,10.0,,54,,,,49.0,,83,7.0,110.0,16.0,29.23,1.0,Rising Rapidly,,,,65.0,53.0,,,,,,,,,,,,,,,,,,,,,,,,,,,,,,,,,,,,,,,,,,,,,,,,,,,,,,,,,,,,,,
KBUR,Burbank,,34.1808,-118.3089,2012-03-15 23:03:00,,BKN,10.0,,54,,,,48.0,,82,7.0,110.0,,29.26,,,,,,,,,,,,,,,,,,,,,,,,,,,,,,,,,,,,,,,,,,,,,,,,,,,,,,,,,,,,,,,,,,,,,
KBUR,Burbank,,34.1808,-118.3089,2012-03-15 23:53:00,,OVC,10.0,,53,,,,49.0,,86,5.0,150.0,,29.23,,,,,,,,,,,,,,,,,,,,,,,,,,,,,,,,,,,,,,,,,,,,,,,,,,,,,,,,,,,,,,,,,,,,,
KBUR,Burbank,,34.1808,-118.3089,2012-03-16 00:11:00,,OVC,9.0,,54,,,,48.0,,82,,,,29.26,,,,,,,,,,,,,,,,,,,,,,,,,,,,,,,,,,,,,,,,,,,,,,,,,,,,,,,,,,,,,,,,,,,,,
KBUR,Burbank,,34.1808,-118.3089,2012-03-16 00:18:00,,OVC,8.0,,54,,,,48.0,,82,,,,29.25,,,,,,,,,,,,,,,,,,,,,,,,,,,,,,,,,,,,,,,,,,,,,,,,,,,,,,,,,,,,,,,,,,,,,
KBUR,Burbank,,34.1808,-118.3089,2012-03-16 00:53:00,,OVC,7.0,,53,,,,49.0,,86,8.0,150.0,,29.22,,,,,,66.0,51.0,,,,,,,,,,,,,,,,,,,,,,,,,,,,,,,,,,,,,,,,,,,,,,,,,,,,,,,,,,,,,,
KBUR,Burbank,,34.1808,-118.3089,2012-03-16 01:53:00,,OVC,7.0,,53,,,,49.0,,86,6.0,80.0,,29.22,2.0,Falling Rapidly,,,,,,,,,,,,,,,,,,,,,,,,,,,,,,,,,,,,,,,,,,,,,,,,,,,,,,,,,,,,,,,,,,,
KBUR,Burbank,,34.1808,-118.3089,2012-03-16 02:53:00,,OVC,7.0,,53,,,,48.0,,83,3.0,70.0,,29.2,,,,,,,,,,,,,,,,,,,,,,,,,,,,,,,,,,,,,,,,,,,,,,,,,,,,,,,,,,,,,,,,,,,,,
KBUR,Burbank,,34.1808,-118.3089,2012-03-16 03:53:00,,OVC,6.0,,53,,,,49.0,,86,,,,29.19,,,,,,,,,,,,,,,,,,,,,,,,,,,,,,,,,,,,,,,,,,,,,,,,,,,,,,,,,,,,,,,,,,,,,
KBUR,Burbank,,34.1808,-118.3089,2012-03-16 04:53:00,,OVC,6.0,,53,,,,49.0,,86,5.0,90.0,,29.19,2.0,Falling,,,,54.0,52.0,,,,,,,,,,,,,,,,,,,,,,,,,,,,,,,,,,,,,,,,,,,,,,,,,,,,,,,,,,,,,,
KBUR,Burbank,,34.1808,-118.3089,2012-03-16 05:53:00,,OVC,6.0,,53,,,,48.0,,83,3.0,90.0,,29.18,,,,,,,,,,,,,,,,,,,,,,,,,,,,,,,,,,,,,,,,,,,,,,,,,,,,,,,,,,,,,,,,,,,,,
KBUR,Burbank,,34.1808,-118.3089,2012-03-16 06:53:00,,OVC,4.0,,53,,,,49.0,,86,5.0,100.0,,29.18,,,,,,,,,,,,,,,,,,,,,,,,,,,,,,,,,,,,,,,,,,,,,,,,,,,,,,,,,,,,,,,,,,,,,
KBUR,Burbank,,34.1808,-118.3089,2012-03-16 07:53:00,,OVC,4.0,,53,,,,48.0,,83,6.0,180.0,,29.2,1.0,Rising Rapidly,,,,,,,,,,,,,,,,,,,,,,,,,,,,,,,,,,,,,,,,,,,,,,,,,,,,,,,,,,,,,,,,,,,
KBUR,Burbank,,34.1808,-118.3089,2012-03-16 08:53:00,,OVC,6.0,,53,,,,48.0,,83,3.0,190.0,,29.22,,,,,,,,,,,,,,,,,,,,,,,,,,,,,,,,,,,,,,,,,,,,,,,,,,,,,,,,,,,,,,,,,,,,,
KBUR,Burbank,,34.1808,-118.3089,2012-03-16 09:53:00,,OVC,8.0,,53,,,,49.0,,86,3.0,170.0,,29.21,,,,,,,,,,,,,,,,,,,,,,,,,,,,,,,,,,,,,,,,,,,,,,,,,,,,,,,,,,,,,,,,,,,,,
KBUR,Burbank,,34.1808,-118.3089,2012-03-16 10:53:00,,OVC,6.0,,54,,,,49.0,,83,,,,29.2,2.0,Falling Rapidly,,,,54.0,52.0,,,,,,,,,,,,,,,,,,,,,,,,,,,,,,,,,,,,,,,,,,,,,,,,,,,,,,,,,,,,,,
KBUR,Burbank,,34.1808,-118.3089,2012-03-16 11:42:00,,OVC,5.0,,55,,,,48.0,,77,3.0,100.0,,29.22,,,,,,,,,,,,,,,,,,,,,,,,,,,,,,,,,,,,,,,,,,,,,,,,,,,,,,,,,,,,,,,,,,,,,
KBUR,Burbank,,34.1808,-118.3089,2012-03-16 11:53:00,,OVC,5.0,,56,,,,49.0,,77,5.0,60.0,,29.19,,,,,,,,,,,,,,,,,,,,,,,,,,,,,,,,,,,,,,,,,,,,,,,,,,,,,,,,,,,,,,,,,,,,,
KBUR,Burbank,,34.1808,-118.3089,2012-03-16 12:53:00,,OVC,8.0,,56,,,,49.0,,77,8.0,100.0,,29.18,,,,,,,,,,,,,,,,,,,,,,,,,,,,,,,,,,,,,,,,,,,,,,,,,,,,,,,,,,,,,,,,,,,,,
KBUR,Burbank,,34.1808,-118.3089,2012-03-16 13:53:00,,OVC,7.0,,58,,,,49.0,,72,5.0,200.0,,29.16,2.0,Falling Rapidly,,,,,,,,,,,,,,,,,,,,,,,,,,,,,,,,,,,,,,,,,,,,,,,,,,,,,,,,,,,,,,,,,,,
KBUR,Burbank,,34.1808,-118.3089,2012-03-16 14:53:00,,OVC,7.0,,59,,,,49.0,,69,5.0,160.0,,29.13,,,,,,,,,,,,,,,,,,,,,,,,,,,,,,,,,,,,,,,,,,,,,,,,,,,,,,,,,,,,,,,,,,,,,
KBUR,Burbank,,34.1808,-118.3089,2012-03-16 15:53:00,,OVC,7.0,,58,,,,51.0,,78,9.0,200.0,,29.12,,,,,,,,,,,,,,,,,,,,,,,,,,,,,,,,,,,,,,,,,,,,,,,,,,,,,,,,,,,,,,,,,,,,,
KBUR,Burbank,,34.1808,-118.3089,2012-03-16 16:53:00,,OVC,10.0,,58,,,,51.0,,78,9.0,190.0,,29.1,2.0,Falling,,,,60.0,54.0,,,,,,,,,,,,,,,,,,,,,,,,,,,,,,,,,,,,,,,,,,,,,,,,,,,,,,,,,,,,,,
KBUR,Burbank,,34.1808,-118.3089,2012-03-16 17:53:00,,OVC,10.0,,57,,,,50.0,,77,8.0,180.0,,29.09,,,,,,,,,,,,,,,,,,,,,,,,,,,,,,,,,,,,,,,,,,,,,,,,,,,,,,,,,,,,,,,,,,,,,
KBUR,Burbank,,34.1808,-118.3089,2012-03-16 18:53:00,,OVC,10.0,,56,,,,50.0,,80,7.0,170.0,,29.1,,,,,,,,,,,,,,,,,,,,,,,,,,,,,,,,,,,,,,,,,,,,,,,,,,,,,,,,,,,,,,,,,,,,,
KBUR,Burbank,,34.1808,-118.3089,2012-03-16 19:53:00,,OVC,10.0,,55,,,,49.0,,80,8.0,150.0,,29.09,2.0,Falling,,,,,,,,,,,,,,,,,,,,,,,,,,,,,,,,,,,,,,,,,,,,,,,,,,,,,,,,,,,,,,,,,,,
KBUR,Burbank,,34.1808,-118.3089,2012-03-16 20:53:00,,OVC,10.0,,54,,,,50.0,,86,6.0,180.0,,29.09,,,,,,,,,,,,,,,,,,,,,,,,,,,,,,,,,,,,,,,,,,,,,,,,,,,,,,,,,,,,,,,,,,,,,
KBUR,Burbank,,34.1808,-118.3089,2012-03-16 21:09:00,,OVC,10.0,,54,,,,50.0,,88,7.0,180.0,,29.12,,,,,,,,,,,,,,,,,,,,,,,,,,,,,,,,,,,,,,,,,,,,,,,,,,,,,,,,,,,,,,,,,,,,,
KBUR,Burbank,,34.1808,-118.3089,2012-03-16 21:32:00,,OVC,10.0,,54,,,,52.0,,94,8.0,160.0,,29.12,,,,,,,,,,,,,,,,,,,,,,,,,,,,,,,,,,,,,,,,,,,,,,,,,,,,,,,,,,,,,,,,,,,,,
KBUR,Burbank,,34.1808,-118.3089,2012-03-16 21:53:00,,OVC,10.0,,53,,,,51.0,,93,7.0,190.0,,29.11,,,,,,,,,,,,,,,,,,,,,,,,,,,,,,,,,,,,,,,,,,,,,,,,,,,,,,,,,,,,,,,,,,,,,
KBUR,Burbank,,34.1808,-118.3089,2012-03-16 22:49:00,,OVC,9.0,,54,,,,52.0,,94,7.0,180.0,,29.12,,,,0.0,,,,,,,,,,,,,,,,,,,,,,,,,,,,,,,,,,,,,,,,,,,,,,,,,,,,,,,,,,,,,,,,,
KBUR,Burbank,,34.1808,-118.3089,2012-03-16 22:53:00,,OVC,9.0,,53,,,,52.0,,96,7.0,170.0,,29.1,0.0,Steady,,0.0,,58.0,52.0,,,,,,,,,,,,,,,,,,,,,,,,,,,,,,,,,,,,,,,,,,,,,,,,,,,,,,,,,,,,,,
KBUR,Burbank,,34.1808,-118.3089,2012-03-16 23:53:00,,OVC,10.0,,54,,,,52.0,,94,6.0,160.0,,29.1,,,,,,,,,,,,,,,,,,,,,,,,,,,,,,,,,,,,,,,,,,,,,,,,,,,,,,,,,,,,,,,,,,,,,
KBUR,Burbank,,34.1808,-118.3089,2012-03-17 00:00:00,,OVC,10.0,,54,,,,50.0,,88,7.0,150.0,,29.1,,,,,,,,,,,,,,,,,,,,,,,,,,,,,,,,,,,,,,,,,,,,,,,,,,,,,,,,,,,,,,,,,,,,,
KBUR,Burbank,,34.1808,-118.3089,2012-03-17 00:53:00,,OVC,3.0,,53,,,,52.0,,96,8.0,160.0,,29.06,,,,0.0,,60.0,52.0,,,,,,,,,,,,,,,,,,,,,,,,,,,,,,,,,,,,,,,,,,,,,,,,,,,,,,,,,,,,,,
KBUR,Burbank,,34.1808,-118.3089,2012-03-17 01:32:00,,OVC,10.0,,52,,,,52.0,,100,8.0,160.0,,29.07,,,,0.0,,,,,,,,,,,,,,,,,,,,,,,,,,,,,,,,,,,,,,,,,,,,,,,,,,,,,,,,,,,,,,,,,
KBUR,Burbank,,34.1808,-118.3089,2012-03-17 01:53:00,,OVC,5.0,,52,,,,51.0,,97,7.0,170.0,,29.05,2.0,Falling,,0.0,,,,,,,,,,,,,,,,,,,,,,,,,,,,,,,,,,,,,,,,,,,,,,,,,,,,,,,,,,,,,,,,,
KBUR,Burbank,,34.1808,-118.3089,2012-03-17 02:11:00,,OVC,2.0,,52,,,,52.0,,100,7.0,170.0,,29.06,,,,0.0,,,,,,,,,,,,,,,,,,,,,,,,,,,,,,,,,,,,,,,,,,,,,,,,,,,,,,,,,,,,,,,,,
KBUR,Burbank,,34.1808,-118.3089,2012-03-17 02:25:00,,OVC,3.0,,52,,,,52.0,,100,7.0,150.0,,29.05,,,,0.0,,,,,,,,,,,,,,,,,,,,,,,,,,,,,,,,,,,,,,,,,,,,,,,,,,,,,,,,,,,,,,,,,
KBUR,Burbank,,34.1808,-118.3089,2012-03-17 02:53:00,,OVC,3.0,,52,,,,51.0,,97,9.0,140.0,,29.01,,,,0.0,,,,,,,,,,,,,,,,,,,,,,,,,,,,,,,,,,,,,,,,,,,,,,,,,,,,,,,,,,,,,,,,,
KBUR,Burbank,,34.1808,-118.3089,2012-03-17 03:53:00,,OVC,3.0,,52,,,,51.0,,97,9.0,150.0,,28.97,,,,0.01,,,,,,,,,,,,,,,,,,,,,,,,,,,,,,,,,,,,,,,,,,,,,,,,,,,,,,,,,,,,,,,,,
KBUR,Burbank,,34.1808,-118.3089,2012-03-17 04:53:00,,OVC,5.0,,52,,,,51.0,,97,10.0,130.0,,28.95,2.0,Falling,,0.0,,53.0,52.0,,,,,,,,,,,,,,,,,,,,,,,,,,,,,,,,,,,,,,,,,,,,,,,,,,,,,,,,,,,,,,
KBUR,Burbank,,34.1808,-118.3089,2012-03-17 05:33:00,,OVC,2.0,,52,,,,52.0,,100,12.0,150.0,,28.96,,,,0.01,,,,,,,,,,,,,,,,,,,,,,,,,,,,,,,,,,,,,,,,,,,,,,,,,,,,,,,,,,,,,,,,,
KBUR,Burbank,,34.1808,-118.3089,2012-03-17 05:53:00,,OVC,3.0,,51,,,,51.0,,100,10.0,170.0,,28.94,,,,0.02,,,,,,,,,,,,,,,,,,,,,,,,,,,,,,,,,,,,,,,,,,,,,,,,,,,,,,,,,,,,,,,,,
KBUR,Burbank,,34.1808,-118.3089,2012-03-17 06:00:00,,OVC,2.0,,52,,,,52.0,,100,14.0,160.0,,28.96,,,,0.02,,,,,,,,,,,,,,,,,,,,,,,,,,,,,,,,,,,,,,,,,,,,,,,,,,,,,,,,,,,,,,,,,
KBUR,Burbank,,34.1808,-118.3089,2012-03-17 06:53:00,,OVC,2.0,,51,,,,50.0,,96,14.0,160.0,,28.9,,,,0.04,,,,,,,,,,,,,,,,,,,,,,,,,,,,,,,,,,,,,,,,,,,,,,,,,,,,,,,,,,,,,,,,,
KBUR,Burbank,,34.1808,-118.3089,2012-03-17 07:30:00,,OVC,1.0,,52,,,,50.0,,94,18.0,130.0,25.0,28.91,,,,0.02,,,,,,,,,,,,,,,,,,,,,,,,,,,,,,,,,,,,,,,,,,,,,,,,,,,,,,,,,,,,,,,,,
KBUR,Burbank,,34.1808,-118.3089,2012-03-17 07:53:00,,OVC,1.0,,51,,,,50.0,,96,22.0,140.0,29.0,28.88,2.0,Falling Rapidly,,0.04,,,,,,,,,,,,,,,,,,,,,,,,,,,,,,,,,,,,,,,,,,,,,,,,,,,,,,,,,,,,,,,,,
KBUR,Burbank,,34.1808,-118.3089,2012-03-17 08:40:00,,OVC,2.0,,52,,,,50.0,,94,13.0,150.0,26.0,28.89,,,,0.14,,,,,,,,,,,,,,,,,,,,,,,,,,,,,,,,,,,,,,,,,,,,,,,,,,,,,,,,,,,,,,,,,
KBUR,Burbank,,34.1808,-118.3089,2012-03-17 08:53:00,,OVC,1.0,,52,,,,51.0,,97,20.0,140.0,26.0,28.86,,,,0.17,,,,,,,,,,,,,,,,,,,,,,,,,,,,,,,,,,,,,,,,,,,,,,,,,,,,,,,,,,,,,,,,,
KBUR,Burbank,,34.1808,-118.3089,2012-03-17 09:53:00,,OVC,1.0,,52,,,,52.0,,100,14.0,170.0,31.0,28.85,,,,0.22,,,,,,,,,,,,,,,,,,,,,,,,,,,,,,,,,,,,,,,,,,,,,,,,,,,,,,,,,,,,,,,,,
KBUR,Burbank,,34.1808,-118.3089,2012-03-17 10:19:00,,OVC,1.0,,54,,,,52.0,,94,13.0,180.0,,28.89,,,,0.11,,,,,,,,,,,,,,,,,,,,,,,,,,,,,,,,,,,,,,,,,,,,,,,,,,,,,,,,,,,,,,,,,
KBUR,Burbank,,34.1808,-118.3089,2012-03-17 10:49:00,,OVC,5.0,,52,,,,52.0,,100,3.0,260.0,,28.89,,,,0.19,,,,,,,,,,,,,,,,,,,,,,,,,,,,,,,,,,,,,,,,,,,,,,,,,,,,,,,,,,,,,,,,,
KBUR,Burbank,,34.1808,-118.3089,2012-03-17 10:50:00,,OVC,5.0,,52,,,,51.0,,97,5.0,250.0,,28.87,0.0,Steady,,0.19,,53.0,51.0,,,,,,,,,,,,,,,,,,,,,,,,,,,,,,,,,,,,,,,,,,,,,,,,,,,,,,,,,,,,,,
KBUR,Burbank,,34.1808,-118.3089,2012-03-17 11:09:00,,OVC,6.0,,52,,,,52.0,,100,7.0,150.0,,28.89,,,,0.02,,,,,,,,,,,,,,,,,,,,,,,,,,,,,,,,,,,,,,,,,,,,,,,,,,,,,,,,,,,,,,,,,
KBUR,Burbank,,34.1808,-118.3089,2012-03-17 11:17:00,,OVC,8.0,,52,,,,50.0,,94,9.0,180.0,,28.89,,,,0.02,,,,,,,,,,,,,,,,,,,,,,,,,,,,,,,,,,,,,,,,,,,,,,,,,,,,,,,,,,,,,,,,,
KBUR,Burbank,,34.1808,-118.3089,2012-03-17 11:31:00,,OVC,6.0,,52,,,,50.0,,94,8.0,190.0,,28.89,,,,0.03,,,,,,,,,,,,,,,,,,,,,,,,,,,,,,,,,,,,,,,,,,,,,,,,,,,,,,,,,,,,,,,,,
KBUR,Burbank,,34.1808,-118.3089,2012-03-17 11:53:00,,OVC,6.0,,53,,,,50.0,,89,12.0,200.0,,28.86,,,,0.03,,,,,,,,,,,,,,,,,,,,,,,,,,,,,,,,,,,,,,,,,,,,,,,,,,,,,,,,,,,,,,,,,
KBUR,Burbank,,34.1808,-118.3089,2012-03-17 12:53:00,,OVC,9.0,,52,,,,49.0,,89,8.0,220.0,,28.86,,,,0.02,,,,,,,,,,,,,,,,,,,,,,,,,,,,,,,,,,,,,,,,,,,,,,,,,,,,,,,,,,,,,,,,,
KBUR,Burbank,,34.1808,-118.3089,2012-03-17 13:53:00,,OVC,10.0,,50,,,,43.0,,77,18.0,280.0,23.0,28.86,2.0,Falling,,0.01,,,,,,,,,,,,,,,,,,,,,,,,,,,,,,,,,,,,,,,,,,,,,,,,,,,,,,,,,,,,,,,,,
KBUR,Burbank,,34.1808,-118.3089,2012-03-17 14:23:00,,OVC,10.0,,50,,,,39.0,,66,20.0,280.0,25.0,28.89,,,,0.0,,,,,,,,,,,,,,,,,,,,,,,,,,,,,,,,,,,,,,,,,,,,,,,,,,,,,,,,,,,,,,,,,
KBUR,Burbank,,34.1808,-118.3089,2012-03-17 14:53:00,,OVC,10.0,,49,,,,41.0,,74,6.0,,,28.87,,,,0.0,,,,,,,,,,,,,,,,,,,,,,,,,,,,,,,,,,,,,,,,,,,,,,,,,,,,,,,,,,,,,,,,,
KBUR,Burbank,,34.1808,-118.3089,2012-03-17 15:53:00,,BKN,10.0,,50,,,,42.0,,74,7.0,290.0,,28.86,,,,0.03,,,,,,,,,,,,,,,,,,,,,,,,,,,,,,,,,,,,,,,,,,,,,,,,,,,,,,,,,,,,,,,,,
KBUR,Burbank,,34.1808,-118.3089,2012-03-17 16:53:00,,OVC,7.0,,48,,,,39.0,,71,16.0,270.0,24.0,28.86,1.0,Rising,,0.06,,53.0,48.0,,,,,,,,,,,,,,,,,,,,,,,,,,,,,,,,,,,,,,,,,,,,,,,,,,,,,,,,,,,,,,
KBUR,Burbank,,34.1808,-118.3089,2012-03-17 17:04:00,,OVC,10.0,,48,,,,39.0,,71,22.0,270.0,29.0,28.89,,,,0.01,,,,,,,,,,,,,,,,,,,,,,,,,,,,,,,,,,,,,,,,,,,,,,,,,,,,,,,,,,,,,,,,,
KBUR,Burbank,,34.1808,-118.3089,2012-03-17 17:53:00,,CLR,10.0,,48,,,,38.0,,68,9.0,260.0,,28.87,,,,0.01,,,,,,,,,,,,,,,,,,,,,,,,,,,,,,,,,,,,,,,,,,,,,,,,,,,,,,,,,,,,,,,,,
KBUR,Burbank,,34.1808,-118.3089,2012-03-17 18:53:00,,SCT,10.0,,46,,,,38.0,,73,6.0,250.0,,28.88,,,,0.02,,,,,,,,,,,,,,,,,,,,,,,,,,,,,,,,,,,,,,,,,,,,,,,,,,,,,,,,,,,,,,,,,
KBUR,Burbank,,34.1808,-118.3089,2012-03-17 19:08:00,,SCT,10.0,,45,,,,37.0,,76,,,,28.91,,,,0.0,,,,,,,,,,,,,,,,,,,,,,,,,,,,,,,,,,,,,,,,,,,,,,,,,,,,,,,,,,,,,,,,,
KBUR,Burbank,,34.1808,-118.3089,2012-03-17 19:53:00,,OVC,9.0,,44,,,,38.0,,79,16.0,260.0,21.0,28.9,1.0,Rising Rapidly,,0.01,,,,,,,,,,,,,,,,,,,,,,,,,,,,,,,,,,,,,,,,,,,,,,,,,,,,,,,,,,,,,,,,,
KBUR,Burbank,,34.1808,-118.3089,2012-03-17 20:06:00,,OVC,9.0,,43,,,,37.0,,81,,,,28.91,,,,0.01,,,,,,,,,,,,,,,,,,,,,,,,,,,,,,,,,,,,,,,,,,,,,,,,,,,,,,,,,,,,,,,,,
KBUR,Burbank,,34.1808,-118.3089,2012-03-17 20:53:00,,BKN,10.0,,43,,,,39.0,,86,3.0,100.0,,28.9,,,,0.01,,,,,,,,,,,,,,,,,,,,,,,,,,,,,,,,,,,,,,,,,,,,,,,,,,,,,,,,,,,,,,,,,
KBUR,Burbank,,34.1808,-118.3089,2012-03-17 21:53:00,,BKN,10.0,,44,,,,39.0,,82,7.0,120.0,,28.89,,,,0.0,,,,,,,,,,,,,,,,,,,,,,,,,,,,,,,,,,,,,,,,,,,,,,,,,,,,,,,,,,,,,,,,,
KBUR,Burbank,,34.1808,-118.3089,2012-03-17 22:53:00,,BKN,9.0,,43,,,,39.0,,86,6.0,160.0,,28.89,0.0,Steady,,0.01,,49.0,43.0,,,,,,,,,,,,,,,,,,,,,,,,,,,,,,,,,,,,,,,,,,,,,,,,,,,,,,,,,,,,,,
KBUR,Burbank,,34.1808,-118.3089,2012-03-17 23:53:00,,OVC,10.0,,43,,,,39.0,,86,7.0,120.0,,28.88,,,,0.03,,,,,,,,,,,,,,,,,,,,,,,,,,,,,,,,,,,,,,,,,,,,,,,,,,,,,,,,,,,,,,,,,
KBUR,Burbank,,34.1808,-118.3089,2012-03-18 00:41:00,,OVC,10.0,,43,,,,37.0,,81,5.0,140.0,,28.89,,,,0.0,,,,,,,,,,,,,,,,,,,,,,,,,,,,,,,,,,,,,,,,,,,,,,,,,,,,,,,,,,,,,,,,,
KBUR,Burbank,,34.1808,-118.3089,2012-03-18 00:53:00,,OVC,10.0,,43,,,,39.0,,86,6.0,130.0,,28.88,,,,0.0,,53.0,43.0,,,,,,,,,,,,,,,,,,,,,,,,,,,,,,,,,,,,,,,,,,,,,,,,,,,,,,,,,,,,,,
KBUR,Burbank,,34.1808,-118.3089,2012-03-18 01:53:00,,OVC,10.0,,42,,,,40.0,,92,5.0,120.0,,28.87,2.0,Falling,,,,,,,,,,,,,,,,,,,,,,,,,,,,,,,,,,,,,,,,,,,,,,,,,,,,,,,,,,,,,,,,,,,
KBUR,Burbank,,34.1808,-118.3089,2012-03-18 02:03:00,,OVC,10.0,,43,,,,41.0,,93,5.0,160.0,,28.89,,,,,,,,,,,,,,,,,,,,,,,,,,,,,,,,,,,,,,,,,,,,,,,,,,,,,,,,,,,,,,,,,,,,,
KBUR,Burbank,,34.1808,-118.3089,2012-03-18 02:53:00,,OVC,7.0,,42,,,,40.0,,92,,,,28.86,,,,0.01,,,,,,,,,,,,,,,,,,,,,,,,,,,,,,,,,,,,,,,,,,,,,,,,,,,,,,,,,,,,,,,,,
KBUR,Burbank,,34.1808,-118.3089,2012-03-18 03:53:00,,OVC,10.0,,43,,,,39.0,,86,,,,28.86,,,,0.0,,,,,,,,,,,,,,,,,,,,,,,,,,,,,,,,,,,,,,,,,,,,,,,,,,,,,,,,,,,,,,,,,
KBUR,Burbank,,34.1808,-118.3089,2012-03-18 04:53:00,,OVC,10.0,,43,,,,36.0,,76,5.0,,,28.86,2.0,Falling,,,,43.0,42.0,,,,,,,,,,,,,,,,,,,,,,,,,,,,,,,,,,,,,,,,,,,,,,,,,,,,,,,,,,,,,,
KBUR,Burbank,,34.1808,-118.3089,2012-03-18 05:53:00,,OVC,10.0,,42,,,,36.0,,79,5.0,300.0,,28.88,,,,,,,,,,,,,,,,,,,,,,,,,,,,,,,,,,,,,,,,,,,,,,,,,,,,,,,,,,,,,,,,,,,,,
KBUR,Burbank,,34.1808,-118.3089,2012-03-18 06:53:00,,BKN,10.0,,42,,,,36.0,,79,5.0,300.0,,28.9,,,,,,,,,,,,,,,,,,,,,,,,,,,,,,,,,,,,,,,,,,,,,,,,,,,,,,,,,,,,,,,,,,,,,
KBUR,Burbank,,34.1808,-118.3089,2012-03-18 07:18:00,,SCT,10.0,,43,,,,36.0,,76,,,,28.92,,,,,,,,,,,,,,,,,,,,,,,,,,,,,,,,,,,,,,,,,,,,,,,,,,,,,,,,,,,,,,,,,,,,,
KBUR,Burbank,,34.1808,-118.3089,2012-03-18 07:53:00,,FEW,10.0,,42,,,,37.0,,82,3.0,,,28.92,1.0,Rising Rapidly,,,,,,,,,,,,,,,,,,,,,,,,,,,,,,,,,,,,,,,,,,,,,,,,,,,,,,,,,,,,,,,,,,,
KBUR,Burbank,,34.1808,-118.3089,2012-03-18 08:53:00,,BKN,10.0,,44,,,,37.0,,76,6.0,,,28.94,,,,,,,,,,,,,,,,,,,,,,,,,,,,,,,,,,,,,,,,,,,,,,,,,,,,,,,,,,,,,,,,,,,,,
KBUR,Burbank,,34.1808,-118.3089,2012-03-18 09:53:00,,BKN,10.0,,46,,,,36.0,,68,8.0,320.0,,28.97,,,,,,,,,,,,,,,,,,,,,,,,,,,,,,,,,,,,,,,,,,,,,,,,,,,,,,,,,,,,,,,,,,,,,
KBUR,Burbank,,34.1808,-118.3089,2012-03-18 10:53:00,,BKN,10.0,,48,,,,,,54,13.0,280.0,,28.98,1.0,Rising,,,,49.0,42.0,,,,,,,,,,,,,,,,,,,,,,,,,,,,,,,,,,,,,,,,,,,,,,,,,,,,,,,,,,,,,,
KBUR,Burbank,,34.1808,-118.3089,2012-03-18 11:53:00,,BKN,10.0,,51,,,,29.0,,43,9.0,280.0,,28.98,,,,,,,,,,,,,,,,,,,,,,,,,,,,,,,,,,,,,,,,,,,,,,,,,,,,,,,,,,,,,,,,,,,,,
KBUR,Burbank,,34.1808,-118.3089,2012-03-18 12:03:00,,BKN,10.0,,50,,,,,,50,5.0,,,28.99,,,,,,,,,,,,,,,,,,,,,,,,,,,,,,,,,,,,,,,,,,,,,,,,,,,,,,,,,,,,,,,,,,,,,
KBUR,Burbank,,34.1808,-118.3089,2012-03-18 12:53:00,,BKN,10.0,,52,,,,29.0,,41,9.0,270.0,,28.97,,,,,,,,,,,,,,,,,,,,,,,,,,,,,,,,,,,,,,,,,,,,,,,,,,,,,,,,,,,,,,,,,,,,,
KBUR,Burbank,,34.1808,-118.3089,2012-03-18 13:53:00,,SCT,10.0,,53,,,,30.0,,41,10.0,250.0,20.0,28.96,2.0,Falling Rapidly,,,,,,,,,,,,,,,,,,,,,,,,,,,,,,,,,,,,,,,,,,,,,,,,,,,,,,,,,,,,,,,,,,,
KBUR,Burbank,,34.1808,-118.3089,2012-03-18 14:53:00,,SCT,10.0,,55,,,,34.0,,45,20.0,270.0,,28.95,,,,,,,,,,,,,,,,,,,,,,,,,,,,,,,,,,,,,,,,,,,,,,,,,,,,,,,,,,,,,,,,,,,,,
KBUR,Burbank,,34.1808,-118.3089,2012-03-18 15:53:00,,SCT,10.0,,55,,,,,,42,20.0,250.0,29.0,28.95,,,,,,,,,,,,,,,,,,,,,,,,,,,,,,,,,,,,,,,,,,,,,,,,,,,,,,,,,,,,,,,,,,,,,
KBUR,Burbank,,34.1808,-118.3089,2012-03-18 16:53:00,,SCT,10.0,,52,,,,33.0,,49,17.0,260.0,,28.97,1.0,Rising Rapidly,,,,56.0,48.0,,,,,,,,,,,,,,,,,,,,,,,,,,,,,,,,,,,,,,,,,,,,,,,,,,,,,,,,,,,,,,
KBUR,Burbank,,34.1808,-118.3089,2012-03-18 17:53:00,,CLR,10.0,,51,,,,,,48,20.0,280.0,28.0,28.97,,,,,,,,,,,,,,,,,,,,,,,,,,,,,,,,,,,,,,,,,,,,,,,,,,,,,,,,,,,,,,,,,,,,,
KBUR,Burbank,,34.1808,-118.3089,2012-03-18 18:53:00,,SCT,10.0,,49,,,,33.0,,54,9.0,290.0,17.0,29.0,,,,,,,,,,,,,,,,,,,,,,,,,,,,,,,,,,,,,,,,,,,,,,,,,,,,,,,,,,,,,,,,,,,,,
KBUR,Burbank,,34.1808,-118.3089,2012-03-18 19:53:00,,SCT,10.0,,48,,,,33.0,,56,7.0,,,29.02,1.0,Rising Rapidly,,,,,,,,,,,,,,,,,,,,,,,,,,,,,,,,,,,,,,,,,,,,,,,,,,,,,,,,,,,,,,,,,,,
KBUR,Burbank,,34.1808,-118.3089,2012-03-18 20:53:00,,CLR,10.0,,47,,,,,,56,6.0,280.0,,29.04,,,,,,,,,,,,,,,,,,,,,,,,,,,,,,,,,,,,,,,,,,,,,,,,,,,,,,,,,,,,,,,,,,,,,
KBUR,Burbank,,34.1808,-118.3089,2012-03-18 21:53:00,,CLR,10.0,,46,,,,30.0,,54,3.0,250.0,,29.06,,,,,,,,,,,,,,,,,,,,,,,,,,,,,,,,,,,,,,,,,,,,,,,,,,,,,,,,,,,,,,,,,,,,,
KBUR,Burbank,,34.1808,-118.3089,2012-03-18 22:53:00,,CLR,10.0,,45,,,,30.0,,56,,,,29.08,1.0,Rising,,,,53.0,45.0,,,,,,,,,,,,,,,,,,,,,,,,,,,,,,,,,,,,,,,,,,,,,,,,,,,,,,,,,,,,,,
KBUR,Burbank,,34.1808,-118.3089,2012-03-18 23:53:00,,CLR,10.0,,43,,,,,,65,,,,29.08,,,,,,,,,,,,,,,,,,,,,,,,,,,,,,,,,,,,,,,,,,,,,,,,,,,,,,,,,,,,,,,,,,,,,
KBUR,Burbank,,34.1808,-118.3089,2012-03-19 00:53:00,,CLR,10.0,,41,,,,,,70,,,,29.08,,,,,,56.0,41.0,,,,,,,,,,,,,,,,,,,,,,,,,,,,,,,,,,,,,,,,,,,,,,,,,,,,,,,,,,,,,,
KBUR,Burbank,,34.1808,-118.3089,2012-03-19 01:53:00,,CLR,10.0,,40,,,,,,73,,,,29.09,1.0,Rising Rapidly,,,,,,,,,,,,,,,,,,,,,,,,,,,,,,,,,,,,,,,,,,,,,,,,,,,,,,,,,,,,,,,,,,,
KBUR,Burbank,,34.1808,-118.3089,2012-03-19 02:53:00,,CLR,10.0,,40,,,,,,73,3.0,260.0,,29.07,,,,,,,,,,,,,,,,,,,,,,,,,,,,,,,,,,,,,,,,,,,,,,,,,,,,,,,,,,,,,,,,,,,,,
KBUR,Burbank,,34.1808,-118.3089,2012-03-19 03:53:00,,CLR,10.0,,38,,,,,,79,,,,29.07,,,,,,,,,,,,,,,,,,,,,,,,,,,,,,,,,,,,,,,,,,,,,,,,,,,,,,,,,,,,,,,,,,,,,
KBUR,Burbank,,34.1808,-118.3089,2012-03-19 04:53:00,,CLR,10.0,,38,,,,,,79,5.0,320.0,,29.06,2.0,Falling,,,,45.0,38.0,,,,,,,,,,,,,,,,,,,,,,,,,,,,,,,,,,,,,,,,,,,,,,,,,,,,,,,,,,,,,,
KBUR,Burbank,,34.1808,-118.3089,2012-03-19 05:53:00,,CLR,10.0,,39,,,,31.0,,73,,,,29.06,,,,,,,,,,,,,,,,,,,,,,,,,,,,,,,,,,,,,,,,,,,,,,,,,,,,,,,,,,,,,,,,,,,,,
KBUR,Burbank,,34.1808,-118.3089,2012-03-19 06:53:00,,CLR,10.0,,39,,,,30.0,,70,5.0,340.0,,29.07,,,,,,,,,,,,,,,,,,,,,,,,,,,,,,,,,,,,,,,,,,,,,,,,,,,,,,,,,,,,,,,,,,,,,
KBUR,Burbank,,34.1808,-118.3089,2012-03-19 07:53:00,,CLR,10.0,,41,,,,28.0,,60,5.0,320.0,,29.07,1.0,Rising Rapidly,,,,,,,,,,,,,,,,,,,,,,,,,,,,,,,,,,,,,,,,,,,,,,,,,,,,,,,,,,,,,,,,,,,
KBUR,Burbank,,34.1808,-118.3089,2012-03-19 08:53:00,,CLR,10.0,,44,,,,28.0,,53,5.0,300.0,,29.08,,,,,,,,,,,,,,,,,,,,,,,,,,,,,,,,,,,,,,,,,,,,,,,,,,,,,,,,,,,,,,,,,,,,,
KBUR,Burbank,,34.1808,-118.3089,2012-03-19 09:53:00,,CLR,10.0,,49,,,,26.0,,41,3.0,80.0,,29.1,,,,,,,,,,,,,,,,,,,,,,,,,,,,,,,,,,,,,,,,,,,,,,,,,,,,,,,,,,,,,,,,,,,,,
KBUR,Burbank,,34.1808,-118.3089,2012-03-19 10:53:00,,CLR,10.0,,51,,,,26.0,,38,,,,29.1,0.0,Steady,,,,51.0,38.0,,,,,,,,,,,,,,,,,,,,,,,,,,,,,,,,,,,,,,,,,,,,,,,,,,,,,,,,,,,,,,
KBUR,Burbank,,34.1808,-118.3089,2012-03-19 11:53:00,,CLR,10.0,,53,,,,21.0,,29,6.0,90.0,,29.09,,,,,,,,,,,,,,,,,,,,,,,,,,,,,,,,,,,,,,,,,,,,,,,,,,,,,,,,,,,,,,,,,,,,,
KBUR,Burbank,,34.1808,-118.3089,2012-03-19 12:53:00,,CLR,10.0,,56,,,,16.0,,21,7.0,260.0,,29.09,,,,,,,,,,,,,,,,,,,,,,,,,,,,,,,,,,,,,,,,,,,,,,,,,,,,,,,,,,,,,,,,,,,,,
KBUR,Burbank,,34.1808,-118.3089,2012-03-19 13:53:00,,CLR,10.0,,57,,,,29.0,,34,9.0,160.0,,29.07,2.0,Falling Rapidly,,,,,,,,,,,,,,,,,,,,,,,,,,,,,,,,,,,,,,,,,,,,,,,,,,,,,,,,,,,,,,,,,,,
KBUR,Burbank,,34.1808,-118.3089,2012-03-19 14:53:00,,CLR,10.0,,57,,,,30.0,,36,9.0,220.0,16.0,29.06,,,,,,,,,,,,,,,,,,,,,,,,,,,,,,,,,,,,,,,,,,,,,,,,,,,,,,,,,,,,,,,,,,,,,
KBUR,Burbank,,34.1808,-118.3089,2012-03-19 15:53:00,,FEW,10.0,,57,,,,31.0,,37,10.0,190.0,,29.07,,,,,,,,,,,,,,,,,,,,,,,,,,,,,,,,,,,,,,,,,,,,,,,,,,,,,,,,,,,,,,,,,,,,,
KBUR,Burbank,,34.1808,-118.3089,2012-03-19 16:53:00,,CLR,10.0,,56,,,,30.0,,37,10.0,210.0,,29.08,1.0,Rising Rapidly,,,,58.0,51.0,,,,,,,,,,,,,,,,,,,,,,,,,,,,,,,,,,,,,,,,,,,,,,,,,,,,,,,,,,,,,,
KBUR,Burbank,,34.1808,-118.3089,2012-03-19 17:53:00,,CLR,10.0,,55,,,,29.0,,37,8.0,190.0,,29.09,,,,,,,,,,,,,,,,,,,,,,,,,,,,,,,,,,,,,,,,,,,,,,,,,,,,,,,,,,,,,,,,,,,,,
KBUR,Burbank,,34.1808,-118.3089,2012-03-19 18:53:00,,CLR,10.0,,53,,,,26.0,,35,8.0,190.0,,29.1,,,,,,,,,,,,,,,,,,,,,,,,,,,,,,,,,,,,,,,,,,,,,,,,,,,,,,,,,,,,,,,,,,,,,
KBUR,Burbank,,34.1808,-118.3089,2012-03-19 19:53:00,,CLR,10.0,,52,,,,28.0,,40,5.0,150.0,,29.13,1.0,Rising Rapidly,,,,,,,,,,,,,,,,,,,,,,,,,,,,,,,,,,,,,,,,,,,,,,,,,,,,,,,,,,,,,,,,,,,
KBUR,Burbank,,34.1808,-118.3089,2012-03-19 20:53:00,,CLR,10.0,,51,,,,27.0,,39,3.0,80.0,,29.15,,,,,,,,,,,,,,,,,,,,,,,,,,,,,,,,,,,,,,,,,,,,,,,,,,,,,,,,,,,,,,,,,,,,,
KBUR,Burbank,,34.1808,-118.3089,2012-03-19 21:53:00,,CLR,10.0,,50,,,,31.0,,48,,,,29.17,,,,,,,,,,,,,,,,,,,,,,,,,,,,,,,,,,,,,,,,,,,,,,,,,,,,,,,,,,,,,,,,,,,,,
KBUR,Burbank,,34.1808,-118.3089,2012-03-19 22:53:00,,CLR,10.0,,48,,,,33.0,,56,,,,29.18,1.0,Rising,,,,56.0,48.0,,,,,,,,,,,,,,,,,,,,,,,,,,,,,,,,,,,,,,,,,,,,,,,,,,,,,,,,,,,,,,
KBUR,Burbank,,34.1808,-118.3089,2012-03-19 23:53:00,,CLR,10.0,,46,,,,33.0,,61,,,,29.19,,,,,,,,,,,,,,,,,,,,,,,,,,,,,,,,,,,,,,,,,,,,,,,,,,,,,,,,,,,,,,,,,,,,,
KBUR,Burbank,,34.1808,-118.3089,2012-03-20 00:53:00,,CLR,10.0,,47,,,,34.0,,61,,,,29.19,,,,,,58.0,38.0,,,,,,,,,,,,,,,,,,,,,,,,,,,,,,,,,,,,,,,,,,,,,,,,,,,,,,,,,,,,,,
KBUR,Burbank,,34.1808,-118.3089,2012-03-20 01:53:00,,CLR,10.0,,44,,,,35.0,,71,3.0,20.0,,29.2,1.0,Rising Rapidly,,,,,,,,,,,,,,,,,,,,,,,,,,,,,,,,,,,,,,,,,,,,,,,,,,,,,,,,,,,,,,,,,,,
KBUR,Burbank,,34.1808,-118.3089,2012-03-20 02:53:00,,CLR,10.0,,43,,,,34.0,,71,,,,29.21,,,,,,,,,,,,,,,,,,,,,,,,,,,,,,,,,,,,,,,,,,,,,,,,,,,,,,,,,,,,,,,,,,,,,
KBUR,Burbank,,34.1808,-118.3089,2012-03-20 03:53:00,,CLR,10.0,,42,,,,33.0,,70,,,,29.21,,,,,,,,,,,,,,,,,,,,,,,,,,,,,,,,,,,,,,,,,,,,,,,,,,,,,,,,,,,,,,,,,,,,,
KBUR,Burbank,,34.1808,-118.3089,2012-03-20 04:53:00,,CLR,10.0,,41,,,,33.0,,73,3.0,340.0,,29.22,1.0,Rising Rapidly,,,,48.0,41.0,,,,,,,,,,,,,,,,,,,,,,,,,,,,,,,,,,,,,,,,,,,,,,,,,,,,,,,,,,,,,,
KBUR,Burbank,,34.1808,-118.3089,2012-03-20 05:53:00,,CLR,10.0,,41,,,,33.0,,73,3.0,350.0,,29.23,,,,,,,,,,,,,,,,,,,,,,,,,,,,,,,,,,,,,,,,,,,,,,,,,,,,,,,,,,,,,,,,,,,,,
KBUR,Burbank,,34.1808,-118.3089,2012-03-20 06:53:00,,CLR,10.0,,42,,,,33.0,,70,3.0,220.0,,29.24,,,,,,,,,,,,,,,,,,,,,,,,,,,,,,,,,,,,,,,,,,,,,,,,,,,,,,,,,,,,,,,,,,,,,
KBUR,Burbank,,34.1808,-118.3089,2012-03-20 07:53:00,,CLR,10.0,,44,,,,33.0,,65,,,,29.26,1.0,Rising,,,,,,,,,,,,,,,,,,,,,,,,,,,,,,,,,,,,,,,,,,,,,,,,,,,,,,,,,,,,,,,,,,,
KBUR,Burbank,,34.1808,-118.3089,2012-03-20 08:53:00,,CLR,10.0,,48,,,,,,54,,,,29.27,,,,,,,,,,,,,,,,,,,,,,,,,,,,,,,,,,,,,,,,,,,,,,,,,,,,,,,,,,,,,,,,,,,,,
KBUR,Burbank,,34.1808,-118.3089,2012-03-20 09:53:00,,CLR,10.0,,52,,,,33.0,,49,,,,29.27,,,,,,,,,,,,,,,,,,,,,,,,,,,,,,,,,,,,,,,,,,,,,,,,,,,,,,,,,,,,,,,,,,,,,
KBUR,Burbank,,34.1808,-118.3089,2012-03-20 10:53:00,,CLR,10.0,,56,,,,34.0,,44,3.0,120.0,,29.29,1.0,Rising Rapidly,,,,56.0,41.0,,,,,,,,,,,,,,,,,,,,,,,,,,,,,,,,,,,,,,,,,,,,,,,,,,,,,,,,,,,,,,
KBUR,Burbank,,34.1808,-118.3089,2012-03-20 11:53:00,,CLR,10.0,,59,,,,34.0,,39,3.0,150.0,,29.28,,,,,,,,,,,,,,,,,,,,,,,,,,,,,,,,,,,,,,,,,,,,,,,,,,,,,,,,,,,,,,,,,,,,,
KBUR,Burbank,,34.1808,-118.3089,2012-03-20 12:53:00,,CLR,10.0,,62,,,,,,32,3.0,240.0,,29.27,,,,,,,,,,,,,,,,,,,,,,,,,,,,,,,,,,,,,,,,,,,,,,,,,,,,,,,,,,,,,,,,,,,,,
KBUR,Burbank,,34.1808,-118.3089,2012-03-20 13:53:00,,CLR,10.0,,65,,,,28.0,,25,3.0,170.0,,29.24,2.0,Falling Rapidly,,,,,,,,,,,,,,,,,,,,,,,,,,,,,,,,,,,,,,,,,,,,,,,,,,,,,,,,,,,,,,,,,,,
KBUR,Burbank,,34.1808,-118.3089,2012-03-20 14:53:00,,CLR,10.0,,66,,,,,,28,6.0,180.0,,29.23,,,,,,,,,,,,,,,,,,,,,,,,,,,,,,,,,,,,,,,,,,,,,,,,,,,,,,,,,,,,,,,,,,,,,
KBUR,Burbank,,34.1808,-118.3089,2012-03-20 15:53:00,,CLR,10.0,,66,,,,31.0,,27,7.0,,,29.22,,,,,,,,,,,,,,,,,,,,,,,,,,,,,,,,,,,,,,,,,,,,,,,,,,,,,,,,,,,,,,,,,,,,,
KBUR,Burbank,,34.1808,-118.3089,2012-03-20 16:53:00,,CLR,10.0,,67,,,,33.0,,28,5.0,,,29.22,2.0,Falling,,,,67.0,56.0,,,,,,,,,,,,,,,,,,,,,,,,,,,,,,,,,,,,,,,,,,,,,,,,,,,,,,,,,,,,,,
KBUR,Burbank,,34.1808,-118.3089,2012-03-20 17:53:00,,CLR,10.0,,65,,,,30.0,,27,6.0,190.0,,29.22,,,,,,,,,,,,,,,,,,,,,,,,,,,,,,,,,,,,,,,,,,,,,,,,,,,,,,,,,,,,,,,,,,,,,
KBUR,Burbank,,34.1808,-118.3089,2012-03-20 18:53:00,,CLR,10.0,,63,,,,31.0,,30,5.0,210.0,,29.23,,,,,,,,,,,,,,,,,,,,,,,,,,,,,,,,,,,,,,,,,,,,,,,,,,,,,,,,,,,,,,,,,,,,,
KBUR,Burbank,,34.1808,-118.3089,2012-03-20 19:53:00,,CLR,10.0,,62,,,,34.0,,35,3.0,160.0,,29.24,1.0,Rising Rapidly,,,,,,,,,,,,,,,,,,,,,,,,,,,,,,,,,,,,,,,,,,,,,,,,,,,,,,,,,,,,,,,,,,,
KBUR,Burbank,,34.1808,-118.3089,2012-03-20 20:53:00,,CLR,10.0,,60,,,,35.0,,39,,,,29.25,,,,,,,,,,,,,,,,,,,,,,,,,,,,,,,,,,,,,,,,,,,,,,,,,,,,,,,,,,,,,,,,,,,,,
KBUR,Burbank,,34.1808,-118.3089,2012-03-20 21:53:00,,CLR,10.0,,57,,,,35.0,,44,3.0,300.0,,29.26,,,,,,,,,,,,,,,,,,,,,,,,,,,,,,,,,,,,,,,,,,,,,,,,,,,,,,,,,,,,,,,,,,,,,
KBUR,Burbank,,34.1808,-118.3089,2012-03-20 22:53:00,,CLR,10.0,,56,,,,37.0,,49,5.0,270.0,,29.26,1.0,Rising,,,,67.0,55.0,,,,,,,,,,,,,,,,,,,,,,,,,,,,,,,,,,,,,,,,,,,,,,,,,,,,,,,,,,,,,,
KBUR,Burbank,,34.1808,-118.3089,2012-03-20 23:53:00,,CLR,10.0,,54,,,,38.0,,55,3.0,310.0,,29.26,,,,,,,,,,,,,,,,,,,,,,,,,,,,,,,,,,,,,,,,,,,,,,,,,,,,,,,,,,,,,,,,,,,,,
KBUR,Burbank,,34.1808,-118.3089,2012-03-21 00:53:00,,CLR,10.0,,52,,,,39.0,,61,,,,29.25,,,,,,67.0,41.0,,,,,,,,,,,,,,,,,,,,,,,,,,,,,,,,,,,,,,,,,,,,,,,,,,,,,,,,,,,,,,
KBUR,Burbank,,34.1808,-118.3089,2012-03-21 01:53:00,,CLR,10.0,,51,,,,38.0,,61,,,,29.25,0.0,Steady,,,,,,,,,,,,,,,,,,,,,,,,,,,,,,,,,,,,,,,,,,,,,,,,,,,,,,,,,,,,,,,,,,,
KBUR,Burbank,,34.1808,-118.3089,2012-03-21 02:53:00,,CLR,10.0,,50,,,,38.0,,63,,,,29.24,,,,,,,,,,,,,,,,,,,,,,,,,,,,,,,,,,,,,,,,,,,,,,,,,,,,,,,,,,,,,,,,,,,,,
KBUR,Burbank,,34.1808,-118.3089,2012-03-21 03:53:00,,CLR,10.0,,48,,,,39.0,,71,,,,29.23,,,,,,,,,,,,,,,,,,,,,,,,,,,,,,,,,,,,,,,,,,,,,,,,,,,,,,,,,,,,,,,,,,,,,
KBUR,Burbank,,34.1808,-118.3089,2012-03-21 04:53:00,,CLR,10.0,,48,,,,39.0,,71,,,,29.24,0.0,Steady,,,,56.0,47.0,,,,,,,,,,,,,,,,,,,,,,,,,,,,,,,,,,,,,,,,,,,,,,,,,,,,,,,,,,,,,,
KBUR,Burbank,,34.1808,-118.3089,2012-03-21 05:53:00,,CLR,10.0,,47,,,,37.0,,68,,,,29.24,,,,,,,,,,,,,,,,,,,,,,,,,,,,,,,,,,,,,,,,,,,,,,,,,,,,,,,,,,,,,,,,,,,,,
KBUR,Burbank,,34.1808,-118.3089,2012-03-21 06:53:00,,CLR,10.0,,47,,,,37.0,,68,6.0,320.0,,29.24,,,,,,,,,,,,,,,,,,,,,,,,,,,,,,,,,,,,,,,,,,,,,,,,,,,,,,,,,,,,,,,,,,,,,
KBUR,Burbank,,34.1808,-118.3089,2012-03-21 07:53:00,,CLR,10.0,,50,,,,38.0,,63,,,,29.25,1.0,Rising Rapidly,,,,,,,,,,,,,,,,,,,,,,,,,,,,,,,,,,,,,,,,,,,,,,,,,,,,,,,,,,,,,,,,,,,
KBUR,Burbank,,34.1808,-118.3089,2012-03-21 08:53:00,,CLR,10.0,,54,,,,40.0,,59,,,,29.24,,,,,,,,,,,,,,,,,,,,,,,,,,,,,,,,,,,,,,,,,,,,,,,,,,,,,,,,,,,,,,,,,,,,,
KBUR,Burbank,,34.1808,-118.3089,2012-03-21 09:53:00,,CLR,10.0,,60,,,,41.0,,49,,,,29.23,,,,,,,,,,,,,,,,,,,,,,,,,,,,,,,,,,,,,,,,,,,,,,,,,,,,,,,,,,,,,,,,,,,,,
KBUR,Burbank,,34.1808,-118.3089,2012-03-21 10:53:00,,CLR,10.0,,65,,,,37.0,,36,,,,29.21,2.0,Falling Rapidly,,,,66.0,46.0,,,,,,,,,,,,,,,,,,,,,,,,,,,,,,,,,,,,,,,,,,,,,,,,,,,,,,,,,,,,,,
KBUR,Burbank,,34.1808,-118.3089,2012-03-21 11:53:00,,CLR,10.0,,69,,,,38.0,,32,,,,29.19,,,,,,,,,,,,,,,,,,,,,,,,,,,,,,,,,,,,,,,,,,,,,,,,,,,,,,,,,,,,,,,,,,,,,
KBUR,Burbank,,34.1808,-118.3089,2012-03-21 12:53:00,,CLR,10.0,,73,,,,39.0,,29,6.0,230.0,,29.16,,,,,,,,,,,,,,,,,,,,,,,,,,,,,,,,,,,,,,,,,,,,,,,,,,,,,,,,,,,,,,,,,,,,,
KBUR,Burbank,,34.1808,-118.3089,2012-03-21 13:53:00,,CLR,10.0,,76,,,,39.0,,26,5.0,,,29.13,2.0,Falling Rapidly,,,,,,,,,,,,,,,,,,,,,,,,,,,,,,,,,,,,,,,,,,,,,,,,,,,,,,,,,,,,,,,,,,,
KBUR,Burbank,,34.1808,-118.3089,2012-03-21 14:53:00,,CLR,10.0,,75,,,,39.0,,27,9.0,180.0,,29.11,,,,,,,,,,,,,,,,,,,,,,,,,,,,,,,,,,,,,,,,,,,,,,,,,,,,,,,,,,,,,,,,,,,,,
KBUR,Burbank,,34.1808,-118.3089,2012-03-21 15:53:00,,CLR,10.0,,74,,,,37.0,,26,9.0,170.0,,29.09,,,,,,,,,,,,,,,,,,,,,,,,,,,,,,,,,,,,,,,,,,,,,,,,,,,,,,,,,,,,,,,,,,,,,
KBUR,Burbank,,34.1808,-118.3089,2012-03-21 16:53:00,,CLR,10.0,,73,,,,34.0,,24,9.0,170.0,,29.09,2.0,Falling,,,,76.0,65.0,,,,,,,,,,,,,,,,,,,,,,,,,,,,,,,,,,,,,,,,,,,,,,,,,,,,,,,,,,,,,,
KBUR,Burbank,,34.1808,-118.3089,2012-03-21 17:53:00,,CLR,10.0,,70,,,,30.0,,23,7.0,180.0,,29.09,,,,,,,,,,,,,,,,,,,,,,,,,,,,,,,,,,,,,,,,,,,,,,,,,,,,,,,,,,,,,,,,,,,,,
KBUR,Burbank,,34.1808,-118.3089,2012-03-21 18:53:00,,CLR,10.0,,68,,,,31.0,,25,5.0,180.0,,29.09,,,,,,,,,,,,,,,,,,,,,,,,,,,,,,,,,,,,,,,,,,,,,,,,,,,,,,,,,,,,,,,,,,,,,
KBUR,Burbank,,34.1808,-118.3089,2012-03-21 19:53:00,,CLR,10.0,,65,,,,,,29,3.0,200.0,,29.1,1.0,Rising Rapidly,,,,,,,,,,,,,,,,,,,,,,,,,,,,,,,,,,,,,,,,,,,,,,,,,,,,,,,,,,,,,,,,,,,
KBUR,Burbank,,34.1808,-118.3089,2012-03-21 20:53:00,,CLR,10.0,,64,,,,34.0,,33,,,,29.12,,,,,,,,,,,,,,,,,,,,,,,,,,,,,,,,,,,,,,,,,,,,,,,,,,,,,,,,,,,,,,,,,,,,,
KBUR,Burbank,,34.1808,-118.3089,2012-03-21 21:53:00,,CLR,10.0,,62,,,,37.0,,39,,,,29.12,,,,,,,,,,,,,,,,,,,,,,,,,,,,,,,,,,,,,,,,,,,,,,,,,,,,,,,,,,,,,,,,,,,,,
KBUR,Burbank,,34.1808,-118.3089,2012-03-21 22:53:00,,CLR,10.0,,59,,,,39.0,,48,,,,29.12,0.0,Steady,,,,72.0,59.0,,,,,,,,,,,,,,,,,,,,,,,,,,,,,,,,,,,,,,,,,,,,,,,,,,,,,,,,,,,,,,
KBUR,Burbank,,34.1808,-118.3089,2012-03-21 23:53:00,,CLR,10.0,,57,,,,39.0,,51,,,,29.11,,,,,,,,,,,,,,,,,,,,,,,,,,,,,,,,,,,,,,,,,,,,,,,,,,,,,,,,,,,,,,,,,,,,,
KBUR,Burbank,,34.1808,-118.3089,2012-03-22 00:53:00,,CLR,10.0,,55,,,,40.0,,57,,,,29.09,,,,,,76.0,46.0,,,,,,,,,,,,,,,,,,,,,,,,,,,,,,,,,,,,,,,,,,,,,,,,,,,,,,,,,,,,,,
KBUR,Burbank,,34.1808,-118.3089,2012-03-22 01:53:00,,CLR,10.0,,55,,,,41.0,,59,,,,29.09,2.0,Falling,,,,,,,,,,,,,,,,,,,,,,,,,,,,,,,,,,,,,,,,,,,,,,,,,,,,,,,,,,,,,,,,,,,
KBUR,Burbank,,34.1808,-118.3089,2012-03-22 02:53:00,,CLR,10.0,,53,,,,40.0,,61,,,,29.07,,,,,,,,,,,,,,,,,,,,,,,,,,,,,,,,,,,,,,,,,,,,,,,,,,,,,,,,,,,,,,,,,,,,,
KBUR,Burbank,,34.1808,-118.3089,2012-03-22 03:53:00,,CLR,10.0,,53,,,,40.0,,61,,,,29.05,,,,,,,,,,,,,,,,,,,,,,,,,,,,,,,,,,,,,,,,,,,,,,,,,,,,,,,,,,,,,,,,,,,,,
KBUR,Burbank,,34.1808,-118.3089,2012-03-22 04:53:00,,CLR,10.0,,50,,,,41.0,,71,3.0,310.0,,29.05,2.0,Falling,,,,59.0,50.0,,,,,,,,,,,,,,,,,,,,,,,,,,,,,,,,,,,,,,,,,,,,,,,,,,,,,,,,,,,,,,
KBUR,Burbank,,34.1808,-118.3089,2012-03-22 05:53:00,,CLR,10.0,,51,,,,41.0,,68,,,,29.05,,,,,,,,,,,,,,,,,,,,,,,,,,,,,,,,,,,,,,,,,,,,,,,,,,,,,,,,,,,,,,,,,,,,,
KBUR,Burbank,,34.1808,-118.3089,2012-03-22 06:53:00,,CLR,10.0,,50,,,,41.0,,71,,,,29.06,,,,,,,,,,,,,,,,,,,,,,,,,,,,,,,,,,,,,,,,,,,,,,,,,,,,,,,,,,,,,,,,,,,,,
KBUR,Burbank,,34.1808,-118.3089,2012-03-22 07:53:00,,CLR,10.0,,52,,,,42.0,,69,,,,29.08,1.0,Rising Rapidly,,,,,,,,,,,,,,,,,,,,,,,,,,,,,,,,,,,,,,,,,,,,,,,,,,,,,,,,,,,,,,,,,,,
KBUR,Burbank,,34.1808,-118.3089,2012-03-22 08:53:00,,CLR,10.0,,57,,,,41.0,,55,,,,29.09,,,,,,,,,,,,,,,,,,,,,,,,,,,,,,,,,,,,,,,,,,,,,,,,,,,,,,,,,,,,,,,,,,,,,
KBUR,Burbank,,34.1808,-118.3089,2012-03-22 09:53:00,,CLR,10.0,,61,,,,36.0,,39,,,,29.09,,,,,,,,,,,,,,,,,,,,,,,,,,,,,,,,,,,,,,,,,,,,,,,,,,,,,,,,,,,,,,,,,,,,,
KBUR,Burbank,,34.1808,-118.3089,2012-03-22 10:53:00,,CLR,10.0,,67,,,,35.0,,31,,,,29.09,0.0,Steady,,,,67.0,49.0,,,,,,,,,,,,,,,,,,,,,,,,,,,,,,,,,,,,,,,,,,,,,,,,,,,,,,,,,,,,,,
KBUR,Burbank,,34.1808,-118.3089,2012-03-22 11:53:00,,CLR,10.0,,70,,,,34.0,,27,5.0,,,29.07,,,,,,,,,,,,,,,,,,,,,,,,,,,,,,,,,,,,,,,,,,,,,,,,,,,,,,,,,,,,,,,,,,,,,
KBUR,Burbank,,34.1808,-118.3089,2012-03-22 12:53:00,,CLR,10.0,,73,,,,41.0,,31,9.0,140.0,,29.06,,,,,,,,,,,,,,,,,,,,,,,,,,,,,,,,,,,,,,,,,,,,,,,,,,,,,,,,,,,,,,,,,,,,,
KBUR,Burbank,,34.1808,-118.3089,2012-03-22 13:53:00,,CLR,10.0,,72,,,,46.0,,40,9.0,180.0,,29.03,2.0,Falling Rapidly,,,,,,,,,,,,,,,,,,,,,,,,,,,,,,,,,,,,,,,,,,,,,,,,,,,,,,,,,,,,,,,,,,,
KBUR,Burbank,,34.1808,-118.3089,2012-03-22 14:53:00,,CLR,10.0,,71,,,,44.0,,38,12.0,180.0,,29.03,,,,,,,,,,,,,,,,,,,,,,,,,,,,,,,,,,,,,,,,,,,,,,,,,,,,,,,,,,,,,,,,,,,,,
KBUR,Burbank,,34.1808,-118.3089,2012-03-22 15:53:00,,CLR,10.0,,71,,,,44.0,,38,10.0,190.0,,29.02,,,,,,,,,,,,,,,,,,,,,,,,,,,,,,,,,,,,,,,,,,,,,,,,,,,,,,,,,,,,,,,,,,,,,
KBUR,Burbank,,34.1808,-118.3089,2012-03-22 16:53:00,,CLR,10.0,,69,,,,44.0,,40,9.0,170.0,,29.02,2.0,Falling,,,,73.0,67.0,,,,,,,,,,,,,,,,,,,,,,,,,,,,,,,,,,,,,,,,,,,,,,,,,,,,,,,,,,,,,,
KBUR,Burbank,,34.1808,-118.3089,2012-03-22 17:53:00,,CLR,10.0,,68,,,,44.0,,42,8.0,160.0,,29.02,,,,,,,,,,,,,,,,,,,,,,,,,,,,,,,,,,,,,,,,,,,,,,,,,,,,,,,,,,,,,,,,,,,,,
KBUR,Burbank,,34.1808,-118.3089,2012-03-22 18:53:00,,CLR,10.0,,65,,,,45.0,,48,7.0,170.0,,29.03,,,,,,,,,,,,,,,,,,,,,,,,,,,,,,,,,,,,,,,,,,,,,,,,,,,,,,,,,,,,,,,,,,,,,
KBUR,Burbank,,34.1808,-118.3089,2012-03-22 19:53:00,,CLR,10.0,,62,,,,47.0,,58,6.0,120.0,,29.05,1.0,Rising Rapidly,,,,,,,,,,,,,,,,,,,,,,,,,,,,,,,,,,,,,,,,,,,,,,,,,,,,,,,,,,,,,,,,,,,
KBUR,Burbank,,34.1808,-118.3089,2012-03-22 20:53:00,,CLR,10.0,,60,,,,45.0,,57,8.0,120.0,,29.06,,,,,,,,,,,,,,,,,,,,,,,,,,,,,,,,,,,,,,,,,,,,,,,,,,,,,,,,,,,,,,,,,,,,,
KBUR,Burbank,,34.1808,-118.3089,2012-03-22 21:53:00,,CLR,10.0,,57,,,,44.0,,62,3.0,150.0,,29.09,,,,,,,,,,,,,,,,,,,,,,,,,,,,,,,,,,,,,,,,,,,,,,,,,,,,,,,,,,,,,,,,,,,,,
KBUR,Burbank,,34.1808,-118.3089,2012-03-22 22:53:00,,CLR,4.0,,53,,,,48.0,,83,9.0,140.0,,29.11,1.0,Rising Rapidly,,,,69.0,53.0,,,,,,,,,,,,,,,,,,,,,,,,,,,,,,,,,,,,,,,,,,,,,,,,,,,,,,,,,,,,,,
KBUR,Burbank,,34.1808,-118.3089,2012-03-22 23:51:00,,SCT,4.0,,52,,,,48.0,,88,7.0,100.0,,29.14,,,,,,,,,,,,,,,,,,,,,,,,,,,,,,,,,,,,,,,,,,,,,,,,,,,,,,,,,,,,,,,,,,,,,
KBUR,Burbank,,34.1808,-118.3089,2012-03-22 23:53:00,,SCT,4.0,,52,,,,49.0,,89,8.0,110.0,,29.12,,,,,,,,,,,,,,,,,,,,,,,,,,,,,,,,,,,,,,,,,,,,,,,,,,,,,,,,,,,,,,,,,,,,,
KBUR,Burbank,,34.1808,-118.3089,2012-03-23 00:07:00,,BKN,4.0,,52,,,,48.0,,88,6.0,120.0,,29.14,,,,,,,,,,,,,,,,,,,,,,,,,,,,,,,,,,,,,,,,,,,,,,,,,,,,,,,,,,,,,,,,,,,,,
KBUR,Burbank,,34.1808,-118.3089,2012-03-23 00:53:00,,OVC,4.0,,51,,,,49.0,,92,9.0,120.0,,29.12,,,,,,73.0,49.0,,,,,,,,,,,,,,,,,,,,,,,,,,,,,,,,,,,,,,,,,,,,,,,,,,,,,,,,,,,,,,
KBUR,Burbank,,34.1808,-118.3089,2012-03-23 01:53:00,,OVC,4.0,,52,,,,49.0,,89,7.0,130.0,,29.13,1.0,Rising Rapidly,,,,,,,,,,,,,,,,,,,,,,,,,,,,,,,,,,,,,,,,,,,,,,,,,,,,,,,,,,,,,,,,,,,
KBUR,Burbank,,34.1808,-118.3089,2012-03-23 02:53:00,,OVC,4.0,,51,,,,49.0,,92,5.0,120.0,,29.13,,,,,,,,,,,,,,,,,,,,,,,,,,,,,,,,,,,,,,,,,,,,,,,,,,,,,,,,,,,,,,,,,,,,,
KBUR,Burbank,,34.1808,-118.3089,2012-03-23 03:53:00,,OVC,4.0,,52,,,,49.0,,89,,,,29.12,,,,,,,,,,,,,,,,,,,,,,,,,,,,,,,,,,,,,,,,,,,,,,,,,,,,,,,,,,,,,,,,,,,,,
KBUR,Burbank,,34.1808,-118.3089,2012-03-23 04:53:00,,OVC,4.0,,52,,,,48.0,,86,7.0,160.0,,29.1,2.0,Falling Rapidly,,,,53.0,51.0,,,,,,,,,,,,,,,,,,,,,,,,,,,,,,,,,,,,,,,,,,,,,,,,,,,,,,,,,,,,,,
KBUR,Burbank,,34.1808,-118.3089,2012-03-23 05:53:00,,OVC,6.0,,51,,,,48.0,,89,5.0,240.0,,29.15,,,,,,,,,,,,,,,,,,,,,,,,,,,,,,,,,,,,,,,,,,,,,,,,,,,,,,,,,,,,,,,,,,,,,
KBUR,Burbank,,34.1808,-118.3089,2012-03-23 06:22:00,,OVC,6.0,,52,,,,48.0,,88,5.0,150.0,,29.17,,,,,,,,,,,,,,,,,,,,,,,,,,,,,,,,,,,,,,,,,,,,,,,,,,,,,,,,,,,,,,,,,,,,,
KBUR,Burbank,,34.1808,-118.3089,2012-03-23 06:53:00,,OVC,6.0,,52,,,,48.0,,86,,,,29.15,,,,,,,,,,,,,,,,,,,,,,,,,,,,,,,,,,,,,,,,,,,,,,,,,,,,,,,,,,,,,,,,,,,,,
KBUR,Burbank,,34.1808,-118.3089,2012-03-23 07:53:00,,OVC,5.0,,53,,,,47.0,,80,,,,29.17,1.0,Rising,,,,,,,,,,,,,,,,,,,,,,,,,,,,,,,,,,,,,,,,,,,,,,,,,,,,,,,,,,,,,,,,,,,
KBUR,Burbank,,34.1808,-118.3089,2012-03-23 08:03:00,,OVC,5.0,,54,,,,48.0,,82,,,,29.2,,,,,,,,,,,,,,,,,,,,,,,,,,,,,,,,,,,,,,,,,,,,,,,,,,,,,,,,,,,,,,,,,,,,,
KBUR,Burbank,,34.1808,-118.3089,2012-03-23 08:53:00,,OVC,5.0,,53,,,,48.0,,83,3.0,200.0,,29.19,,,,,,,,,,,,,,,,,,,,,,,,,,,,,,,,,,,,,,,,,,,,,,,,,,,,,,,,,,,,,,,,,,,,,
KBUR,Burbank,,34.1808,-118.3089,2012-03-23 09:53:00,,OVC,6.0,,54,,,,48.0,,80,3.0,,,29.2,,,,,,,,,,,,,,,,,,,,,,,,,,,,,,,,,,,,,,,,,,,,,,,,,,,,,,,,,,,,,,,,,,,,,
KBUR,Burbank,,34.1808,-118.3089,2012-03-23 10:53:00,,OVC,5.0,,55,,,,48.0,,77,5.0,,,29.2,0.0,Steady,,,,56.0,51.0,,,,,,,,,,,,,,,,,,,,,,,,,,,,,,,,,,,,,,,,,,,,,,,,,,,,,,,,,,,,,,
KBUR,Burbank,,34.1808,-118.3089,2012-03-23 11:53:00,,OVC,8.0,,56,,,,48.0,,75,8.0,140.0,,29.19,,,,,,,,,,,,,,,,,,,,,,,,,,,,,,,,,,,,,,,,,,,,,,,,,,,,,,,,,,,,,,,,,,,,,
KBUR,Burbank,,34.1808,-118.3089,2012-03-23 12:53:00,,BKN,7.0,,58,,,,47.0,,67,6.0,180.0,,29.18,,,,,,,,,,,,,,,,,,,,,,,,,,,,,,,,,,,,,,,,,,,,,,,,,,,,,,,,,,,,,,,,,,,,,
KBUR,Burbank,,34.1808,-118.3089,2012-03-23 13:53:00,,FEW,8.0,,62,,,,48.0,,60,,,,29.16,2.0,Falling Rapidly,,,,,,,,,,,,,,,,,,,,,,,,,,,,,,,,,,,,,,,,,,,,,,,,,,,,,,,,,,,,,,,,,,,
KBUR,Burbank,,34.1808,-118.3089,2012-03-23 14:53:00,,CLR,10.0,,64,,,,47.0,,54,9.0,200.0,,29.13,,,,,,,,,,,,,,,,,,,,,,,,,,,,,,,,,,,,,,,,,,,,,,,,,,,,,,,,,,,,,,,,,,,,,
KBUR,Burbank,,34.1808,-118.3089,2012-03-23 15:53:00,,CLR,10.0,,65,,,,45.0,,48,7.0,170.0,,29.12,,,,,,,,,,,,,,,,,,,,,,,,,,,,,,,,,,,,,,,,,,,,,,,,,,,,,,,,,,,,,,,,,,,,,
KBUR,Burbank,,34.1808,-118.3089,2012-03-23 16:53:00,,CLR,10.0,,64,,,,47.0,,54,7.0,190.0,,29.11,2.0,Falling,,,,66.0,55.0,,,,,,,,,,,,,,,,,,,,,,,,,,,,,,,,,,,,,,,,,,,,,,,,,,,,,,,,,,,,,,
KBUR,Burbank,,34.1808,-118.3089,2012-03-23 17:53:00,,CLR,10.0,,61,,,,48.0,,62,8.0,170.0,,29.12,,,,,,,,,,,,,,,,,,,,,,,,,,,,,,,,,,,,,,,,,,,,,,,,,,,,,,,,,,,,,,,,,,,,,
KBUR,Burbank,,34.1808,-118.3089,2012-03-23 18:53:00,,CLR,10.0,,59,,,,48.0,,67,7.0,180.0,,29.11,,,,,,,,,,,,,,,,,,,,,,,,,,,,,,,,,,,,,,,,,,,,,,,,,,,,,,,,,,,,,,,,,,,,,
KBUR,Burbank,,34.1808,-118.3089,2012-03-23 19:53:00,,CLR,10.0,,56,,,,48.0,,75,6.0,180.0,,29.13,1.0,Rising Rapidly,,,,,,,,,,,,,,,,,,,,,,,,,,,,,,,,,,,,,,,,,,,,,,,,,,,,,,,,,,,,,,,,,,,
KBUR,Burbank,,34.1808,-118.3089,2012-03-23 20:53:00,,CLR,10.0,,55,,,,48.0,,77,3.0,180.0,,29.14,,,,,,,,,,,,,,,,,,,,,,,,,,,,,,,,,,,,,,,,,,,,,,,,,,,,,,,,,,,,,,,,,,,,,
KBUR,Burbank,,34.1808,-118.3089,2012-03-23 21:53:00,,CLR,10.0,,54,,,,48.0,,80,,,,29.15,,,,,,,,,,,,,,,,,,,,,,,,,,,,,,,,,,,,,,,,,,,,,,,,,,,,,,,,,,,,,,,,,,,,,
KBUR,Burbank,,34.1808,-118.3089,2012-03-23 22:53:00,,CLR,10.0,,53,,,,47.0,,80,,,,29.15,1.0,Rising,,,,64.0,53.0,,,,,,,,,,,,,,,,,,,,,,,,,,,,,,,,,,,,,,,,,,,,,,,,,,,,,,,,,,,,,,
KBUR,Burbank,,34.1808,-118.3089,2012-03-23 23:53:00,,CLR,10.0,,52,,,,48.0,,86,,,,29.14,,,,,,,,,,,,,,,,,,,,,,,,,,,,,,,,,,,,,,,,,,,,,,,,,,,,,,,,,,,,,,,,,,,,,
KBUR,Burbank,,34.1808,-118.3089,2012-03-24 00:53:00,,CLR,9.0,,51,,,,47.0,,86,,,,29.14,,,,,,66.0,51.0,,,,,,,,,,,,,,,,,,,,,,,,,,,,,,,,,,,,,,,,,,,,,,,,,,,,,,,,,,,,,,
KBUR,Burbank,,34.1808,-118.3089,2012-03-24 01:53:00,,CLR,10.0,,50,,,,46.0,,86,,,,29.13,2.0,Falling,,,,,,,,,,,,,,,,,,,,,,,,,,,,,,,,,,,,,,,,,,,,,,,,,,,,,,,,,,,,,,,,,,,
KBUR,Burbank,,34.1808,-118.3089,2012-03-24 02:53:00,,OVC,10.0,,52,,,,47.0,,83,,,,29.12,,,,,,,,,,,,,,,,,,,,,,,,,,,,,,,,,,,,,,,,,,,,,,,,,,,,,,,,,,,,,,,,,,,,,
KBUR,Burbank,,34.1808,-118.3089,2012-03-24 03:53:00,,OVC,8.0,,50,,,,48.0,,93,3.0,200.0,,29.11,,,,,,,,,,,,,,,,,,,,,,,,,,,,,,,,,,,,,,,,,,,,,,,,,,,,,,,,,,,,,,,,,,,,,
KBUR,Burbank,,34.1808,-118.3089,2012-03-24 04:31:00,,OVC,7.0,,50,,,,46.0,,87,5.0,220.0,,29.13,,,,,,,,,,,,,,,,,,,,,,,,,,,,,,,,,,,,,,,,,,,,,,,,,,,,,,,,,,,,,,,,,,,,,
KBUR,Burbank,,34.1808,-118.3089,2012-03-24 04:53:00,,OVC,7.0,,51,,,,47.0,,86,3.0,200.0,,29.11,0.0,Steady,,,,53.0,50.0,,,,,,,,,,,,,,,,,,,,,,,,,,,,,,,,,,,,,,,,,,,,,,,,,,,,,,,,,,,,,,
KBUR,Burbank,,34.1808,-118.3089,2012-03-24 05:53:00,,OVC,9.0,,51,,,,47.0,,86,,,,29.11,,,,,,,,,,,,,,,,,,,,,,,,,,,,,,,,,,,,,,,,,,,,,,,,,,,,,,,,,,,,,,,,,,,,,
KBUR,Burbank,,34.1808,-118.3089,2012-03-24 06:53:00,,OVC,8.0,,51,,,,47.0,,86,,,,29.11,,,,,,,,,,,,,,,,,,,,,,,,,,,,,,,,,,,,,,,,,,,,,,,,,,,,,,,,,,,,,,,,,,,,,
KBUR,Burbank,,34.1808,-118.3089,2012-03-24 07:53:00,,OVC,6.0,,52,,,,47.0,,83,3.0,240.0,,29.13,1.0,Rising Rapidly,,,,,,,,,,,,,,,,,,,,,,,,,,,,,,,,,,,,,,,,,,,,,,,,,,,,,,,,,,,,,,,,,,,
KBUR,Burbank,,34.1808,-118.3089,2012-03-24 08:53:00,,OVC,7.0,,52,,,,47.0,,83,,,,29.13,,,,,,,,,,,,,,,,,,,,,,,,,,,,,,,,,,,,,,,,,,,,,,,,,,,,,,,,,,,,,,,,,,,,,
KBUR,Burbank,,34.1808,-118.3089,2012-03-24 09:09:00,,OVC,8.0,,52,,,,46.0,,82,3.0,220.0,,29.16,,,,,,,,,,,,,,,,,,,,,,,,,,,,,,,,,,,,,,,,,,,,,,,,,,,,,,,,,,,,,,,,,,,,,
KBUR,Burbank,,34.1808,-118.3089,2012-03-24 09:45:00,,OVC,7.0,,54,,,,46.0,,77,3.0,190.0,,29.16,,,,,,,,,,,,,,,,,,,,,,,,,,,,,,,,,,,,,,,,,,,,,,,,,,,,,,,,,,,,,,,,,,,,,
KBUR,Burbank,,34.1808,-118.3089,2012-03-24 09:53:00,,OVC,7.0,,53,,,,47.0,,80,3.0,190.0,,29.13,,,,,,,,,,,,,,,,,,,,,,,,,,,,,,,,,,,,,,,,,,,,,,,,,,,,,,,,,,,,,,,,,,,,,
KBUR,Burbank,,34.1808,-118.3089,2012-03-24 10:53:00,,OVC,6.0,,54,,,,47.0,,77,6.0,180.0,,29.14,1.0,Rising,,,,54.0,51.0,,,,,,,,,,,,,,,,,,,,,,,,,,,,,,,,,,,,,,,,,,,,,,,,,,,,,,,,,,,,,,
KBUR,Burbank,,34.1808,-118.3089,2012-03-24 11:53:00,,OVC,6.0,,57,,,,47.0,,69,7.0,140.0,,29.13,,,,,,,,,,,,,,,,,,,,,,,,,,,,,,,,,,,,,,,,,,,,,,,,,,,,,,,,,,,,,,,,,,,,,
KBUR,Burbank,,34.1808,-118.3089,2012-03-24 12:53:00,,SCT,10.0,,60,,,,47.0,,62,8.0,130.0,,29.11,,,,,,,,,,,,,,,,,,,,,,,,,,,,,,,,,,,,,,,,,,,,,,,,,,,,,,,,,,,,,,,,,,,,,
KBUR,Burbank,,34.1808,-118.3089,2012-03-24 13:53:00,,CLR,10.0,,64,,,,43.0,,46,12.0,160.0,,29.08,2.0,Falling Rapidly,,,,,,,,,,,,,,,,,,,,,,,,,,,,,,,,,,,,,,,,,,,,,,,,,,,,,,,,,,,,,,,,,,,
KBUR,Burbank,,34.1808,-118.3089,2012-03-24 14:53:00,,CLR,10.0,,66,,,,40.0,,38,13.0,140.0,,29.06,,,,,,,,,,,,,,,,,,,,,,,,,,,,,,,,,,,,,,,,,,,,,,,,,,,,,,,,,,,,,,,,,,,,,
KBUR,Burbank,,34.1808,-118.3089,2012-03-24 15:53:00,,CLR,10.0,,64,,,,46.0,,52,12.0,180.0,,29.04,,,,,,,,,,,,,,,,,,,,,,,,,,,,,,,,,,,,,,,,,,,,,,,,,,,,,,,,,,,,,,,,,,,,,
KBUR,Burbank,,34.1808,-118.3089,2012-03-24 16:53:00,,CLR,10.0,,62,,,,46.0,,56,14.0,170.0,,29.04,2.0,Falling,,,,67.0,54.0,,,,,,,,,,,,,,,,,,,,,,,,,,,,,,,,,,,,,,,,,,,,,,,,,,,,,,,,,,,,,,
KBUR,Burbank,,34.1808,-118.3089,2012-03-24 17:53:00,,CLR,10.0,,58,,,,47.0,,67,9.0,170.0,,29.05,,,,,,,,,,,,,,,,,,,,,,,,,,,,,,,,,,,,,,,,,,,,,,,,,,,,,,,,,,,,,,,,,,,,,
KBUR,Burbank,,34.1808,-118.3089,2012-03-24 18:53:00,,FEW,10.0,,56,,,,46.0,,69,6.0,170.0,,29.06,,,,,,,,,,,,,,,,,,,,,,,,,,,,,,,,,,,,,,,,,,,,,,,,,,,,,,,,,,,,,,,,,,,,,
KBUR,Burbank,,34.1808,-118.3089,2012-03-24 19:53:00,,SCT,10.0,,53,,,,47.0,,80,7.0,200.0,,29.07,1.0,Rising Rapidly,,,,,,,,,,,,,,,,,,,,,,,,,,,,,,,,,,,,,,,,,,,,,,,,,,,,,,,,,,,,,,,,,,,
KBUR,Burbank,,34.1808,-118.3089,2012-03-24 20:27:00,,BKN,10.0,,52,,,,46.0,,82,6.0,210.0,,29.09,,,,,,,,,,,,,,,,,,,,,,,,,,,,,,,,,,,,,,,,,,,,,,,,,,,,,,,,,,,,,,,,,,,,,
KBUR,Burbank,,34.1808,-118.3089,2012-03-24 20:49:00,,SCT,10.0,,52,,,,46.0,,82,6.0,210.0,,29.1,,,,,,,,,,,,,,,,,,,,,,,,,,,,,,,,,,,,,,,,,,,,,,,,,,,,,,,,,,,,,,,,,,,,,
KBUR,Burbank,,34.1808,-118.3089,2012-03-24 20:53:00,,SCT,10.0,,52,,,,47.0,,83,5.0,200.0,,29.08,,,,,,,,,,,,,,,,,,,,,,,,,,,,,,,,,,,,,,,,,,,,,,,,,,,,,,,,,,,,,,,,,,,,,
KBUR,Burbank,,34.1808,-118.3089,2012-03-24 21:53:00,,SCT,10.0,,52,,,,46.0,,80,5.0,190.0,,29.09,,,,,,,,,,,,,,,,,,,,,,,,,,,,,,,,,,,,,,,,,,,,,,,,,,,,,,,,,,,,,,,,,,,,,
KBUR,Burbank,,34.1808,-118.3089,2012-03-24 22:53:00,,SCT,10.0,,51,,,,45.0,,80,,,,29.1,1.0,Rising Rapidly,,,,63.0,51.0,,,,,,,,,,,,,,,,,,,,,,,,,,,,,,,,,,,,,,,,,,,,,,,,,,,,,,,,,,,,,,
KBUR,Burbank,,34.1808,-118.3089,2012-03-24 23:53:00,,CLR,10.0,,51,,,,45.0,,80,,,,29.09,,,,,,,,,,,,,,,,,,,,,,,,,,,,,,,,,,,,,,,,,,,,,,,,,,,,,,,,,,,,,,,,,,,,,
KBUR,Burbank,,34.1808,-118.3089,2012-03-25 00:53:00,,CLR,10.0,,49,,,,44.0,,83,,,,29.08,,,,,,67.0,49.0,,,,,,,,,,,,,,,,,,,,,,,,,,,,,,,,,,,,,,,,,,,,,,,,,,,,,,,,,,,,,,
KBUR,Burbank,,34.1808,-118.3089,2012-03-25 01:53:00,,CLR,10.0,,50,,,,46.0,,86,7.0,100.0,,29.07,2.0,Falling,,,,,,,,,,,,,,,,,,,,,,,,,,,,,,,,,,,,,,,,,,,,,,,,,,,,,,,,,,,,,,,,,,,
KBUR,Burbank,,34.1808,-118.3089,2012-03-25 02:53:00,,OVC,10.0,,51,,,,45.0,,80,7.0,130.0,,29.05,,,,,,,,,,,,,,,,,,,,,,,,,,,,,,,,,,,,,,,,,,,,,,,,,,,,,,,,,,,,,,,,,,,,,
KBUR,Burbank,,34.1808,-118.3089,2012-03-25 03:53:00,,OVC,10.0,,51,,,,44.0,,77,9.0,130.0,,29.04,,,,,,,,,,,,,,,,,,,,,,,,,,,,,,,,,,,,,,,,,,,,,,,,,,,,,,,,,,,,,,,,,,,,,
KBUR,Burbank,,34.1808,-118.3089,2012-03-25 04:53:00,,OVC,10.0,,50,,,,45.0,,83,10.0,150.0,,29.04,2.0,Falling,,,,52.0,49.0,,,,,,,,,,,,,,,,,,,,,,,,,,,,,,,,,,,,,,,,,,,,,,,,,,,,,,,,,,,,,,
KBUR,Burbank,,34.1808,-118.3089,2012-03-25 05:09:00,,OVC,10.0,,50,,,,45.0,,82,9.0,140.0,,29.05,,,,,,,,,,,,,,,,,,,,,,,,,,,,,,,,,,,,,,,,,,,,,,,,,,,,,,,,,,,,,,,,,,,,,
KBUR,Burbank,,34.1808,-118.3089,2012-03-25 05:53:00,,OVC,10.0,,50,,,,45.0,,83,10.0,120.0,,29.03,,,,,,,,,,,,,,,,,,,,,,,,,,,,,,,,,,,,,,,,,,,,,,,,,,,,,,,,,,,,,,,,,,,,,
KBUR,Burbank,,34.1808,-118.3089,2012-03-25 06:23:00,,OVC,9.0,,50,,,,46.0,,87,8.0,130.0,,29.04,,,,0.0,,,,,,,,,,,,,,,,,,,,,,,,,,,,,,,,,,,,,,,,,,,,,,,,,,,,,,,,,,,,,,,,,
KBUR,Burbank,,34.1808,-118.3089,2012-03-25 06:53:00,,OVC,10.0,,50,,,,45.0,,83,15.0,150.0,,29.01,,,,0.0,,,,,,,,,,,,,,,,,,,,,,,,,,,,,,,,,,,,,,,,,,,,,,,,,,,,,,,,,,,,,,,,,
KBUR,Burbank,,34.1808,-118.3089,2012-03-25 07:53:00,,OVC,10.0,,50,,,,45.0,,83,15.0,150.0,,29.02,0.0,Steady,,,,,,,,,,,,,,,,,,,,,,,,,,,,,,,,,,,,,,,,,,,,,,,,,,,,,,,,,,,,,,,,,,,
KBUR,Burbank,,34.1808,-118.3089,2012-03-25 08:53:00,,OVC,10.0,,51,,,,44.0,,77,14.0,140.0,23.0,29.02,,,,,,,,,,,,,,,,,,,,,,,,,,,,,,,,,,,,,,,,,,,,,,,,,,,,,,,,,,,,,,,,,,,,,
KBUR,Burbank,,34.1808,-118.3089,2012-03-25 09:53:00,,OVC,10.0,,53,,,,42.0,,66,15.0,130.0,23.0,29.02,,,,,,,,,,,,,,,,,,,,,,,,,,,,,,,,,,,,,,,,,,,,,,,,,,,,,,,,,,,,,,,,,,,,,
KBUR,Burbank,,34.1808,-118.3089,2012-03-25 10:34:00,,OVC,4.0,,52,,,,46.0,,82,13.0,140.0,21.0,29.03,,,,0.0,,,,,,,,,,,,,,,,,,,,,,,,,,,,,,,,,,,,,,,,,,,,,,,,,,,,,,,,,,,,,,,,,
KBUR,Burbank,,34.1808,-118.3089,2012-03-25 10:36:00,,OVC,4.0,,52,,,,46.0,,82,14.0,140.0,21.0,29.03,,,,0.0,,,,,,,,,,,,,,,,,,,,,,,,,,,,,,,,,,,,,,,,,,,,,,,,,,,,,,,,,,,,,,,,,
KBUR,Burbank,,34.1808,-118.3089,2012-03-25 10:53:00,,OVC,4.0,,53,,,,45.0,,74,12.0,140.0,,29.01,2.0,Falling Rapidly,,0.0,,54.0,50.0,,,,,,,,,,,,,,,,,,,,,,,,,,,,,,,,,,,,,,,,,,,,,,,,,,,,,,,,,,,,,,
KBUR,Burbank,,34.1808,-118.3089,2012-03-25 11:05:00,,OVC,2.0,,52,,,,46.0,,82,16.0,150.0,22.0,29.03,,,,0.01,,,,,,,,,,,,,,,,,,,,,,,,,,,,,,,,,,,,,,,,,,,,,,,,,,,,,,,,,,,,,,,,,
KBUR,Burbank,,34.1808,-118.3089,2012-03-25 11:53:00,,OVC,2.0,,51,,,,48.0,,89,13.0,140.0,,29.01,,,,0.1,,,,,,,,,,,,,,,,,,,,,,,,,,,,,,,,,,,,,,,,,,,,,,,,,,,,,,,,,,,,,,,,,
KBUR,Burbank,,34.1808,-118.3089,2012-03-25 12:53:00,,OVC,2.0,,52,,,,50.0,,93,15.0,130.0,25.0,28.99,,,,0.13,,,,,,,,,,,,,,,,,,,,,,,,,,,,,,,,,,,,,,,,,,,,,,,,,,,,,,,,,,,,,,,,,
KBUR,Burbank,,34.1808,-118.3089,2012-03-25 13:06:00,,OVC,2.0,,52,,,,50.0,,94,14.0,130.0,23.0,29.0,,,,0.06,,,,,,,,,,,,,,,,,,,,,,,,,,,,,,,,,,,,,,,,,,,,,,,,,,,,,,,,,,,,,,,,,
KBUR,Burbank,,34.1808,-118.3089,2012-03-25 13:53:00,,OVC,2.0,,52,,,,50.0,,93,22.0,130.0,33.0,28.97,2.0,Falling Rapidly,,0.24,,,,,,,,,,,,,,,,,,,,,,,,,,,,,,,,,,,,,,,,,,,,,,,,,,,,,,,,,,,,,,,,,
KBUR,Burbank,,34.1808,-118.3089,2012-03-25 14:53:00,,OVC,2.0,,52,,,,50.0,,93,16.0,170.0,25.0,28.95,,,,0.23,,,,,,,,,,,,,,,,,,,,,,,,,,,,,,,,,,,,,,,,,,,,,,,,,,,,,,,,,,,,,,,,,
KBUR,Burbank,,34.1808,-118.3089,2012-03-25 15:28:00,,OVC,2.0,,50,,,,46.0,,87,12.0,200.0,22.0,28.99,,,,0.2,,,,,,,,,,,,,,,,,,,,,,,,,,,,,,,,,,,,,,,,,,,,,,,,,,,,,,,,,,,,,,,,,
KBUR,Burbank,,34.1808,-118.3089,2012-03-25 15:53:00,,OVC,6.0,,50,,,,47.0,,89,7.0,130.0,,28.97,,,,0.23,,,,,,,,,,,,,,,,,,,,,,,,,,,,,,,,,,,,,,,,,,,,,,,,,,,,,,,,,,,,,,,,,
KBUR,Burbank,,34.1808,-118.3089,2012-03-25 16:18:00,,OVC,10.0,,48,,,,45.0,,87,7.0,130.0,,29.0,,,,0.01,,,,,,,,,,,,,,,,,,,,,,,,,,,,,,,,,,,,,,,,,,,,,,,,,,,,,,,,,,,,,,,,,
KBUR,Burbank,,34.1808,-118.3089,2012-03-25 16:53:00,,OVC,7.0,,47,,,,43.0,,86,,,,28.99,0.0,Steady,,0.06,,53.0,47.0,,,,,,,,,,,,,,,,,,,,,,,,,,,,,,,,,,,,,,,,,,,,,,,,,,,,,,,,,,,,,,
KBUR,Burbank,,34.1808,-118.3089,2012-03-25 17:53:00,,BKN,10.0,,47,,,,41.0,,80,5.0,120.0,,29.0,,,,0.03,,,,,,,,,,,,,,,,,,,,,,,,,,,,,,,,,,,,,,,,,,,,,,,,,,,,,,,,,,,,,,,,,
KBUR,Burbank,,34.1808,-118.3089,2012-03-25 18:53:00,,OVC,10.0,,48,,,,42.0,,80,3.0,,,29.04,,,,,,,,,,,,,,,,,,,,,,,,,,,,,,,,,,,,,,,,,,,,,,,,,,,,,,,,,,,,,,,,,,,,,
KBUR,Burbank,,34.1808,-118.3089,2012-03-25 19:53:00,,OVC,10.0,,48,,,,42.0,,80,8.0,110.0,,29.05,1.0,Rising,,,,,,,,,,,,,,,,,,,,,,,,,,,,,,,,,,,,,,,,,,,,,,,,,,,,,,,,,,,,,,,,,,,
KBUR,Burbank,,34.1808,-118.3089,2012-03-25 20:53:00,,OVC,9.0,,48,,,,42.0,,80,8.0,140.0,,29.05,,,,0.01,,,,,,,,,,,,,,,,,,,,,,,,,,,,,,,,,,,,,,,,,,,,,,,,,,,,,,,,,,,,,,,,,
KBUR,Burbank,,34.1808,-118.3089,2012-03-25 21:02:00,,OVC,6.0,,46,,,,43.0,,87,9.0,160.0,,29.07,,,,0.02,,,,,,,,,,,,,,,,,,,,,,,,,,,,,,,,,,,,,,,,,,,,,,,,,,,,,,,,,,,,,,,,,
KBUR,Burbank,,34.1808,-118.3089,2012-03-25 21:17:00,,OVC,6.0,,46,,,,43.0,,87,12.0,120.0,,29.08,,,,0.07,,,,,,,,,,,,,,,,,,,,,,,,,,,,,,,,,,,,,,,,,,,,,,,,,,,,,,,,,,,,,,,,,
KBUR,Burbank,,34.1808,-118.3089,2012-03-25 21:24:00,,OVC,6.0,,46,,,,43.0,,87,10.0,110.0,,29.08,,,,0.09,,,,,,,,,,,,,,,,,,,,,,,,,,,,,,,,,,,,,,,,,,,,,,,,,,,,,,,,,,,,,,,,,
KBUR,Burbank,,34.1808,-118.3089,2012-03-25 21:34:00,,OVC,3.0,,46,,,,45.0,,93,14.0,130.0,,29.09,,,,0.14,,,,,,,,,,,,,,,,,,,,,,,,,,,,,,,,,,,,,,,,,,,,,,,,,,,,,,,,,,,,,,,,,
KBUR,Burbank,,34.1808,-118.3089,2012-03-25 21:43:00,,OVC,4.0,,46,,,,45.0,,93,7.0,120.0,,29.09,,,,0.17,,,,,,,,,,,,,,,,,,,,,,,,,,,,,,,,,,,,,,,,,,,,,,,,,,,,,,,,,,,,,,,,,
KBUR,Burbank,,34.1808,-118.3089,2012-03-25 21:53:00,,OVC,7.0,,46,,,,43.0,,89,7.0,120.0,,29.07,,,,0.18,,,,,,,,,,,,,,,,,,,,,,,,,,,,,,,,,,,,,,,,,,,,,,,,,,,,,,,,,,,,,,,,,
KBUR,Burbank,,34.1808,-118.3089,2012-03-25 22:01:00,,OVC,7.0,,46,,,,43.0,,87,6.0,110.0,,29.09,,,,0.01,,,,,,,,,,,,,,,,,,,,,,,,,,,,,,,,,,,,,,,,,,,,,,,,,,,,,,,,,,,,,,,,,
KBUR,Burbank,,34.1808,-118.3089,2012-03-25 22:53:00,,OVC,9.0,,46,,,,44.0,,93,8.0,120.0,,29.09,1.0,Rising Rapidly,,0.08,,48.0,45.0,,,,,,,,,,,,,,,,,,,,,,,,,,,,,,,,,,,,,,,,,,,,,,,,,,,,,,,,,,,,,,
KBUR,Burbank,,34.1808,-118.3089,2012-03-25 23:15:00,,OVC,7.0,,46,,,,43.0,,87,7.0,100.0,,29.11,,,,0.06,,,,,,,,,,,,,,,,,,,,,,,,,,,,,,,,,,,,,,,,,,,,,,,,,,,,,,,,,,,,,,,,,
KBUR,Burbank,,34.1808,-118.3089,2012-03-25 23:27:00,,OVC,8.0,,46,,,,45.0,,93,6.0,80.0,,29.1,,,,0.08,,,,,,,,,,,,,,,,,,,,,,,,,,,,,,,,,,,,,,,,,,,,,,,,,,,,,,,,,,,,,,,,,
KBUR,Burbank,,34.1808,-118.3089,2012-03-25 23:44:00,,OVC,10.0,,46,,,,43.0,,87,8.0,130.0,,29.11,,,,0.08,,,,,,,,,,,,,,,,,,,,,,,,,,,,,,,,,,,,,,,,,,,,,,,,,,,,,,,,,,,,,,,,,
KBUR,Burbank,,34.1808,-118.3089,2012-03-25 23:53:00,,OVC,9.0,,46,,,,43.0,,89,8.0,120.0,,29.1,,,,0.08,,,,,,,,,,,,,,,,,,,,,,,,,,,,,,,,,,,,,,,,,,,,,,,,,,,,,,,,,,,,,,,,,
KBUR,Burbank,,34.1808,-118.3089,2012-03-26 00:53:00,,OVC,7.0,,46,,,,44.0,,93,3.0,130.0,,29.11,,,,0.01,,54.0,45.0,,,,,,,,,,,,,,,,,,,,,,,,,,,,,,,,,,,,,,,,,,,,,,,,,,,,,,,,,,,,,,
KBUR,Burbank,,34.1808,-118.3089,2012-03-26 01:53:00,,OVC,10.0,,47,,,,45.0,,93,3.0,210.0,,29.13,1.0,Rising Rapidly,,0.0,,,,,,,,,,,,,,,,,,,,,,,,,,,,,,,,,,,,,,,,,,,,,,,,,,,,,,,,,,,,,,,,,
KBUR,Burbank,,34.1808,-118.3089,2012-03-26 02:20:00,,OVC,10.0,,46,,,,45.0,,93,3.0,110.0,,29.16,,,,,,,,,,,,,,,,,,,,,,,,,,,,,,,,,,,,,,,,,,,,,,,,,,,,,,,,,,,,,,,,,,,,,
KBUR,Burbank,,34.1808,-118.3089,2012-03-26 02:53:00,,OVC,6.0,,47,,,,45.0,,93,3.0,140.0,,29.15,,,,0.0,,,,,,,,,,,,,,,,,,,,,,,,,,,,,,,,,,,,,,,,,,,,,,,,,,,,,,,,,,,,,,,,,
KBUR,Burbank,,34.1808,-118.3089,2012-03-26 03:15:00,,OVC,3.0,,46,,,,45.0,,93,,,,29.17,,,,0.01,,,,,,,,,,,,,,,,,,,,,,,,,,,,,,,,,,,,,,,,,,,,,,,,,,,,,,,,,,,,,,,,,
KBUR,Burbank,,34.1808,-118.3089,2012-03-26 03:45:00,,OVC,10.0,,46,,,,45.0,,93,,,,29.18,,,,0.01,,,,,,,,,,,,,,,,,,,,,,,,,,,,,,,,,,,,,,,,,,,,,,,,,,,,,,,,,,,,,,,,,
KBUR,Burbank,,34.1808,-118.3089,2012-03-26 03:53:00,,OVC,9.0,,46,,,,45.0,,96,,,,29.16,,,,0.01,,,,,,,,,,,,,,,,,,,,,,,,,,,,,,,,,,,,,,,,,,,,,,,,,,,,,,,,,,,,,,,,,
KBUR,Burbank,,34.1808,-118.3089,2012-03-26 04:12:00,,OVC,10.0,,46,,,,46.0,,100,,,,29.18,,,,,,,,,,,,,,,,,,,,,,,,,,,,,,,,,,,,,,,,,,,,,,,,,,,,,,,,,,,,,,,,,,,,,
KBUR,Burbank,,34.1808,-118.3089,2012-03-26 04:28:00,,OVC,7.0,,46,,,,46.0,,100,,,,29.18,,,,0.01,,,,,,,,,,,,,,,,,,,,,,,,,,,,,,,,,,,,,,,,,,,,,,,,,,,,,,,,,,,,,,,,,
KBUR,Burbank,,34.1808,-118.3089,2012-03-26 04:39:00,,OVC,6.0,,46,,,,46.0,,100,,,,29.18,,,,0.01,,,,,,,,,,,,,,,,,,,,,,,,,,,,,,,,,,,,,,,,,,,,,,,,,,,,,,,,,,,,,,,,,
KBUR,Burbank,,34.1808,-118.3089,2012-03-26 04:53:00,,OVC,6.0,,47,,,,46.0,,97,,,,29.16,1.0,Rising,,0.01,,47.0,45.0,,,,,,,,,,,,,,,,,,,,,,,,,,,,,,,,,,,,,,,,,,,,,,,,,,,,,,,,,,,,,,
KBUR,Burbank,,34.1808,-118.3089,2012-03-26 05:09:00,,OVC,5.0,,46,,,,46.0,,100,,,,29.18,,,,,,,,,,,,,,,,,,,,,,,,,,,,,,,,,,,,,,,,,,,,,,,,,,,,,,,,,,,,,,,,,,,,,
KBUR,Burbank,,34.1808,-118.3089,2012-03-26 05:53:00,,OVC,10.0,,47,,,,46.0,,97,,,,29.17,,,,,,,,,,,,,,,,,,,,,,,,,,,,,,,,,,,,,,,,,,,,,,,,,,,,,,,,,,,,,,,,,,,,,
KBUR,Burbank,,34.1808,-118.3089,2012-03-26 06:24:00,,OVC,7.0,,46,,,,46.0,,100,,,,29.2,,,,0.0,,,,,,,,,,,,,,,,,,,,,,,,,,,,,,,,,,,,,,,,,,,,,,,,,,,,,,,,,,,,,,,,,
KBUR,Burbank,,34.1808,-118.3089,2012-03-26 06:53:00,,BKN,10.0,,47,,,,46.0,,97,,,,29.2,,,,0.0,,,,,,,,,,,,,,,,,,,,,,,,,,,,,,,,,,,,,,,,,,,,,,,,,,,,,,,,,,,,,,,,,
KBUR,Burbank,,34.1808,-118.3089,2012-03-26 07:53:00,,OVC,10.0,,48,,,,45.0,,89,6.0,140.0,,29.23,1.0,Rising Rapidly,,,,,,,,,,,,,,,,,,,,,,,,,,,,,,,,,,,,,,,,,,,,,,,,,,,,,,,,,,,,,,,,,,,
KBUR,Burbank,,34.1808,-118.3089,2012-03-26 08:53:00,,BKN,10.0,,50,,,,46.0,,86,6.0,150.0,,29.24,,,,,,,,,,,,,,,,,,,,,,,,,,,,,,,,,,,,,,,,,,,,,,,,,,,,,,,,,,,,,,,,,,,,,
KBUR,Burbank,,34.1808,-118.3089,2012-03-26 09:53:00,,BKN,10.0,,52,,,,46.0,,80,8.0,140.0,,29.26,,,,,,,,,,,,,,,,,,,,,,,,,,,,,,,,,,,,,,,,,,,,,,,,,,,,,,,,,,,,,,,,,,,,,
KBUR,Burbank,,34.1808,-118.3089,2012-03-26 10:53:00,,BKN,10.0,,54,,,,45.0,,72,9.0,160.0,,29.27,1.0,Rising,,,,55.0,47.0,,,,,,,,,,,,,,,,,,,,,,,,,,,,,,,,,,,,,,,,,,,,,,,,,,,,,,,,,,,,,,
KBUR,Burbank,,34.1808,-118.3089,2012-03-26 11:53:00,,BKN,10.0,,56,,,,44.0,,64,6.0,180.0,,29.27,,,,,,,,,,,,,,,,,,,,,,,,,,,,,,,,,,,,,,,,,,,,,,,,,,,,,,,,,,,,,,,,,,,,,
KBUR,Burbank,,34.1808,-118.3089,2012-03-26 12:53:00,,OVC,10.0,,58,,,,43.0,,58,8.0,170.0,,29.26,,,,,,,,,,,,,,,,,,,,,,,,,,,,,,,,,,,,,,,,,,,,,,,,,,,,,,,,,,,,,,,,,,,,,
KBUR,Burbank,,34.1808,-118.3089,2012-03-26 13:53:00,,BKN,10.0,,59,,,,43.0,,55,9.0,140.0,,29.25,2.0,Falling Rapidly,,0.01,,,,,,,,,,,,,,,,,,,,,,,,,,,,,,,,,,,,,,,,,,,,,,,,,,,,,,,,,,,,,,,,,
KBUR,Burbank,,34.1808,-118.3089,2012-03-26 14:53:00,,SCT,10.0,,60,,,,44.0,,55,6.0,210.0,16.0,29.23,,,,,,,,,,,,,,,,,,,,,,,,,,,,,,,,,,,,,,,,,,,,,,,,,,,,,,,,,,,,,,,,,,,,,
KBUR,Burbank,,34.1808,-118.3089,2012-03-26 15:53:00,,BKN,10.0,,60,,,,45.0,,57,8.0,180.0,16.0,29.22,,,,,,,,,,,,,,,,,,,,,,,,,,,,,,,,,,,,,,,,,,,,,,,,,,,,,,,,,,,,,,,,,,,,,
KBUR,Burbank,,34.1808,-118.3089,2012-03-26 16:53:00,,CLR,10.0,,59,,,,45.0,,60,8.0,210.0,,29.21,2.0,Falling Rapidly,,,,61.0,54.0,,,,,,,,,,,,,,,,,,,,,,,,,,,,,,,,,,,,,,,,,,,,,,,,,,,,,,,,,,,,,,
KBUR,Burbank,,34.1808,-118.3089,2012-03-26 17:53:00,,CLR,10.0,,58,,,,44.0,,60,8.0,200.0,,29.22,,,,,,,,,,,,,,,,,,,,,,,,,,,,,,,,,,,,,,,,,,,,,,,,,,,,,,,,,,,,,,,,,,,,,
KBUR,Burbank,,34.1808,-118.3089,2012-03-26 18:53:00,,CLR,10.0,,57,,,,43.0,,59,3.0,190.0,,29.21,,,,,,,,,,,,,,,,,,,,,,,,,,,,,,,,,,,,,,,,,,,,,,,,,,,,,,,,,,,,,,,,,,,,,
KBUR,Burbank,,34.1808,-118.3089,2012-03-26 19:50:00,,BKN,10.0,,55,,,,45.0,,67,5.0,300.0,,29.24,,,,,,,,,,,,,,,,,,,,,,,,,,,,,,,,,,,,,,,,,,,,,,,,,,,,,,,,,,,,,,,,,,,,,
KBUR,Burbank,,34.1808,-118.3089,2012-03-26 19:53:00,,BKN,10.0,,55,,,,45.0,,69,6.0,290.0,,29.22,1.0,Rising Rapidly,,,,,,,,,,,,,,,,,,,,,,,,,,,,,,,,,,,,,,,,,,,,,,,,,,,,,,,,,,,,,,,,,,,
KBUR,Burbank,,34.1808,-118.3089,2012-03-26 20:31:00,,CLR,10.0,,54,,,,45.0,,72,5.0,300.0,,29.25,,,,,,,,,,,,,,,,,,,,,,,,,,,,,,,,,,,,,,,,,,,,,,,,,,,,,,,,,,,,,,,,,,,,,
KBUR,Burbank,,34.1808,-118.3089,2012-03-26 20:53:00,,CLR,10.0,,54,,,,44.0,,69,,,,29.23,,,,,,,,,,,,,,,,,,,,,,,,,,,,,,,,,,,,,,,,,,,,,,,,,,,,,,,,,,,,,,,,,,,,,
KBUR,Burbank,,34.1808,-118.3089,2012-03-26 21:53:00,,CLR,10.0,,52,,,,44.0,,74,,,,29.24,,,,,,,,,,,,,,,,,,,,,,,,,,,,,,,,,,,,,,,,,,,,,,,,,,,,,,,,,,,,,,,,,,,,,
KBUR,Burbank,,34.1808,-118.3089,2012-03-26 22:53:00,,CLR,10.0,,51,,,,43.0,,74,,,,29.23,0.0,Steady,,,,60.0,51.0,,,,,,,,,,,,,,,,,,,,,,,,,,,,,,,,,,,,,,,,,,,,,,,,,,,,,,,,,,,,,,
KBUR,Burbank,,34.1808,-118.3089,2012-03-26 23:53:00,,CLR,10.0,,49,,,,43.0,,80,,,,29.23,,,,,,,,,,,,,,,,,,,,,,,,,,,,,,,,,,,,,,,,,,,,,,,,,,,,,,,,,,,,,,,,,,,,,
KBUR,Burbank,,34.1808,-118.3089,2012-03-27 00:53:00,,CLR,10.0,,48,,,,43.0,,83,,,,29.22,,,,,,61.0,46.0,,,,,,,,,,,,,,,,,,,,,,,,,,,,,,,,,,,,,,,,,,,,,,,,,,,,,,,,,,,,,,
KBUR,Burbank,,34.1808,-118.3089,2012-03-27 01:53:00,,CLR,10.0,,47,,,,43.0,,86,5.0,310.0,,29.23,0.0,Steady,,,,,,,,,,,,,,,,,,,,,,,,,,,,,,,,,,,,,,,,,,,,,,,,,,,,,,,,,,,,,,,,,,,
KBUR,Burbank,,34.1808,-118.3089,2012-03-27 02:53:00,,CLR,10.0,,47,,,,42.0,,83,7.0,300.0,,29.22,,,,,,,,,,,,,,,,,,,,,,,,,,,,,,,,,,,,,,,,,,,,,,,,,,,,,,,,,,,,,,,,,,,,,
KBUR,Burbank,,34.1808,-118.3089,2012-03-27 03:53:00,,CLR,10.0,,45,,,,41.0,,86,,,,29.2,,,,,,,,,,,,,,,,,,,,,,,,,,,,,,,,,,,,,,,,,,,,,,,,,,,,,,,,,,,,,,,,,,,,,
KBUR,Burbank,,34.1808,-118.3089,2012-03-27 04:53:00,,CLR,10.0,,44,,,,40.0,,85,3.0,290.0,,29.2,2.0,Falling,,,,51.0,44.0,,,,,,,,,,,,,,,,,,,,,,,,,,,,,,,,,,,,,,,,,,,,,,,,,,,,,,,,,,,,,,
KBUR,Burbank,,34.1808,-118.3089,2012-03-27 05:53:00,,CLR,10.0,,44,,,,40.0,,85,,,,29.21,,,,,,,,,,,,,,,,,,,,,,,,,,,,,,,,,,,,,,,,,,,,,,,,,,,,,,,,,,,,,,,,,,,,,
KBUR,Burbank,,34.1808,-118.3089,2012-03-27 06:53:00,,CLR,10.0,,44,,,,39.0,,82,,,,29.23,,,,,,,,,,,,,,,,,,,,,,,,,,,,,,,,,,,,,,,,,,,,,,,,,,,,,,,,,,,,,,,,,,,,,
KBUR,Burbank,,34.1808,-118.3089,2012-03-27 07:53:00,,CLR,10.0,,47,,,,42.0,,83,,,,29.24,1.0,Rising,,,,,,,,,,,,,,,,,,,,,,,,,,,,,,,,,,,,,,,,,,,,,,,,,,,,,,,,,,,,,,,,,,,
KBUR,Burbank,,34.1808,-118.3089,2012-03-27 08:53:00,,CLR,10.0,,51,,,,41.0,,68,,,,29.24,,,,,,,,,,,,,,,,,,,,,,,,,,,,,,,,,,,,,,,,,,,,,,,,,,,,,,,,,,,,,,,,,,,,,
KBUR,Burbank,,34.1808,-118.3089,2012-03-27 09:53:00,,CLR,10.0,,54,,,,42.0,,64,5.0,140.0,,29.24,,,,,,,,,,,,,,,,,,,,,,,,,,,,,,,,,,,,,,,,,,,,,,,,,,,,,,,,,,,,,,,,,,,,,
KBUR,Burbank,,34.1808,-118.3089,2012-03-27 10:53:00,,CLR,10.0,,56,,,,43.0,,62,5.0,,,29.24,1.0,Rising,,,,56.0,43.0,,,,,,,,,,,,,,,,,,,,,,,,,,,,,,,,,,,,,,,,,,,,,,,,,,,,,,,,,,,,,,
KBUR,Burbank,,34.1808,-118.3089,2012-03-27 11:53:00,,CLR,10.0,,59,,,,41.0,,51,3.0,160.0,,29.23,,,,,,,,,,,,,,,,,,,,,,,,,,,,,,,,,,,,,,,,,,,,,,,,,,,,,,,,,,,,,,,,,,,,,
KBUR,Burbank,,34.1808,-118.3089,2012-03-27 12:53:00,,CLR,10.0,,61,,,,39.0,,44,5.0,270.0,,29.22,,,,,,,,,,,,,,,,,,,,,,,,,,,,,,,,,,,,,,,,,,,,,,,,,,,,,,,,,,,,,,,,,,,,,
KBUR,Burbank,,34.1808,-118.3089,2012-03-27 13:53:00,,CLR,10.0,,63,,,,40.0,,43,,,,29.21,2.0,Falling Rapidly,,,,,,,,,,,,,,,,,,,,,,,,,,,,,,,,,,,,,,,,,,,,,,,,,,,,,,,,,,,,,,,,,,,
KBUR,Burbank,,34.1808,-118.3089,2012-03-27 14:53:00,,CLR,10.0,,64,,,,40.0,,41,8.0,200.0,,29.19,,,,,,,,,,,,,,,,,,,,,,,,,,,,,,,,,,,,,,,,,,,,,,,,,,,,,,,,,,,,,,,,,,,,,
KBUR,Burbank,,34.1808,-118.3089,2012-03-27 15:53:00,,CLR,10.0,,63,,,,36.0,,37,10.0,210.0,,29.18,,,,,,,,,,,,,,,,,,,,,,,,,,,,,,,,,,,,,,,,,,,,,,,,,,,,,,,,,,,,,,,,,,,,,
KBUR,Burbank,,34.1808,-118.3089,2012-03-27 16:53:00,,CLR,10.0,,62,,,,38.0,,41,10.0,160.0,,29.17,2.0,Falling,,,,65.0,56.0,,,,,,,,,,,,,,,,,,,,,,,,,,,,,,,,,,,,,,,,,,,,,,,,,,,,,,,,,,,,,,
KBUR,Burbank,,34.1808,-118.3089,2012-03-27 17:53:00,,CLR,10.0,,61,,,,34.0,,36,8.0,170.0,,29.17,,,,,,,,,,,,,,,,,,,,,,,,,,,,,,,,,,,,,,,,,,,,,,,,,,,,,,,,,,,,,,,,,,,,,
KBUR,Burbank,,34.1808,-118.3089,2012-03-27 18:53:00,,CLR,10.0,,58,,,,39.0,,49,6.0,170.0,,29.18,,,,,,,,,,,,,,,,,,,,,,,,,,,,,,,,,,,,,,,,,,,,,,,,,,,,,,,,,,,,,,,,,,,,,
KBUR,Burbank,,34.1808,-118.3089,2012-03-27 19:53:00,,CLR,10.0,,55,,,,41.0,,59,5.0,150.0,,29.19,1.0,Rising Rapidly,,,,,,,,,,,,,,,,,,,,,,,,,,,,,,,,,,,,,,,,,,,,,,,,,,,,,,,,,,,,,,,,,,,
KBUR,Burbank,,34.1808,-118.3089,2012-03-27 20:53:00,,CLR,10.0,,55,,,,43.0,,64,,,,29.2,,,,,,,,,,,,,,,,,,,,,,,,,,,,,,,,,,,,,,,,,,,,,,,,,,,,,,,,,,,,,,,,,,,,,
KBUR,Burbank,,34.1808,-118.3089,2012-03-27 21:53:00,,CLR,10.0,,53,,,,41.0,,64,3.0,330.0,,29.21,,,,,,,,,,,,,,,,,,,,,,,,,,,,,,,,,,,,,,,,,,,,,,,,,,,,,,,,,,,,,,,,,,,,,
KBUR,Burbank,,34.1808,-118.3089,2012-03-27 22:53:00,,CLR,10.0,,51,,,,40.0,,66,,,,29.22,1.0,Rising,,,,63.0,51.0,,,,,,,,,,,,,,,,,,,,,,,,,,,,,,,,,,,,,,,,,,,,,,,,,,,,,,,,,,,,,,
KBUR,Burbank,,34.1808,-118.3089,2012-03-27 23:53:00,,CLR,10.0,,49,,,,40.0,,71,3.0,360.0,,29.23,,,,,,,,,,,,,,,,,,,,,,,,,,,,,,,,,,,,,,,,,,,,,,,,,,,,,,,,,,,,,,,,,,,,,
KBUR,Burbank,,34.1808,-118.3089,2012-03-28 00:53:00,,CLR,10.0,,48,,,,40.0,,74,5.0,330.0,,29.24,,,,,,65.0,43.0,,,,,,,,,,,,,,,,,,,,,,,,,,,,,,,,,,,,,,,,,,,,,,,,,,,,,,,,,,,,,,
KBUR,Burbank,,34.1808,-118.3089,2012-03-28 01:53:00,,CLR,10.0,,47,,,,39.0,,74,5.0,300.0,,29.22,0.0,Steady,,,,,,,,,,,,,,,,,,,,,,,,,,,,,,,,,,,,,,,,,,,,,,,,,,,,,,,,,,,,,,,,,,,
KBUR,Burbank,,34.1808,-118.3089,2012-03-28 02:53:00,,CLR,10.0,,48,,,,39.0,,71,7.0,290.0,,29.2,,,,,,,,,,,,,,,,,,,,,,,,,,,,,,,,,,,,,,,,,,,,,,,,,,,,,,,,,,,,,,,,,,,,,
KBUR,Burbank,,34.1808,-118.3089,2012-03-28 03:53:00,,CLR,10.0,,47,,,,40.0,,77,5.0,10.0,,29.2,,,,,,,,,,,,,,,,,,,,,,,,,,,,,,,,,,,,,,,,,,,,,,,,,,,,,,,,,,,,,,,,,,,,,
KBUR,Burbank,,34.1808,-118.3089,2012-03-28 04:53:00,,CLR,10.0,,46,,,,40.0,,79,5.0,350.0,,29.2,0.0,Steady,,,,52.0,46.0,,,,,,,,,,,,,,,,,,,,,,,,,,,,,,,,,,,,,,,,,,,,,,,,,,,,,,,,,,,,,,
KBUR,Burbank,,34.1808,-118.3089,2012-03-28 05:53:00,,CLR,10.0,,47,,,,40.0,,77,3.0,300.0,,29.2,,,,,,,,,,,,,,,,,,,,,,,,,,,,,,,,,,,,,,,,,,,,,,,,,,,,,,,,,,,,,,,,,,,,,
KBUR,Burbank,,34.1808,-118.3089,2012-03-28 06:53:00,,CLR,10.0,,46,,,,38.0,,73,,,,29.23,,,,,,,,,,,,,,,,,,,,,,,,,,,,,,,,,,,,,,,,,,,,,,,,,,,,,,,,,,,,,,,,,,,,,
KBUR,Burbank,,34.1808,-118.3089,2012-03-28 07:53:00,,CLR,10.0,,48,,,,40.0,,74,,,,29.24,1.0,Rising Rapidly,,,,,,,,,,,,,,,,,,,,,,,,,,,,,,,,,,,,,,,,,,,,,,,,,,,,,,,,,,,,,,,,,,,
KBUR,Burbank,,34.1808,-118.3089,2012-03-28 08:53:00,,CLR,10.0,,50,,,,42.0,,74,3.0,100.0,,29.25,,,,,,,,,,,,,,,,,,,,,,,,,,,,,,,,,,,,,,,,,,,,,,,,,,,,,,,,,,,,,,,,,,,,,
KBUR,Burbank,,34.1808,-118.3089,2012-03-28 09:53:00,,CLR,10.0,,55,,,,43.0,,64,,,,29.25,,,,,,,,,,,,,,,,,,,,,,,,,,,,,,,,,,,,,,,,,,,,,,,,,,,,,,,,,,,,,,,,,,,,,
KBUR,Burbank,,34.1808,-118.3089,2012-03-28 10:53:00,,CLR,10.0,,59,,,,42.0,,53,,,,29.24,0.0,Steady,,,,59.0,45.0,,,,,,,,,,,,,,,,,,,,,,,,,,,,,,,,,,,,,,,,,,,,,,,,,,,,,,,,,,,,,,
KBUR,Burbank,,34.1808,-118.3089,2012-03-28 11:53:00,,CLR,10.0,,62,,,,43.0,,50,10.0,250.0,,29.24,,,,,,,,,,,,,,,,,,,,,,,,,,,,,,,,,,,,,,,,,,,,,,,,,,,,,,,,,,,,,,,,,,,,,
KBUR,Burbank,,34.1808,-118.3089,2012-03-28 12:53:00,,CLR,10.0,,65,,,,46.0,,50,3.0,,,29.21,,,,,,,,,,,,,,,,,,,,,,,,,,,,,,,,,,,,,,,,,,,,,,,,,,,,,,,,,,,,,,,,,,,,,
KBUR,Burbank,,34.1808,-118.3089,2012-03-28 13:53:00,,CLR,10.0,,66,,,,46.0,,48,12.0,280.0,16.0,29.19,2.0,Falling Rapidly,,,,,,,,,,,,,,,,,,,,,,,,,,,,,,,,,,,,,,,,,,,,,,,,,,,,,,,,,,,,,,,,,,,
KBUR,Burbank,,34.1808,-118.3089,2012-03-28 14:53:00,,FEW,10.0,,66,,,,48.0,,52,3.0,,,29.17,,,,,,,,,,,,,,,,,,,,,,,,,,,,,,,,,,,,,,,,,,,,,,,,,,,,,,,,,,,,,,,,,,,,,
KBUR,Burbank,,34.1808,-118.3089,2012-03-28 15:53:00,,CLR,10.0,,65,,,,48.0,,54,9.0,260.0,,29.17,,,,,,,,,,,,,,,,,,,,,,,,,,,,,,,,,,,,,,,,,,,,,,,,,,,,,,,,,,,,,,,,,,,,,
KBUR,Burbank,,34.1808,-118.3089,2012-03-28 16:53:00,,CLR,10.0,,66,,,,50.0,,56,5.0,290.0,,29.15,2.0,Falling,,,,67.0,58.0,,,,,,,,,,,,,,,,,,,,,,,,,,,,,,,,,,,,,,,,,,,,,,,,,,,,,,,,,,,,,,
KBUR,Burbank,,34.1808,-118.3089,2012-03-28 17:53:00,,CLR,10.0,,65,,,,50.0,,58,5.0,290.0,,29.16,,,,,,,,,,,,,,,,,,,,,,,,,,,,,,,,,,,,,,,,,,,,,,,,,,,,,,,,,,,,,,,,,,,,,
KBUR,Burbank,,34.1808,-118.3089,2012-03-28 18:53:00,,CLR,10.0,,64,,,,50.0,,60,6.0,310.0,,29.16,,,,,,,,,,,,,,,,,,,,,,,,,,,,,,,,,,,,,,,,,,,,,,,,,,,,,,,,,,,,,,,,,,,,,
KBUR,Burbank,,34.1808,-118.3089,2012-03-28 19:53:00,,CLR,10.0,,62,,,,50.0,,65,5.0,290.0,,29.17,1.0,Rising Rapidly,,,,,,,,,,,,,,,,,,,,,,,,,,,,,,,,,,,,,,,,,,,,,,,,,,,,,,,,,,,,,,,,,,,
KBUR,Burbank,,34.1808,-118.3089,2012-03-28 20:53:00,,CLR,10.0,,60,,,,51.0,,72,3.0,330.0,,29.19,,,,,,,,,,,,,,,,,,,,,,,,,,,,,,,,,,,,,,,,,,,,,,,,,,,,,,,,,,,,,,,,,,,,,
KBUR,Burbank,,34.1808,-118.3089,2012-03-28 21:53:00,,CLR,10.0,,58,,,,51.0,,78,5.0,270.0,,29.21,,,,,,,,,,,,,,,,,,,,,,,,,,,,,,,,,,,,,,,,,,,,,,,,,,,,,,,,,,,,,,,,,,,,,
KBUR,Burbank,,34.1808,-118.3089,2012-03-28 22:53:00,,CLR,10.0,,56,,,,51.0,,84,3.0,250.0,,29.2,0.0,Steady,,,,66.0,56.0,,,,,,,,,,,,,,,,,,,,,,,,,,,,,,,,,,,,,,,,,,,,,,,,,,,,,,,,,,,,,,
KBUR,Burbank,,34.1808,-118.3089,2012-03-28 23:53:00,,CLR,10.0,,55,,,,51.0,,86,,,,29.2,,,,,,,,,,,,,,,,,,,,,,,,,,,,,,,,,,,,,,,,,,,,,,,,,,,,,,,,,,,,,,,,,,,,,
KBUR,Burbank,,34.1808,-118.3089,2012-03-29 00:53:00,,CLR,10.0,,54,,,,50.0,,86,,,,29.19,,,,,,67.0,45.0,,,,,,,,,,,,,,,,,,,,,,,,,,,,,,,,,,,,,,,,,,,,,,,,,,,,,,,,,,,,,,
KBUR,Burbank,,34.1808,-118.3089,2012-03-29 01:30:00,,SCT,5.0,,54,,,,52.0,,94,3.0,150.0,,29.22,,,,,,,,,,,,,,,,,,,,,,,,,,,,,,,,,,,,,,,,,,,,,,,,,,,,,,,,,,,,,,,,,,,,,
KBUR,Burbank,,34.1808,-118.3089,2012-03-29 01:50:00,,BKN,3.0,,54,,,,52.0,,94,6.0,90.0,,29.21,,,,,,,,,,,,,,,,,,,,,,,,,,,,,,,,,,,,,,,,,,,,,,,,,,,,,,,,,,,,,,,,,,,,,
KBUR,Burbank,,34.1808,-118.3089,2012-03-29 01:53:00,,BKN,3.0,,53,,,,52.0,,96,5.0,90.0,,29.18,0.0,Steady,,,,,,,,,,,,,,,,,,,,,,,,,,,,,,,,,,,,,,,,,,,,,,,,,,,,,,,,,,,,,,,,,,,
KBUR,Burbank,,34.1808,-118.3089,2012-03-29 02:53:00,,OVC,4.0,,53,,,,52.0,,96,,,,29.17,,,,,,,,,,,,,,,,,,,,,,,,,,,,,,,,,,,,,,,,,,,,,,,,,,,,,,,,,,,,,,,,,,,,,
KBUR,Burbank,,34.1808,-118.3089,2012-03-29 03:53:00,,OVC,4.0,,53,,,,52.0,,96,,,,29.17,,,,,,,,,,,,,,,,,,,,,,,,,,,,,,,,,,,,,,,,,,,,,,,,,,,,,,,,,,,,,,,,,,,,,
KBUR,Burbank,,34.1808,-118.3089,2012-03-29 04:53:00,,OVC,5.0,,53,,,,51.0,,93,3.0,110.0,,29.17,2.0,Falling,,,,56.0,52.0,,,,,,,,,,,,,,,,,,,,,,,,,,,,,,,,,,,,,,,,,,,,,,,,,,,,,,,,,,,,,,
KBUR,Burbank,,34.1808,-118.3089,2012-03-29 05:53:00,,OVC,7.0,,53,,,,51.0,,93,3.0,110.0,,29.17,,,,,,,,,,,,,,,,,,,,,,,,,,,,,,,,,,,,,,,,,,,,,,,,,,,,,,,,,,,,,,,,,,,,,
KBUR,Burbank,,34.1808,-118.3089,2012-03-29 06:53:00,,OVC,4.0,,53,,,,51.0,,93,,,,29.19,,,,,,,,,,,,,,,,,,,,,,,,,,,,,,,,,,,,,,,,,,,,,,,,,,,,,,,,,,,,,,,,,,,,,
KBUR,Burbank,,34.1808,-118.3089,2012-03-29 07:10:00,,OVC,6.0,,54,,,,52.0,,94,5.0,140.0,,29.22,,,,,,,,,,,,,,,,,,,,,,,,,,,,,,,,,,,,,,,,,,,,,,,,,,,,,,,,,,,,,,,,,,,,,
KBUR,Burbank,,34.1808,-118.3089,2012-03-29 07:53:00,,CLR,8.0,,53,,,,50.0,,89,,,,29.19,1.0,Rising,,,,,,,,,,,,,,,,,,,,,,,,,,,,,,,,,,,,,,,,,,,,,,,,,,,,,,,,,,,,,,,,,,,
KBUR,Burbank,,34.1808,-118.3089,2012-03-29 08:40:00,,BKN,5.0,,55,,,,50.0,,82,7.0,120.0,,29.23,,,,,,,,,,,,,,,,,,,,,,,,,,,,,,,,,,,,,,,,,,,,,,,,,,,,,,,,,,,,,,,,,,,,,
KBUR,Burbank,,34.1808,-118.3089,2012-03-29 08:53:00,,BKN,5.0,,55,,,,50.0,,83,8.0,130.0,,29.21,,,,,,,,,,,,,,,,,,,,,,,,,,,,,,,,,,,,,,,,,,,,,,,,,,,,,,,,,,,,,,,,,,,,,
KBUR,Burbank,,34.1808,-118.3089,2012-03-29 09:18:00,,SCT,5.0,,57,,,,50.0,,77,8.0,130.0,,29.23,,,,,,,,,,,,,,,,,,,,,,,,,,,,,,,,,,,,,,,,,,,,,,,,,,,,,,,,,,,,,,,,,,,,,
KBUR,Burbank,,34.1808,-118.3089,2012-03-29 09:28:00,,BKN,5.0,,57,,,,50.0,,77,9.0,150.0,,29.23,,,,,,,,,,,,,,,,,,,,,,,,,,,,,,,,,,,,,,,,,,,,,,,,,,,,,,,,,,,,,,,,,,,,,
KBUR,Burbank,,34.1808,-118.3089,2012-03-29 09:53:00,,BKN,5.0,,58,,,,50.0,,75,7.0,150.0,,29.21,,,,,,,,,,,,,,,,,,,,,,,,,,,,,,,,,,,,,,,,,,,,,,,,,,,,,,,,,,,,,,,,,,,,,
KBUR,Burbank,,34.1808,-118.3089,2012-03-29 10:00:00,,FEW,8.0,,57,,,,50.0,,77,6.0,110.0,,29.24,,,,,,,,,,,,,,,,,,,,,,,,,,,,,,,,,,,,,,,,,,,,,,,,,,,,,,,,,,,,,,,,,,,,,
KBUR,Burbank,,34.1808,-118.3089,2012-03-29 10:53:00,,CLR,6.0,,61,,,,49.0,,64,6.0,140.0,,29.19,2.0,Falling Rapidly,,,,61.0,52.0,,,,,,,,,,,,,,,,,,,,,,,,,,,,,,,,,,,,,,,,,,,,,,,,,,,,,,,,,,,,,,
KBUR,Burbank,,34.1808,-118.3089,2012-03-29 11:53:00,,CLR,5.0,,63,,,,49.0,,60,3.0,,,29.17,,,,,,,,,,,,,,,,,,,,,,,,,,,,,,,,,,,,,,,,,,,,,,,,,,,,,,,,,,,,,,,,,,,,,
KBUR,Burbank,,34.1808,-118.3089,2012-03-29 12:53:00,,CLR,5.0,,66,,,,49.0,,54,9.0,130.0,,29.14,,,,,,,,,,,,,,,,,,,,,,,,,,,,,,,,,,,,,,,,,,,,,,,,,,,,,,,,,,,,,,,,,,,,,
KBUR,Burbank,,34.1808,-118.3089,2012-03-29 13:53:00,,CLR,6.0,,66,,,,51.0,,59,7.0,,,29.12,2.0,Falling,,,,,,,,,,,,,,,,,,,,,,,,,,,,,,,,,,,,,,,,,,,,,,,,,,,,,,,,,,,,,,,,,,,
KBUR,Burbank,,34.1808,-118.3089,2012-03-29 14:53:00,,CLR,6.0,,66,,,,52.0,,60,8.0,180.0,,29.11,,,,,,,,,,,,,,,,,,,,,,,,,,,,,,,,,,,,,,,,,,,,,,,,,,,,,,,,,,,,,,,,,,,,,
KBUR,Burbank,,34.1808,-118.3089,2012-03-29 15:53:00,,SCT,7.0,,68,,,,50.0,,52,3.0,200.0,,29.11,,,,,,,,,,,,,,,,,,,,,,,,,,,,,,,,,,,,,,,,,,,,,,,,,,,,,,,,,,,,,,,,,,,,,
KBUR,Burbank,,34.1808,-118.3089,2012-03-29 16:53:00,,CLR,7.0,,70,,,,49.0,,47,6.0,150.0,,29.11,2.0,Falling Rapidly,,,,70.0,61.0,,,,,,,,,,,,,,,,,,,,,,,,,,,,,,,,,,,,,,,,,,,,,,,,,,,,,,,,,,,,,,
KBUR,Burbank,,34.1808,-118.3089,2012-03-29 17:53:00,,CLR,10.0,,67,,,,51.0,,57,8.0,160.0,,29.1,,,,,,,,,,,,,,,,,,,,,,,,,,,,,,,,,,,,,,,,,,,,,,,,,,,,,,,,,,,,,,,,,,,,,
KBUR,Burbank,,34.1808,-118.3089,2012-03-29 18:53:00,,CLR,10.0,,61,,,,51.0,,70,6.0,190.0,,29.12,,,,,,,,,,,,,,,,,,,,,,,,,,,,,,,,,,,,,,,,,,,,,,,,,,,,,,,,,,,,,,,,,,,,,
KBUR,Burbank,,34.1808,-118.3089,2012-03-29 19:53:00,,CLR,6.0,,57,,,,51.0,,81,9.0,120.0,,29.14,1.0,Rising Rapidly,,,,,,,,,,,,,,,,,,,,,,,,,,,,,,,,,,,,,,,,,,,,,,,,,,,,,,,,,,,,,,,,,,,
KBUR,Burbank,,34.1808,-118.3089,2012-03-29 20:53:00,,CLR,7.0,,56,,,,50.0,,80,8.0,140.0,,29.16,,,,,,,,,,,,,,,,,,,,,,,,,,,,,,,,,,,,,,,,,,,,,,,,,,,,,,,,,,,,,,,,,,,,,
KBUR,Burbank,,34.1808,-118.3089,2012-03-29 21:53:00,,CLR,6.0,,55,,,,50.0,,83,8.0,100.0,,29.17,,,,,,,,,,,,,,,,,,,,,,,,,,,,,,,,,,,,,,,,,,,,,,,,,,,,,,,,,,,,,,,,,,,,,
KBUR,Burbank,,34.1808,-118.3089,2012-03-29 22:14:00,,SCT,5.0,,54,,,,50.0,,88,9.0,120.0,,29.2,,,,,,,,,,,,,,,,,,,,,,,,,,,,,,,,,,,,,,,,,,,,,,,,,,,,,,,,,,,,,,,,,,,,,
KBUR,Burbank,,34.1808,-118.3089,2012-03-29 22:28:00,,BKN,5.0,,54,,,,50.0,,88,9.0,130.0,,29.2,,,,,,,,,,,,,,,,,,,,,,,,,,,,,,,,,,,,,,,,,,,,,,,,,,,,,,,,,,,,,,,,,,,,,
KBUR,Burbank,,34.1808,-118.3089,2012-03-29 22:53:00,,OVC,5.0,,54,,,,50.0,,86,7.0,120.0,,29.17,1.0,Rising,,,,70.0,54.0,,,,,,,,,,,,,,,,,,,,,,,,,,,,,,,,,,,,,,,,,,,,,,,,,,,,,,,,,,,,,,
KBUR,Burbank,,34.1808,-118.3089,2012-03-29 23:50:00,,SCT,5.0,,54,,,,50.0,,88,3.0,110.0,,29.19,,,,,,,,,,,,,,,,,,,,,,,,,,,,,,,,,,,,,,,,,,,,,,,,,,,,,,,,,,,,,,,,,,,,,
KBUR,Burbank,,34.1808,-118.3089,2012-03-29 23:53:00,,FEW,5.0,,54,,,,50.0,,86,3.0,110.0,,29.17,,,,,,,,,,,,,,,,,,,,,,,,,,,,,,,,,,,,,,,,,,,,,,,,,,,,,,,,,,,,,,,,,,,,,
KBUR,Burbank,,34.1808,-118.3089,2012-03-30 00:53:00,,CLR,4.0,,53,,,,50.0,,89,,,,29.16,,,,,,70.0,52.0,,,,,,,,,,,,,,,,,,,,,,,,,,,,,,,,,,,,,,,,,,,,,,,,,,,,,,,,,,,,,,
KBUR,Burbank,,34.1808,-118.3089,2012-03-30 01:43:00,,FEW,5.0,,54,,,,50.0,,88,3.0,80.0,,29.17,,,,,,,,,,,,,,,,,,,,,,,,,,,,,,,,,,,,,,,,,,,,,,,,,,,,,,,,,,,,,,,,,,,,,
KBUR,Burbank,,34.1808,-118.3089,2012-03-30 01:53:00,,BKN,5.0,,53,,,,50.0,,89,5.0,100.0,,29.14,2.0,Falling Rapidly,,,,,,,,,,,,,,,,,,,,,,,,,,,,,,,,,,,,,,,,,,,,,,,,,,,,,,,,,,,,,,,,,,,
KBUR,Burbank,,34.1808,-118.3089,2012-03-30 02:53:00,,OVC,4.0,,52,,,,50.0,,93,,,,29.13,,,,,,,,,,,,,,,,,,,,,,,,,,,,,,,,,,,,,,,,,,,,,,,,,,,,,,,,,,,,,,,,,,,,,
KBUR,Burbank,,34.1808,-118.3089,2012-03-30 03:53:00,,OVC,3.0,,51,,,,49.0,,92,3.0,20.0,,29.11,,,,,,,,,,,,,,,,,,,,,,,,,,,,,,,,,,,,,,,,,,,,,,,,,,,,,,,,,,,,,,,,,,,,,
KBUR,Burbank,,34.1808,-118.3089,2012-03-30 04:32:00,,OVC,2.0,,52,,,,48.0,,88,,,,29.14,,,,,,,,,,,,,,,,,,,,,,,,,,,,,,,,,,,,,,,,,,,,,,,,,,,,,,,,,,,,,,,,,,,,,
KBUR,Burbank,,34.1808,-118.3089,2012-03-30 04:43:00,,OVC,2.0,,52,,,,48.0,,88,,,,29.14,,,,,,,,,,,,,,,,,,,,,,,,,,,,,,,,,,,,,,,,,,,,,,,,,,,,,,,,,,,,,,,,,,,,,
KBUR,Burbank,,34.1808,-118.3089,2012-03-30 04:53:00,,OVC,2.0,,50,,,,50.0,,100,,,,29.11,2.0,Falling,,,,54.0,50.0,,,,,,,,,,,,,,,,,,,,,,,,,,,,,,,,,,,,,,,,,,,,,,,,,,,,,,,,,,,,,,
KBUR,Burbank,,34.1808,-118.3089,2012-03-30 05:16:00,,OVC,3.0,,52,,,,50.0,,94,,,,29.13,,,,,,,,,,,,,,,,,,,,,,,,,,,,,,,,,,,,,,,,,,,,,,,,,,,,,,,,,,,,,,,,,,,,,
KBUR,Burbank,,34.1808,-118.3089,2012-03-30 05:53:00,,OVC,3.0,,51,,,,50.0,,96,,,,29.11,,,,,,,,,,,,,,,,,,,,,,,,,,,,,,,,,,,,,,,,,,,,,,,,,,,,,,,,,,,,,,,,,,,,,
KBUR,Burbank,,34.1808,-118.3089,2012-03-30 06:53:00,,OVC,2.0,,51,,,,50.0,,96,,,,29.12,,,,,,,,,,,,,,,,,,,,,,,,,,,,,,,,,,,,,,,,,,,,,,,,,,,,,,,,,,,,,,,,,,,,,
KBUR,Burbank,,34.1808,-118.3089,2012-03-30 07:53:00,,OVC,1.0,,51,,,,50.0,,96,3.0,100.0,,29.15,1.0,Rising Rapidly,,,,,,,,,,,,,,,,,,,,,,,,,,,,,,,,,,,,,,,,,,,,,,,,,,,,,,,,,,,,,,,,,,,
KBUR,Burbank,,34.1808,-118.3089,2012-03-30 08:53:00,,OVC,1.0,,52,,,,50.0,,93,,,,29.15,,,,,,,,,,,,,,,,,,,,,,,,,,,,,,,,,,,,,,,,,,,,,,,,,,,,,,,,,,,,,,,,,,,,,
KBUR,Burbank,,34.1808,-118.3089,2012-03-30 09:53:00,,OVC,2.0,,53,,,,50.0,,89,3.0,,,29.16,,,,,,,,,,,,,,,,,,,,,,,,,,,,,,,,,,,,,,,,,,,,,,,,,,,,,,,,,,,,,,,,,,,,,
KBUR,Burbank,,34.1808,-118.3089,2012-03-30 10:53:00,,OVC,2.0,,57,,,,51.0,,81,,,,29.16,1.0,Rising,,,,57.0,50.0,,,,,,,,,,,,,,,,,,,,,,,,,,,,,,,,,,,,,,,,,,,,,,,,,,,,,,,,,,,,,,
KBUR,Burbank,,34.1808,-118.3089,2012-03-30 11:10:00,,BKN,3.0,,57,,,,52.0,,82,,,,29.18,,,,,,,,,,,,,,,,,,,,,,,,,,,,,,,,,,,,,,,,,,,,,,,,,,,,,,,,,,,,,,,,,,,,,
KBUR,Burbank,,34.1808,-118.3089,2012-03-30 11:36:00,,CLR,3.0,,59,,,,52.0,,77,,,,29.17,,,,,,,,,,,,,,,,,,,,,,,,,,,,,,,,,,,,,,,,,,,,,,,,,,,,,,,,,,,,,,,,,,,,,
KBUR,Burbank,,34.1808,-118.3089,2012-03-30 11:53:00,,CLR,4.0,,61,,,,51.0,,70,,,,29.15,,,,,,,,,,,,,,,,,,,,,,,,,,,,,,,,,,,,,,,,,,,,,,,,,,,,,,,,,,,,,,,,,,,,,
KBUR,Burbank,,34.1808,-118.3089,2012-03-30 12:53:00,,CLR,4.0,,65,,,,52.0,,63,5.0,120.0,,29.13,,,,,,,,,,,,,,,,,,,,,,,,,,,,,,,,,,,,,,,,,,,,,,,,,,,,,,,,,,,,,,,,,,,,,
KBUR,Burbank,,34.1808,-118.3089,2012-03-30 13:53:00,,CLR,3.0,,67,,,,52.0,,59,7.0,,,29.11,2.0,Falling Rapidly,,,,,,,,,,,,,,,,,,,,,,,,,,,,,,,,,,,,,,,,,,,,,,,,,,,,,,,,,,,,,,,,,,,
KBUR,Burbank,,34.1808,-118.3089,2012-03-30 14:53:00,,CLR,5.0,,68,,,,52.0,,56,5.0,160.0,,29.09,,,,,,,,,,,,,,,,,,,,,,,,,,,,,,,,,,,,,,,,,,,,,,,,,,,,,,,,,,,,,,,,,,,,,
KBUR,Burbank,,34.1808,-118.3089,2012-03-30 15:53:00,,CLR,5.0,,67,,,,52.0,,59,8.0,190.0,,29.08,,,,,,,,,,,,,,,,,,,,,,,,,,,,,,,,,,,,,,,,,,,,,,,,,,,,,,,,,,,,,,,,,,,,,
KBUR,Burbank,,34.1808,-118.3089,2012-03-30 16:53:00,,CLR,6.0,,67,,,,52.0,,59,9.0,180.0,,29.08,2.0,Falling,,,,69.0,57.0,,,,,,,,,,,,,,,,,,,,,,,,,,,,,,,,,,,,,,,,,,,,,,,,,,,,,,,,,,,,,,
KBUR,Burbank,,34.1808,-118.3089,2012-03-30 17:53:00,,CLR,6.0,,65,,,,52.0,,63,10.0,180.0,,29.08,,,,,,,,,,,,,,,,,,,,,,,,,,,,,,,,,,,,,,,,,,,,,,,,,,,,,,,,,,,,,,,,,,,,,
KBUR,Burbank,,34.1808,-118.3089,2012-03-30 18:53:00,,CLR,7.0,,60,,,,51.0,,72,8.0,180.0,,29.09,,,,,,,,,,,,,,,,,,,,,,,,,,,,,,,,,,,,,,,,,,,,,,,,,,,,,,,,,,,,,,,,,,,,,
KBUR,Burbank,,34.1808,-118.3089,2012-03-30 19:53:00,,CLR,6.0,,57,,,,50.0,,77,7.0,180.0,,29.09,1.0,Rising,,,,,,,,,,,,,,,,,,,,,,,,,,,,,,,,,,,,,,,,,,,,,,,,,,,,,,,,,,,,,,,,,,,
KBUR,Burbank,,34.1808,-118.3089,2012-03-30 20:53:00,,CLR,8.0,,56,,,,50.0,,80,6.0,90.0,,29.12,,,,,,,,,,,,,,,,,,,,,,,,,,,,,,,,,,,,,,,,,,,,,,,,,,,,,,,,,,,,,,,,,,,,,
KBUR,Burbank,,34.1808,-118.3089,2012-03-30 21:53:00,,CLR,7.0,,57,,,,50.0,,77,6.0,140.0,,29.13,,,,,,,,,,,,,,,,,,,,,,,,,,,,,,,,,,,,,,,,,,,,,,,,,,,,,,,,,,,,,,,,,,,,,
KBUR,Burbank,,34.1808,-118.3089,2012-03-30 22:53:00,,CLR,7.0,,55,,,,51.0,,86,6.0,140.0,,29.14,1.0,Rising,,,,67.0,55.0,,,,,,,,,,,,,,,,,,,,,,,,,,,,,,,,,,,,,,,,,,,,,,,,,,,,,,,,,,,,,,
KBUR,Burbank,,34.1808,-118.3089,2012-03-30 23:53:00,,CLR,5.0,,53,,,,50.0,,89,5.0,180.0,,29.14,,,,,,,,,,,,,,,,,,,,,,,,,,,,,,,,,,,,,,,,,,,,,,,,,,,,,,,,,,,,,,,,,,,,,
KBUR,Burbank,,34.1808,-118.3089,2012-03-31 00:34:00,,FEW,4.0,,52,,,,50.0,,94,,,,29.17,,,,,,,,,,,,,,,,,,,,,,,,,,,,,,,,,,,,,,,,,,,,,,,,,,,,,,,,,,,,,,,,,,,,,
KBUR,Burbank,,34.1808,-118.3089,2012-03-31 00:53:00,,OVC,2.0,,52,,,,50.0,,93,5.0,,,29.14,,,,,,69.0,50.0,,,,,,,,,,,,,,,,,,,,,,,,,,,,,,,,,,,,,,,,,,,,,,,,,,,,,,,,,,,,,,
KBUR,Burbank,,34.1808,-118.3089,2012-03-31 01:00:00,,OVC,4.0,,52,,,,50.0,,94,6.0,120.0,,29.16,,,,,,,,,,,,,,,,,,,,,,,,,,,,,,,,,,,,,,,,,,,,,,,,,,,,,,,,,,,,,,,,,,,,,
KBUR,Burbank,,34.1808,-118.3089,2012-03-31 01:53:00,,OVC,2.0,,52,,,,51.0,,97,8.0,150.0,,29.13,2.0,Falling Rapidly,,,,,,,,,,,,,,,,,,,,,,,,,,,,,,,,,,,,,,,,,,,,,,,,,,,,,,,,,,,,,,,,,,,
KBUR,Burbank,,34.1808,-118.3089,2012-03-31 02:53:00,,OVC,2.0,,52,,,,51.0,,97,7.0,120.0,,29.12,,,,,,,,,,,,,,,,,,,,,,,,,,,,,,,,,,,,,,,,,,,,,,,,,,,,,,,,,,,,,,,,,,,,,
KBUR,Burbank,,34.1808,-118.3089,2012-03-31 03:53:00,,OVC,2.0,,52,,,,51.0,,97,5.0,130.0,,29.12,,,,,,,,,,,,,,,,,,,,,,,,,,,,,,,,,,,,,,,,,,,,,,,,,,,,,,,,,,,,,,,,,,,,,
KBUR,Burbank,,34.1808,-118.3089,2012-03-31 04:53:00,,OVC,2.0,,52,,,,51.0,,97,5.0,180.0,,29.13,0.0,Steady,,,,53.0,51.0,,,,,,,,,,,,,,,,,,,,,,,,,,,,,,,,,,,,,,,,,,,,,,,,,,,,,,,,,,,,,,
KBUR,Burbank,,34.1808,-118.3089,2012-03-31 05:53:00,,OVC,2.0,,52,,,,50.0,,93,7.0,140.0,,29.13,,,,,,,,,,,,,,,,,,,,,,,,,,,,,,,,,,,,,,,,,,,,,,,,,,,,,,,,,,,,,,,,,,,,,
KBUR,Burbank,,34.1808,-118.3089,2012-03-31 06:53:00,,OVC,2.0,,53,,,,50.0,,89,7.0,170.0,,29.15,,,,,,,,,,,,,,,,,,,,,,,,,,,,,,,,,,,,,,,,,,,,,,,,,,,,,,,,,,,,,,,,,,,,,
KBUR,Burbank,,34.1808,-118.3089,2012-03-31 07:53:00,,OVC,2.0,,52,,,,50.0,,93,7.0,150.0,,29.16,1.0,Rising Rapidly,,,,,,,,,,,,,,,,,,,,,,,,,,,,,,,,,,,,,,,,,,,,,,,,,,,,,,,,,,,,,,,,,,,
KBUR,Burbank,,34.1808,-118.3089,2012-03-31 08:53:00,,OVC,2.0,,53,,,,50.0,,89,6.0,180.0,,29.16,,,,,,,,,,,,,,,,,,,,,,,,,,,,,,,,,,,,,,,,,,,,,,,,,,,,,,,,,,,,,,,,,,,,,
KBUR,Burbank,,34.1808,-118.3089,2012-03-31 09:02:00,,OVC,3.0,,54,,,,50.0,,88,7.0,150.0,,29.18,,,,,,,,,,,,,,,,,,,,,,,,,,,,,,,,,,,,,,,,,,,,,,,,,,,,,,,,,,,,,,,,,,,,,
KBUR,Burbank,,34.1808,-118.3089,2012-03-31 09:53:00,,OVC,2.0,,53,,,,50.0,,89,6.0,200.0,,29.16,,,,,,,,,,,,,,,,,,,,,,,,,,,,,,,,,,,,,,,,,,,,,,,,,,,,,,,,,,,,,,,,,,,,,
KBUR,Burbank,,34.1808,-118.3089,2012-03-31 10:53:00,,OVC,3.0,,53,,,,49.0,,86,8.0,180.0,,29.18,1.0,Rising Rapidly,,,,54.0,52.0,,,,,,,,,,,,,,,,,,,,,,,,,,,,,,,,,,,,,,,,,,,,,,,,,,,,,,,,,,,,,,
KBUR,Burbank,,34.1808,-118.3089,2012-03-31 11:53:00,,OVC,4.0,,54,,,,49.0,,83,9.0,220.0,,29.2,,,,,,,,,,,,,,,,,,,,,,,,,,,,,,,,,,,,,,,,,,,,,,,,,,,,,,,,,,,,,,,,,,,,,
KBUR,Burbank,,34.1808,-118.3089,2012-03-31 12:53:00,,OVC,3.0,,54,,,,51.0,,90,5.0,200.0,,29.2,,,,,,,,,,,,,,,,,,,,,,,,,,,,,,,,,,,,,,,,,,,,,,,,,,,,,,,,,,,,,,,,,,,,,
KBUR,Burbank,,34.1808,-118.3089,2012-03-31 13:53:00,,BKN,6.0,,58,,,,49.0,,72,8.0,110.0,,29.16,2.0,Falling Rapidly,,,,,,,,,,,,,,,,,,,,,,,,,,,,,,,,,,,,,,,,,,,,,,,,,,,,,,,,,,,,,,,,,,,
KBUR,Burbank,,34.1808,-118.3089,2012-03-31 14:53:00,,OVC,10.0,,59,,,,49.0,,69,7.0,150.0,,29.14,,,,,,,,,,,,,,,,,,,,,,,,,,,,,,,,,,,,,,,,,,,,,,,,,,,,,,,,,,,,,,,,,,,,,
KBUR,Burbank,,34.1808,-118.3089,2012-03-31 15:53:00,,OVC,10.0,,60,,,,49.0,,67,12.0,160.0,,29.14,,,,,,,,,,,,,,,,,,,,,,,,,,,,,,,,,,,,,,,,,,,,,,,,,,,,,,,,,,,,,,,,,,,,,
KBUR,Burbank,,34.1808,-118.3089,2012-03-31 16:53:00,,OVC,10.0,,59,,,,48.0,,67,9.0,180.0,,29.13,2.0,Falling,,,,61.0,53.0,,,,,,,,,,,,,,,,,,,,,,,,,,,,,,,,,,,,,,,,,,,,,,,,,,,,,,,,,,,,,,
KBUR,Burbank,,34.1808,-118.3089,2012-03-31 17:53:00,,OVC,10.0,,57,,,,48.0,,72,8.0,160.0,,29.13,,,,,,,,,,,,,,,,,,,,,,,,,,,,,,,,,,,,,,,,,,,,,,,,,,,,,,,,,,,,,,,,,,,,,
KBUR,Burbank,,34.1808,-118.3089,2012-03-31 18:53:00,,OVC,10.0,,55,,,,49.0,,80,7.0,190.0,,29.13,,,,,,,,,,,,,,,,,,,,,,,,,,,,,,,,,,,,,,,,,,,,,,,,,,,,,,,,,,,,,,,,,,,,,
KBUR,Burbank,,34.1808,-118.3089,2012-03-31 19:53:00,,OVC,8.0,,54,,,,49.0,,83,5.0,150.0,,29.12,2.0,Falling Rapidly,,0.0,,,,,,,,,,,,,,,,,,,,,,,,,,,,,,,,,,,,,,,,,,,,,,,,,,,,,,,,,,,,,,,,,
KBUR,Burbank,,34.1808,-118.3089,2012-03-31 20:32:00,,OVC,10.0,,54,,,,50.0,,88,8.0,160.0,,29.14,,,,0.0,,,,,,,,,,,,,,,,,,,,,,,,,,,,,,,,,,,,,,,,,,,,,,,,,,,,,,,,,,,,,,,,,
KBUR,Burbank,,34.1808,-118.3089,2012-03-31 20:53:00,,OVC,5.0,,53,,,,51.0,,93,7.0,150.0,,29.12,,,,0.0,,,,,,,,,,,,,,,,,,,,,,,,,,,,,,,,,,,,,,,,,,,,,,,,,,,,,,,,,,,,,,,,,
KBUR,Burbank,,34.1808,-118.3089,2012-03-31 21:07:00,,OVC,2.0,,54,,,,52.0,,94,3.0,170.0,,29.15,,,,0.01,,,,,,,,,,,,,,,,,,,,,,,,,,,,,,,,,,,,,,,,,,,,,,,,,,,,,,,,,,,,,,,,,
KBUR,Burbank,,34.1808,-118.3089,2012-03-31 21:09:00,,OVC,2.0,,54,,,,52.0,,94,3.0,180.0,,29.15,,,,0.02,,,,,,,,,,,,,,,,,,,,,,,,,,,,,,,,,,,,,,,,,,,,,,,,,,,,,,,,,,,,,,,,,
KBUR,Burbank,,34.1808,-118.3089,2012-03-31 21:33:00,,OVC,4.0,,52,,,,52.0,,100,8.0,260.0,,29.15,,,,0.08,,,,,,,,,,,,,,,,,,,,,,,,,,,,,,,,,,,,,,,,,,,,,,,,,,,,,,,,,,,,,,,,,
KBUR,Burbank,,34.1808,-118.3089,2012-03-31 21:53:00,,OVC,10.0,,52,,,,50.0,,93,,,,29.12,,,,0.08,,,,,,,,,,,,,,,,,,,,,,,,,,,,,,,,,,,,,,,,,,,,,,,,,,,,,,,,,,,,,,,,,
KBUR,Burbank,,34.1808,-118.3089,2012-03-31 22:53:00,,OVC,10.0,,51,,,,46.0,,83,8.0,240.0,,29.13,1.0,Rising Rapidly,,0.01,,58.0,51.0,,,,,,,,,,,,,,,,,,,,,,,,,,,,,,,,,,,,,,,,,,,,,,,,,,,,,,,,,,,,,,
KBUR,Burbank,,34.1808,-118.3089,2012-03-31 23:53:00,,OVC,10.0,,49,,,,43.0,,80,3.0,300.0,,29.15,,,,,,,,,,,,,,,,,,,,,,,,,,,,,,,,,,,,,,,,,,,,,,,,,,,,,,,,,,,,,,,,,,,,,
KBUR,Burbank,,34.1808,-118.3089,2012-04-01 00:00:00,,CLR,10.0,,50,,,,43.0,,76,5.0,290.0,,29.17,,,,,,,,,,,,,,,,,,,,,,,,,,,,,,,,,,,,,,,,,,,,,,,,,,,,,,,,,,,,,,,,,,,,,
KBUR,Burbank,,34.1808,-118.3089,2012-04-01 00:53:00,,BKN,10.0,,49,,,,42.0,,77,5.0,280.0,,29.15,,,,,,61.0,48.0,,,,,,,,,,,,,,,,,,,,,,,,,,,,,,,,,,,,,,,,,,,,,,,,,,,,,,,,,,,,,,
KBUR,Burbank,,34.1808,-118.3089,2012-04-01 01:08:00,,OVC,10.0,,48,,,,43.0,,82,3.0,290.0,,29.17,,,,,,,,,,,,,,,,,,,,,,,,,,,,,,,,,,,,,,,,,,,,,,,,,,,,,,,,,,,,,,,,,,,,,
KBUR,Burbank,,34.1808,-118.3089,2012-04-01 01:19:00,,BKN,10.0,,48,,,,43.0,,82,5.0,320.0,,29.17,,,,,,,,,,,,,,,,,,,,,,,,,,,,,,,,,,,,,,,,,,,,,,,,,,,,,,,,,,,,,,,,,,,,,
KBUR,Burbank,,34.1808,-118.3089,2012-04-01 01:53:00,,CLR,10.0,,47,,,,42.0,,83,,,,29.15,0.0,Steady,,,,,,,,,,,,,,,,,,,,,,,,,,,,,,,,,,,,,,,,,,,,,,,,,,,,,,,,,,,,,,,,,,,
KBUR,Burbank,,34.1808,-118.3089,2012-04-01 02:53:00,,CLR,10.0,,46,,,,42.0,,86,3.0,300.0,,29.15,,,,,,,,,,,,,,,,,,,,,,,,,,,,,,,,,,,,,,,,,,,,,,,,,,,,,,,,,,,,,,,,,,,,,
KBUR,Burbank,,34.1808,-118.3089,2012-04-01 03:53:00,,CLR,10.0,,45,,,,41.0,,86,7.0,330.0,,29.14,,,,,,,,,,,,,,,,,,,,,,,,,,,,,,,,,,,,,,,,,,,,,,,,,,,,,,,,,,,,,,,,,,,,,
KBUR,Burbank,,34.1808,-118.3089,2012-04-01 04:53:00,,CLR,10.0,,45,,,,41.0,,86,5.0,290.0,,29.13,2.0,Falling Rapidly,,,,51.0,44.0,,,,,,,,,,,,,,,,,,,,,,,,,,,,,,,,,,,,,,,,,,,,,,,,,,,,,,,,,,,,,,
KBUR,Burbank,,34.1808,-118.3089,2012-04-01 05:53:00,,CLR,10.0,,44,,,,41.0,,89,3.0,340.0,,29.14,,,,,,,,,,,,,,,,,,,,,,,,,,,,,,,,,,,,,,,,,,,,,,,,,,,,,,,,,,,,,,,,,,,,,
KBUR,Burbank,,34.1808,-118.3089,2012-04-01 06:53:00,,CLR,10.0,,43,,,,40.0,,89,3.0,310.0,,29.15,,,,,,,,,,,,,,,,,,,,,,,,,,,,,,,,,,,,,,,,,,,,,,,,,,,,,,,,,,,,,,,,,,,,,
KBUR,Burbank,,34.1808,-118.3089,2012-04-01 07:08:00,,CLR,10.0,,43,,,,39.0,,87,,,,29.17,,,,,,,,,,,,,,,,,,,,,,,,,,,,,,,,,,,,,,,,,,,,,,,,,,,,,,,,,,,,,,,,,,,,,
KBUR,Burbank,,34.1808,-118.3089,2012-04-01 07:28:00,,CLR,10.0,,46,,,,41.0,,81,5.0,340.0,,29.18,,,,,,,,,,,,,,,,,,,,,,,,,,,,,,,,,,,,,,,,,,,,,,,,,,,,,,,,,,,,,,,,,,,,,
KBUR,Burbank,,34.1808,-118.3089,2012-04-01 07:53:00,,CLR,10.0,,47,,,,40.0,,77,12.0,280.0,,29.16,1.0,Rising Rapidly,,,,,,,,,,,,,,,,,,,,,,,,,,,,,,,,,,,,,,,,,,,,,,,,,,,,,,,,,,,,,,,,,,,
KBUR,Burbank,,34.1808,-118.3089,2012-04-01 08:53:00,,CLR,10.0,,53,,,,33.0,,47,17.0,320.0,26.0,29.15,,,,,,,,,,,,,,,,,,,,,,,,,,,,,,,,,,,,,,,,,,,,,,,,,,,,,,,,,,,,,,,,,,,,,
KBUR,Burbank,,34.1808,-118.3089,2012-04-01 09:53:00,,CLR,10.0,,55,,,,33.0,,43,16.0,310.0,31.0,29.16,,,,,,,,,,,,,,,,,,,,,,,,,,,,,,,,,,,,,,,,,,,,,,,,,,,,,,,,,,,,,,,,,,,,,
KBUR,Burbank,,34.1808,-118.3089,2012-04-01 10:53:00,,FEW,10.0,,56,,,,,,40,15.0,310.0,26.0,29.16,1.0,Rising Rapidly,,,,57.0,43.0,,,,,,,,,,,,,,,,,,,,,,,,,,,,,,,,,,,,,,,,,,,,,,,,,,,,,,,,,,,,,,
KBUR,Burbank,,34.1808,-118.3089,2012-04-01 11:53:00,,FEW,10.0,,59,,,,31.0,,35,14.0,300.0,28.0,29.16,,,,,,,,,,,,,,,,,,,,,,,,,,,,,,,,,,,,,,,,,,,,,,,,,,,,,,,,,,,,,,,,,,,,,
KBUR,Burbank,,34.1808,-118.3089,2012-04-01 12:53:00,,FEW,10.0,,61,,,,33.0,,35,15.0,300.0,28.0,29.15,,,,,,,,,,,,,,,,,,,,,,,,,,,,,,,,,,,,,,,,,,,,,,,,,,,,,,,,,,,,,,,,,,,,,
KBUR,Burbank,,34.1808,-118.3089,2012-04-01 13:53:00,,FEW,10.0,,62,,,,33.0,,34,15.0,310.0,29.0,29.15,2.0,Falling,,,,,,,,,,,,,,,,,,,,,,,,,,,,,,,,,,,,,,,,,,,,,,,,,,,,,,,,,,,,,,,,,,,
KBUR,Burbank,,34.1808,-118.3089,2012-04-01 14:53:00,,FEW,10.0,,63,,,,31.0,,30,20.0,330.0,30.0,29.15,,,,,,,,,,,,,,,,,,,,,,,,,,,,,,,,,,,,,,,,,,,,,,,,,,,,,,,,,,,,,,,,,,,,,
KBUR,Burbank,,34.1808,-118.3089,2012-04-01 15:53:00,,FEW,10.0,,63,,,,29.0,,28,20.0,330.0,26.0,29.14,,,,,,,,,,,,,,,,,,,,,,,,,,,,,,,,,,,,,,,,,,,,,,,,,,,,,,,,,,,,,,,,,,,,,
KBUR,Burbank,,34.1808,-118.3089,2012-04-01 16:53:00,,CLR,10.0,,61,,,,31.0,,32,18.0,310.0,32.0,29.11,2.0,Falling Rapidly,,,,64.0,56.0,,,,,,,,,,,,,,,,,,,,,,,,,,,,,,,,,,,,,,,,,,,,,,,,,,,,,,,,,,,,,,
KBUR,Burbank,,34.1808,-118.3089,2012-04-01 17:53:00,,CLR,10.0,,60,,,,31.0,,33,12.0,310.0,25.0,29.13,,,,,,,,,,,,,,,,,,,,,,,,,,,,,,,,,,,,,,,,,,,,,,,,,,,,,,,,,,,,,,,,,,,,,
KBUR,Burbank,,34.1808,-118.3089,2012-04-01 18:53:00,,CLR,10.0,,58,,,,30.0,,35,14.0,310.0,24.0,29.16,,,,,,,,,,,,,,,,,,,,,,,,,,,,,,,,,,,,,,,,,,,,,,,,,,,,,,,,,,,,,,,,,,,,,
KBUR,Burbank,,34.1808,-118.3089,2012-04-01 19:53:00,,CLR,10.0,,56,,,,,,40,21.0,330.0,26.0,29.16,0.0,Steady,,,,,,,,,,,,,,,,,,,,,,,,,,,,,,,,,,,,,,,,,,,,,,,,,,,,,,,,,,,,,,,,,,,
KBUR,Burbank,,34.1808,-118.3089,2012-04-01 20:53:00,,CLR,10.0,,56,,,,,,40,18.0,340.0,26.0,29.17,,,,,,,,,,,,,,,,,,,,,,,,,,,,,,,,,,,,,,,,,,,,,,,,,,,,,,,,,,,,,,,,,,,,,
KBUR,Burbank,,34.1808,-118.3089,2012-04-01 21:53:00,,CLR,10.0,,55,,,,,,42,18.0,340.0,,29.18,,,,,,,,,,,,,,,,,,,,,,,,,,,,,,,,,,,,,,,,,,,,,,,,,,,,,,,,,,,,,,,,,,,,,
KBUR,Burbank,,34.1808,-118.3089,2012-04-01 22:53:00,,CLR,10.0,,56,,,,,,40,8.0,320.0,18.0,29.19,1.0,Rising Rapidly,,,,61.0,55.0,,,,,,,,,,,,,,,,,,,,,,,,,,,,,,,,,,,,,,,,,,,,,,,,,,,,,,,,,,,,,,
KBUR,Burbank,,34.1808,-118.3089,2012-04-01 23:53:00,,CLR,10.0,,55,,,,,,42,20.0,10.0,,29.19,,,,,,,,,,,,,,,,,,,,,,,,,,,,,,,,,,,,,,,,,,,,,,,,,,,,,,,,,,,,,,,,,,,,,
KBUR,Burbank,,34.1808,-118.3089,2012-04-02 00:53:00,,CLR,10.0,,55,,,,,,42,14.0,10.0,,29.19,,,,,,64.0,43.0,,,,,,,,,,,,,,,,,,,,,,,,,,,,,,,,,,,,,,,,,,,,,,,,,,,,,,,,,,,,,,
KBUR,Burbank,,34.1808,-118.3089,2012-04-02 01:53:00,,CLR,10.0,,56,,,,31.0,,39,16.0,360.0,,29.19,0.0,Steady,,,,,,,,,,,,,,,,,,,,,,,,,,,,,,,,,,,,,,,,,,,,,,,,,,,,,,,,,,,,,,,,,,,
KBUR,Burbank,,34.1808,-118.3089,2012-04-02 02:53:00,,CLR,10.0,,56,,,,30.0,,37,12.0,350.0,,29.18,,,,,,,,,,,,,,,,,,,,,,,,,,,,,,,,,,,,,,,,,,,,,,,,,,,,,,,,,,,,,,,,,,,,,
KBUR,Burbank,,34.1808,-118.3089,2012-04-02 03:53:00,,CLR,10.0,,54,,,,31.0,,41,10.0,250.0,,29.18,,,,,,,,,,,,,,,,,,,,,,,,,,,,,,,,,,,,,,,,,,,,,,,,,,,,,,,,,,,,,,,,,,,,,
KBUR,Burbank,,34.1808,-118.3089,2012-04-02 04:53:00,,CLR,10.0,,55,,,,30.0,,38,7.0,290.0,,29.17,2.0,Falling Rapidly,,,,57.0,54.0,,,,,,,,,,,,,,,,,,,,,,,,,,,,,,,,,,,,,,,,,,,,,,,,,,,,,,,,,,,,,,
KBUR,Burbank,,34.1808,-118.3089,2012-04-02 05:53:00,,CLR,10.0,,56,,,,29.0,,36,9.0,300.0,,29.17,,,,,,,,,,,,,,,,,,,,,,,,,,,,,,,,,,,,,,,,,,,,,,,,,,,,,,,,,,,,,,,,,,,,,
KBUR,Burbank,,34.1808,-118.3089,2012-04-02 06:53:00,,CLR,10.0,,57,,,,28.0,,33,16.0,330.0,,29.17,,,,,,,,,,,,,,,,,,,,,,,,,,,,,,,,,,,,,,,,,,,,,,,,,,,,,,,,,,,,,,,,,,,,,
KBUR,Burbank,,34.1808,-118.3089,2012-04-02 07:53:00,,CLR,10.0,,60,,,,25.0,,26,14.0,330.0,,29.17,1.0,Rising Rapidly,,,,,,,,,,,,,,,,,,,,,,,,,,,,,,,,,,,,,,,,,,,,,,,,,,,,,,,,,,,,,,,,,,,
KBUR,Burbank,,34.1808,-118.3089,2012-04-02 08:53:00,,CLR,10.0,,63,,,,24.0,,23,9.0,320.0,,29.18,,,,,,,,,,,,,,,,,,,,,,,,,,,,,,,,,,,,,,,,,,,,,,,,,,,,,,,,,,,,,,,,,,,,,
KBUR,Burbank,,34.1808,-118.3089,2012-04-02 09:53:00,,CLR,10.0,,68,,,,18.0,,15,,,,29.17,,,,,,,,,,,,,,,,,,,,,,,,,,,,,,,,,,,,,,,,,,,,,,,,,,,,,,,,,,,,,,,,,,,,,
KBUR,Burbank,,34.1808,-118.3089,2012-04-02 10:53:00,,CLR,10.0,,71,,,,21.0,,15,9.0,260.0,,29.15,2.0,Falling Rapidly,,,,71.0,55.0,,,,,,,,,,,,,,,,,,,,,,,,,,,,,,,,,,,,,,,,,,,,,,,,,,,,,,,,,,,,,,
KBUR,Burbank,,34.1808,-118.3089,2012-04-02 11:53:00,,CLR,10.0,,73,,,,19.0,,13,3.0,260.0,,29.13,,,,,,,,,,,,,,,,,,,,,,,,,,,,,,,,,,,,,,,,,,,,,,,,,,,,,,,,,,,,,,,,,,,,,
KBUR,Burbank,,34.1808,-118.3089,2012-04-02 12:53:00,,CLR,10.0,,73,,,,18.0,,12,7.0,,,29.1,,,,,,,,,,,,,,,,,,,,,,,,,,,,,,,,,,,,,,,,,,,,,,,,,,,,,,,,,,,,,,,,,,,,,
KBUR,Burbank,,34.1808,-118.3089,2012-04-02 13:53:00,,CLR,10.0,,77,,,,18.0,,11,10.0,300.0,,29.06,2.0,Falling Rapidly,,,,,,,,,,,,,,,,,,,,,,,,,,,,,,,,,,,,,,,,,,,,,,,,,,,,,,,,,,,,,,,,,,,
KBUR,Burbank,,34.1808,-118.3089,2012-04-02 14:53:00,,CLR,10.0,,78,,,,17.0,,10,14.0,300.0,21.0,29.03,,,,,,,,,,,,,,,,,,,,,,,,,,,,,,,,,,,,,,,,,,,,,,,,,,,,,,,,,,,,,,,,,,,,,
KBUR,Burbank,,34.1808,-118.3089,2012-04-02 15:17:00,,CLR,10.0,,77,,,,28.0,,17,15.0,100.0,,29.06,,,,,,,,,,,,,,,,,,,,,,,,,,,,,,,,,,,,,,,,,,,,,,,,,,,,,,,,,,,,,,,,,,,,,
KBUR,Burbank,,34.1808,-118.3089,2012-04-02 15:53:00,,CLR,10.0,,75,,,,31.0,,20,12.0,100.0,20.0,29.03,,,,,,,,,,,,,,,,,,,,,,,,,,,,,,,,,,,,,,,,,,,,,,,,,,,,,,,,,,,,,,,,,,,,,
KBUR,Burbank,,34.1808,-118.3089,2012-04-02 16:53:00,,CLR,10.0,,74,,,,31.0,,21,8.0,150.0,,29.02,2.0,Falling,,,,79.0,70.0,,,,,,,,,,,,,,,,,,,,,,,,,,,,,,,,,,,,,,,,,,,,,,,,,,,,,,,,,,,,,,
KBUR,Burbank,,34.1808,-118.3089,2012-04-02 17:53:00,,CLR,10.0,,72,,,,33.0,,24,10.0,140.0,,29.03,,,,,,,,,,,,,,,,,,,,,,,,,,,,,,,,,,,,,,,,,,,,,,,,,,,,,,,,,,,,,,,,,,,,,
KBUR,Burbank,,34.1808,-118.3089,2012-04-02 18:53:00,,CLR,10.0,,69,,,,34.0,,27,6.0,170.0,,29.05,,,,,,,,,,,,,,,,,,,,,,,,,,,,,,,,,,,,,,,,,,,,,,,,,,,,,,,,,,,,,,,,,,,,,
KBUR,Burbank,,34.1808,-118.3089,2012-04-02 19:53:00,,CLR,10.0,,68,,,,24.0,,19,5.0,260.0,,29.05,1.0,Rising Rapidly,,,,,,,,,,,,,,,,,,,,,,,,,,,,,,,,,,,,,,,,,,,,,,,,,,,,,,,,,,,,,,,,,,,
KBUR,Burbank,,34.1808,-118.3089,2012-04-02 20:53:00,,CLR,10.0,,65,,,,27.0,,24,,,,29.06,,,,,,,,,,,,,,,,,,,,,,,,,,,,,,,,,,,,,,,,,,,,,,,,,,,,,,,,,,,,,,,,,,,,,
KBUR,Burbank,,34.1808,-118.3089,2012-04-02 21:53:00,,CLR,10.0,,62,,,,31.0,,31,3.0,320.0,,29.07,,,,,,,,,,,,,,,,,,,,,,,,,,,,,,,,,,,,,,,,,,,,,,,,,,,,,,,,,,,,,,,,,,,,,
KBUR,Burbank,,34.1808,-118.3089,2012-04-02 22:53:00,,CLR,10.0,,61,,,,,,34,6.0,100.0,,29.09,1.0,Rising Rapidly,,,,75.0,60.0,,,,,,,,,,,,,,,,,,,,,,,,,,,,,,,,,,,,,,,,,,,,,,,,,,,,,,,,,,,,,,
KBUR,Burbank,,34.1808,-118.3089,2012-04-02 23:53:00,,CLR,10.0,,60,,,,34.0,,38,3.0,80.0,,29.09,,,,,,,,,,,,,,,,,,,,,,,,,,,,,,,,,,,,,,,,,,,,,,,,,,,,,,,,,,,,,,,,,,,,,
KBUR,Burbank,,34.1808,-118.3089,2012-04-03 00:53:00,,CLR,10.0,,57,,,,34.0,,42,,,,29.1,,,,,,79.0,54.0,,,,,,,,,,,,,,,,,,,,,,,,,,,,,,,,,,,,,,,,,,,,,,,,,,,,,,,,,,,,,,
KBUR,Burbank,,34.1808,-118.3089,2012-04-03 01:53:00,,CLR,10.0,,56,,,,33.0,,42,6.0,300.0,,29.1,1.0,Rising,,,,,,,,,,,,,,,,,,,,,,,,,,,,,,,,,,,,,,,,,,,,,,,,,,,,,,,,,,,,,,,,,,,
KBUR,Burbank,,34.1808,-118.3089,2012-04-03 02:53:00,,CLR,10.0,,54,,,,,,43,3.0,10.0,,29.1,,,,,,,,,,,,,,,,,,,,,,,,,,,,,,,,,,,,,,,,,,,,,,,,,,,,,,,,,,,,,,,,,,,,,
KBUR,Burbank,,34.1808,-118.3089,2012-04-03 03:53:00,,CLR,10.0,,51,,,,34.0,,52,,,,29.1,,,,,,,,,,,,,,,,,,,,,,,,,,,,,,,,,,,,,,,,,,,,,,,,,,,,,,,,,,,,,,,,,,,,,
KBUR,Burbank,,34.1808,-118.3089,2012-04-03 04:53:00,,CLR,10.0,,50,,,,35.0,,57,,,,29.11,1.0,Rising Rapidly,,,,61.0,50.0,,,,,,,,,,,,,,,,,,,,,,,,,,,,,,,,,,,,,,,,,,,,,,,,,,,,,,,,,,,,,,
KBUR,Burbank,,34.1808,-118.3089,2012-04-03 05:53:00,,CLR,10.0,,51,,,,34.0,,52,,,,29.11,,,,,,,,,,,,,,,,,,,,,,,,,,,,,,,,,,,,,,,,,,,,,,,,,,,,,,,,,,,,,,,,,,,,,
KBUR,Burbank,,34.1808,-118.3089,2012-04-03 06:53:00,,CLR,10.0,,50,,,,35.0,,57,,,,29.12,,,,,,,,,,,,,,,,,,,,,,,,,,,,,,,,,,,,,,,,,,,,,,,,,,,,,,,,,,,,,,,,,,,,,
KBUR,Burbank,,34.1808,-118.3089,2012-04-03 07:53:00,,CLR,10.0,,54,,,,34.0,,47,3.0,160.0,,29.14,1.0,Rising Rapidly,,,,,,,,,,,,,,,,,,,,,,,,,,,,,,,,,,,,,,,,,,,,,,,,,,,,,,,,,,,,,,,,,,,
KBUR,Burbank,,34.1808,-118.3089,2012-04-03 08:53:00,,CLR,10.0,,58,,,,34.0,,41,3.0,150.0,,29.15,,,,,,,,,,,,,,,,,,,,,,,,,,,,,,,,,,,,,,,,,,,,,,,,,,,,,,,,,,,,,,,,,,,,,
KBUR,Burbank,,34.1808,-118.3089,2012-04-03 09:53:00,,CLR,10.0,,65,,,,34.0,,32,3.0,140.0,,29.14,,,,,,,,,,,,,,,,,,,,,,,,,,,,,,,,,,,,,,,,,,,,,,,,,,,,,,,,,,,,,,,,,,,,,
KBUR,Burbank,,34.1808,-118.3089,2012-04-03 10:53:00,,CLR,10.0,,69,,,,,,25,5.0,,,29.15,1.0,Rising,,,,69.0,49.0,,,,,,,,,,,,,,,,,,,,,,,,,,,,,,,,,,,,,,,,,,,,,,,,,,,,,,,,,,,,,,
KBUR,Burbank,,34.1808,-118.3089,2012-04-03 11:53:00,,CLR,10.0,,73,,,,28.0,,19,5.0,,,29.13,,,,,,,,,,,,,,,,,,,,,,,,,,,,,,,,,,,,,,,,,,,,,,,,,,,,,,,,,,,,,,,,,,,,,
KBUR,Burbank,,34.1808,-118.3089,2012-04-03 12:53:00,,CLR,10.0,,75,,,,29.0,,18,8.0,190.0,,29.11,,,,,,,,,,,,,,,,,,,,,,,,,,,,,,,,,,,,,,,,,,,,,,,,,,,,,,,,,,,,,,,,,,,,,
KBUR,Burbank,,34.1808,-118.3089,2012-04-03 13:53:00,,CLR,10.0,,77,,,,26.0,,15,10.0,190.0,,29.09,2.0,Falling Rapidly,,,,,,,,,,,,,,,,,,,,,,,,,,,,,,,,,,,,,,,,,,,,,,,,,,,,,,,,,,,,,,,,,,,
KBUR,Burbank,,34.1808,-118.3089,2012-04-03 14:53:00,,CLR,10.0,,77,,,,25.0,,15,12.0,180.0,,29.08,,,,,,,,,,,,,,,,,,,,,,,,,,,,,,,,,,,,,,,,,,,,,,,,,,,,,,,,,,,,,,,,,,,,,
KBUR,Burbank,,34.1808,-118.3089,2012-04-03 15:53:00,,CLR,10.0,,76,,,,26.0,,16,12.0,170.0,,29.07,,,,,,,,,,,,,,,,,,,,,,,,,,,,,,,,,,,,,,,,,,,,,,,,,,,,,,,,,,,,,,,,,,,,,
KBUR,Burbank,,34.1808,-118.3089,2012-04-03 16:53:00,,CLR,10.0,,74,,,,28.0,,18,8.0,170.0,,29.07,2.0,Falling,,,,77.0,69.0,,,,,,,,,,,,,,,,,,,,,,,,,,,,,,,,,,,,,,,,,,,,,,,,,,,,,,,,,,,,,,
KBUR,Burbank,,34.1808,-118.3089,2012-04-03 17:53:00,,CLR,10.0,,73,,,,,,22,8.0,120.0,,29.07,,,,,,,,,,,,,,,,,,,,,,,,,,,,,,,,,,,,,,,,,,,,,,,,,,,,,,,,,,,,,,,,,,,,,
KBUR,Burbank,,34.1808,-118.3089,2012-04-03 18:53:00,,CLR,10.0,,69,,,,35.0,,29,6.0,160.0,,29.08,,,,,,,,,,,,,,,,,,,,,,,,,,,,,,,,,,,,,,,,,,,,,,,,,,,,,,,,,,,,,,,,,,,,,
KBUR,Burbank,,34.1808,-118.3089,2012-04-03 19:53:00,,CLR,10.0,,66,,,,35.0,,32,6.0,150.0,,29.09,1.0,Rising Rapidly,,,,,,,,,,,,,,,,,,,,,,,,,,,,,,,,,,,,,,,,,,,,,,,,,,,,,,,,,,,,,,,,,,,
KBUR,Burbank,,34.1808,-118.3089,2012-04-03 20:53:00,,CLR,10.0,,64,,,,39.0,,40,,,,29.12,,,,,,,,,,,,,,,,,,,,,,,,,,,,,,,,,,,,,,,,,,,,,,,,,,,,,,,,,,,,,,,,,,,,,
KBUR,Burbank,,34.1808,-118.3089,2012-04-03 21:53:00,,CLR,10.0,,61,,,,44.0,,54,,,,29.14,,,,,,,,,,,,,,,,,,,,,,,,,,,,,,,,,,,,,,,,,,,,,,,,,,,,,,,,,,,,,,,,,,,,,
KBUR,Burbank,,34.1808,-118.3089,2012-04-03 22:53:00,,CLR,10.0,,60,,,,39.0,,46,,,,29.13,1.0,Rising,,,,75.0,60.0,,,,,,,,,,,,,,,,,,,,,,,,,,,,,,,,,,,,,,,,,,,,,,,,,,,,,,,,,,,,,,
KBUR,Burbank,,34.1808,-118.3089,2012-04-03 23:53:00,,CLR,10.0,,58,,,,38.0,,47,,,,29.13,,,,,,,,,,,,,,,,,,,,,,,,,,,,,,,,,,,,,,,,,,,,,,,,,,,,,,,,,,,,,,,,,,,,,
KBUR,Burbank,,34.1808,-118.3089,2012-04-04 00:53:00,,CLR,10.0,,56,,,,39.0,,53,,,,29.11,,,,,,77.0,49.0,,,,,,,,,,,,,,,,,,,,,,,,,,,,,,,,,,,,,,,,,,,,,,,,,,,,,,,,,,,,,,
KBUR,Burbank,,34.1808,-118.3089,2012-04-04 01:53:00,,CLR,10.0,,54,,,,40.0,,59,,,,29.1,2.0,Falling,,,,,,,,,,,,,,,,,,,,,,,,,,,,,,,,,,,,,,,,,,,,,,,,,,,,,,,,,,,,,,,,,,,
KBUR,Burbank,,34.1808,-118.3089,2012-04-04 02:53:00,,CLR,10.0,,56,,,,41.0,,57,3.0,110.0,,29.08,,,,,,,,,,,,,,,,,,,,,,,,,,,,,,,,,,,,,,,,,,,,,,,,,,,,,,,,,,,,,,,,,,,,,
KBUR,Burbank,,34.1808,-118.3089,2012-04-04 03:53:00,,CLR,10.0,,53,,,,37.0,,55,7.0,340.0,,29.09,,,,,,,,,,,,,,,,,,,,,,,,,,,,,,,,,,,,,,,,,,,,,,,,,,,,,,,,,,,,,,,,,,,,,
KBUR,Burbank,,34.1808,-118.3089,2012-04-04 04:53:00,,CLR,10.0,,54,,,,39.0,,57,,,,29.09,2.0,Falling,,,,60.0,53.0,,,,,,,,,,,,,,,,,,,,,,,,,,,,,,,,,,,,,,,,,,,,,,,,,,,,,,,,,,,,,,
KBUR,Burbank,,34.1808,-118.3089,2012-04-04 05:53:00,,CLR,10.0,,51,,,,38.0,,61,,,,29.09,,,,,,,,,,,,,,,,,,,,,,,,,,,,,,,,,,,,,,,,,,,,,,,,,,,,,,,,,,,,,,,,,,,,,
KBUR,Burbank,,34.1808,-118.3089,2012-04-04 06:53:00,,CLR,10.0,,50,,,,39.0,,66,,,,29.1,,,,,,,,,,,,,,,,,,,,,,,,,,,,,,,,,,,,,,,,,,,,,,,,,,,,,,,,,,,,,,,,,,,,,
KBUR,Burbank,,34.1808,-118.3089,2012-04-04 07:53:00,,CLR,10.0,,56,,,,39.0,,53,,,,29.12,1.0,Rising Rapidly,,,,,,,,,,,,,,,,,,,,,,,,,,,,,,,,,,,,,,,,,,,,,,,,,,,,,,,,,,,,,,,,,,,
KBUR,Burbank,,34.1808,-118.3089,2012-04-04 08:53:00,,CLR,10.0,,59,,,,40.0,,49,3.0,130.0,,29.12,,,,,,,,,,,,,,,,,,,,,,,,,,,,,,,,,,,,,,,,,,,,,,,,,,,,,,,,,,,,,,,,,,,,,
KBUR,Burbank,,34.1808,-118.3089,2012-04-04 09:53:00,,CLR,10.0,,63,,,,39.0,,41,,,,29.13,,,,,,,,,,,,,,,,,,,,,,,,,,,,,,,,,,,,,,,,,,,,,,,,,,,,,,,,,,,,,,,,,,,,,
KBUR,Burbank,,34.1808,-118.3089,2012-04-04 10:53:00,,CLR,10.0,,68,,,,36.0,,31,6.0,150.0,,29.12,0.0,Steady,,,,68.0,50.0,,,,,,,,,,,,,,,,,,,,,,,,,,,,,,,,,,,,,,,,,,,,,,,,,,,,,,,,,,,,,,
KBUR,Burbank,,34.1808,-118.3089,2012-04-04 11:53:00,,CLR,10.0,,70,,,,35.0,,28,7.0,170.0,,29.11,,,,,,,,,,,,,,,,,,,,,,,,,,,,,,,,,,,,,,,,,,,,,,,,,,,,,,,,,,,,,,,,,,,,,
KBUR,Burbank,,34.1808,-118.3089,2012-04-04 12:53:00,,CLR,10.0,,72,,,,40.0,,31,10.0,180.0,,29.09,,,,,,,,,,,,,,,,,,,,,,,,,,,,,,,,,,,,,,,,,,,,,,,,,,,,,,,,,,,,,,,,,,,,,
KBUR,Burbank,,34.1808,-118.3089,2012-04-04 13:53:00,,CLR,10.0,,72,,,,41.0,,33,8.0,170.0,,29.08,2.0,Falling Rapidly,,,,,,,,,,,,,,,,,,,,,,,,,,,,,,,,,,,,,,,,,,,,,,,,,,,,,,,,,,,,,,,,,,,
KBUR,Burbank,,34.1808,-118.3089,2012-04-04 14:53:00,,CLR,10.0,,71,,,,41.0,,34,8.0,180.0,,29.06,,,,,,,,,,,,,,,,,,,,,,,,,,,,,,,,,,,,,,,,,,,,,,,,,,,,,,,,,,,,,,,,,,,,,
KBUR,Burbank,,34.1808,-118.3089,2012-04-04 15:53:00,,CLR,10.0,,71,,,,42.0,,35,10.0,180.0,,29.04,,,,,,,,,,,,,,,,,,,,,,,,,,,,,,,,,,,,,,,,,,,,,,,,,,,,,,,,,,,,,,,,,,,,,
KBUR,Burbank,,34.1808,-118.3089,2012-04-04 16:53:00,,CLR,10.0,,70,,,,39.0,,32,10.0,180.0,,29.03,2.0,Falling,,,,73.0,68.0,,,,,,,,,,,,,,,,,,,,,,,,,,,,,,,,,,,,,,,,,,,,,,,,,,,,,,,,,,,,,,
KBUR,Burbank,,34.1808,-118.3089,2012-04-04 17:53:00,,CLR,10.0,,69,,,,40.0,,35,9.0,170.0,,29.02,,,,,,,,,,,,,,,,,,,,,,,,,,,,,,,,,,,,,,,,,,,,,,,,,,,,,,,,,,,,,,,,,,,,,
KBUR,Burbank,,34.1808,-118.3089,2012-04-04 18:53:00,,CLR,10.0,,66,,,,37.0,,34,6.0,200.0,,29.03,,,,,,,,,,,,,,,,,,,,,,,,,,,,,,,,,,,,,,,,,,,,,,,,,,,,,,,,,,,,,,,,,,,,,
KBUR,Burbank,,34.1808,-118.3089,2012-04-04 19:53:00,,CLR,10.0,,63,,,,42.0,,46,5.0,140.0,,29.03,0.0,Steady,,,,,,,,,,,,,,,,,,,,,,,,,,,,,,,,,,,,,,,,,,,,,,,,,,,,,,,,,,,,,,,,,,,
KBUR,Burbank,,34.1808,-118.3089,2012-04-04 20:53:00,,CLR,10.0,,62,,,,43.0,,50,3.0,190.0,,29.04,,,,,,,,,,,,,,,,,,,,,,,,,,,,,,,,,,,,,,,,,,,,,,,,,,,,,,,,,,,,,,,,,,,,,
KBUR,Burbank,,34.1808,-118.3089,2012-04-04 21:53:00,,CLR,10.0,,59,,,,46.0,,62,3.0,180.0,,29.06,,,,,,,,,,,,,,,,,,,,,,,,,,,,,,,,,,,,,,,,,,,,,,,,,,,,,,,,,,,,,,,,,,,,,
KBUR,Burbank,,34.1808,-118.3089,2012-04-04 22:53:00,,CLR,10.0,,58,,,,47.0,,67,3.0,130.0,,29.05,0.0,Steady,,,,71.0,58.0,,,,,,,,,,,,,,,,,,,,,,,,,,,,,,,,,,,,,,,,,,,,,,,,,,,,,,,,,,,,,,
KBUR,Burbank,,34.1808,-118.3089,2012-04-04 23:53:00,,CLR,10.0,,56,,,,46.0,,69,3.0,100.0,,29.05,,,,,,,,,,,,,,,,,,,,,,,,,,,,,,,,,,,,,,,,,,,,,,,,,,,,,,,,,,,,,,,,,,,,,
KBUR,Burbank,,34.1808,-118.3089,2012-04-05 00:53:00,,CLR,10.0,,55,,,,46.0,,72,6.0,140.0,,29.05,,,,,,73.0,50.0,,,,,,,,,,,,,,,,,,,,,,,,,,,,,,,,,,,,,,,,,,,,,,,,,,,,,,,,,,,,,,
KBUR,Burbank,,34.1808,-118.3089,2012-04-05 01:53:00,,CLR,10.0,,55,,,,47.0,,74,,,,29.05,2.0,Falling Rapidly,,,,,,,,,,,,,,,,,,,,,,,,,,,,,,,,,,,,,,,,,,,,,,,,,,,,,,,,,,,,,,,,,,,
KBUR,Burbank,,34.1808,-118.3089,2012-04-05 02:53:00,,CLR,10.0,,53,,,,46.0,,77,,,,29.03,,,,,,,,,,,,,,,,,,,,,,,,,,,,,,,,,,,,,,,,,,,,,,,,,,,,,,,,,,,,,,,,,,,,,
KBUR,Burbank,,34.1808,-118.3089,2012-04-05 03:53:00,,CLR,10.0,,52,,,,43.0,,71,,,,29.03,,,,,,,,,,,,,,,,,,,,,,,,,,,,,,,,,,,,,,,,,,,,,,,,,,,,,,,,,,,,,,,,,,,,,
KBUR,Burbank,,34.1808,-118.3089,2012-04-05 04:53:00,,CLR,10.0,,51,,,,42.0,,71,,,,29.02,2.0,Falling,,,,58.0,50.0,,,,,,,,,,,,,,,,,,,,,,,,,,,,,,,,,,,,,,,,,,,,,,,,,,,,,,,,,,,,,,
KBUR,Burbank,,34.1808,-118.3089,2012-04-05 05:53:00,,CLR,10.0,,49,,,,42.0,,77,,,,29.03,,,,,,,,,,,,,,,,,,,,,,,,,,,,,,,,,,,,,,,,,,,,,,,,,,,,,,,,,,,,,,,,,,,,,
KBUR,Burbank,,34.1808,-118.3089,2012-04-05 06:53:00,,CLR,10.0,,49,,,,42.0,,77,,,,29.04,,,,,,,,,,,,,,,,,,,,,,,,,,,,,,,,,,,,,,,,,,,,,,,,,,,,,,,,,,,,,,,,,,,,,
KBUR,Burbank,,34.1808,-118.3089,2012-04-05 07:53:00,,CLR,10.0,,52,,,,42.0,,69,,,,29.05,1.0,Rising Rapidly,,,,,,,,,,,,,,,,,,,,,,,,,,,,,,,,,,,,,,,,,,,,,,,,,,,,,,,,,,,,,,,,,,,
KBUR,Burbank,,34.1808,-118.3089,2012-04-05 08:53:00,,CLR,10.0,,55,,,,42.0,,62,,,,29.06,,,,,,,,,,,,,,,,,,,,,,,,,,,,,,,,,,,,,,,,,,,,,,,,,,,,,,,,,,,,,,,,,,,,,
KBUR,Burbank,,34.1808,-118.3089,2012-04-05 09:53:00,,CLR,10.0,,59,,,,37.0,,44,,,,29.07,,,,,,,,,,,,,,,,,,,,,,,,,,,,,,,,,,,,,,,,,,,,,,,,,,,,,,,,,,,,,,,,,,,,,
KBUR,Burbank,,34.1808,-118.3089,2012-04-05 10:53:00,,CLR,10.0,,62,,,,30.0,,30,6.0,270.0,,29.08,1.0,Rising Rapidly,,,,62.0,49.0,,,,,,,,,,,,,,,,,,,,,,,,,,,,,,,,,,,,,,,,,,,,,,,,,,,,,,,,,,,,,,
KBUR,Burbank,,34.1808,-118.3089,2012-04-05 11:53:00,,CLR,10.0,,64,,,,,,30,,,,29.07,,,,,,,,,,,,,,,,,,,,,,,,,,,,,,,,,,,,,,,,,,,,,,,,,,,,,,,,,,,,,,,,,,,,,
KBUR,Burbank,,34.1808,-118.3089,2012-04-05 12:53:00,,CLR,10.0,,64,,,,42.0,,45,13.0,180.0,21.0,29.05,,,,,,,,,,,,,,,,,,,,,,,,,,,,,,,,,,,,,,,,,,,,,,,,,,,,,,,,,,,,,,,,,,,,,
KBUR,Burbank,,34.1808,-118.3089,2012-04-05 13:53:00,,CLR,10.0,,64,,,,42.0,,45,12.0,210.0,,29.04,2.0,Falling,,,,,,,,,,,,,,,,,,,,,,,,,,,,,,,,,,,,,,,,,,,,,,,,,,,,,,,,,,,,,,,,,,,
KBUR,Burbank,,34.1808,-118.3089,2012-04-05 14:53:00,,FEW,10.0,,64,,,,40.0,,41,14.0,160.0,,29.04,,,,,,,,,,,,,,,,,,,,,,,,,,,,,,,,,,,,,,,,,,,,,,,,,,,,,,,,,,,,,,,,,,,,,
KBUR,Burbank,,34.1808,-118.3089,2012-04-05 15:53:00,,FEW,10.0,,64,,,,27.0,,25,12.0,200.0,,29.04,,,,,,,,,,,,,,,,,,,,,,,,,,,,,,,,,,,,,,,,,,,,,,,,,,,,,,,,,,,,,,,,,,,,,
KBUR,Burbank,,34.1808,-118.3089,2012-04-05 16:53:00,,CLR,10.0,,63,,,,28.0,,27,10.0,170.0,,29.05,1.0,Rising Rapidly,,,,65.0,61.0,,,,,,,,,,,,,,,,,,,,,,,,,,,,,,,,,,,,,,,,,,,,,,,,,,,,,,,,,,,,,,
KBUR,Burbank,,34.1808,-118.3089,2012-04-05 17:53:00,,CLR,10.0,,61,,,,36.0,,39,9.0,160.0,,29.06,,,,,,,,,,,,,,,,,,,,,,,,,,,,,,,,,,,,,,,,,,,,,,,,,,,,,,,,,,,,,,,,,,,,,
KBUR,Burbank,,34.1808,-118.3089,2012-04-05 18:53:00,,CLR,10.0,,59,,,,39.0,,48,10.0,120.0,,29.07,,,,,,,,,,,,,,,,,,,,,,,,,,,,,,,,,,,,,,,,,,,,,,,,,,,,,,,,,,,,,,,,,,,,,
KBUR,Burbank,,34.1808,-118.3089,2012-04-05 19:53:00,,CLR,10.0,,55,,,,42.0,,62,7.0,140.0,,29.09,1.0,Rising Rapidly,,,,,,,,,,,,,,,,,,,,,,,,,,,,,,,,,,,,,,,,,,,,,,,,,,,,,,,,,,,,,,,,,,,
KBUR,Burbank,,34.1808,-118.3089,2012-04-05 20:53:00,,CLR,10.0,,54,,,,42.0,,64,5.0,170.0,,29.12,,,,,,,,,,,,,,,,,,,,,,,,,,,,,,,,,,,,,,,,,,,,,,,,,,,,,,,,,,,,,,,,,,,,,
KBUR,Burbank,,34.1808,-118.3089,2012-04-05 21:53:00,,CLR,10.0,,53,,,,42.0,,66,,,,29.14,,,,,,,,,,,,,,,,,,,,,,,,,,,,,,,,,,,,,,,,,,,,,,,,,,,,,,,,,,,,,,,,,,,,,
KBUR,Burbank,,34.1808,-118.3089,2012-04-05 22:53:00,,CLR,10.0,,55,,,,22.0,,28,10.0,340.0,,29.15,1.0,Rising,,,,63.0,53.0,,,,,,,,,,,,,,,,,,,,,,,,,,,,,,,,,,,,,,,,,,,,,,,,,,,,,,,,,,,,,,
KBUR,Burbank,,34.1808,-118.3089,2012-04-05 23:53:00,,CLR,10.0,,54,,,,21.0,,28,14.0,330.0,,29.17,,,,,,,,,,,,,,,,,,,,,,,,,,,,,,,,,,,,,,,,,,,,,,,,,,,,,,,,,,,,,,,,,,,,,
KBUR,Burbank,,34.1808,-118.3089,2012-04-06 00:53:00,,CLR,10.0,,53,,,,17.0,,24,16.0,340.0,23.0,29.17,,,,,,65.0,49.0,,,,,,,,,,,,,,,,,,,,,,,,,,,,,,,,,,,,,,,,,,,,,,,,,,,,,,,,,,,,,,
KBUR,Burbank,,34.1808,-118.3089,2012-04-06 01:53:00,,CLR,10.0,,52,,,,19.0,,27,14.0,340.0,,29.18,1.0,Rising Rapidly,,,,,,,,,,,,,,,,,,,,,,,,,,,,,,,,,,,,,,,,,,,,,,,,,,,,,,,,,,,,,,,,,,,
KBUR,Burbank,,34.1808,-118.3089,2012-04-06 02:53:00,,CLR,10.0,,51,,,,18.0,,27,23.0,330.0,,29.17,,,,,,,,,,,,,,,,,,,,,,,,,,,,,,,,,,,,,,,,,,,,,,,,,,,,,,,,,,,,,,,,,,,,,
KBUR,Burbank,,34.1808,-118.3089,2012-04-06 03:53:00,,CLR,10.0,,51,,,,18.0,,27,22.0,330.0,28.0,29.17,,,,,,,,,,,,,,,,,,,,,,,,,,,,,,,,,,,,,,,,,,,,,,,,,,,,,,,,,,,,,,,,,,,,,
KBUR,Burbank,,34.1808,-118.3089,2012-04-06 04:53:00,,CLR,10.0,,51,,,,17.0,,26,13.0,310.0,,29.17,0.0,Steady,,,,55.0,51.0,,,,,,,,,,,,,,,,,,,,,,,,,,,,,,,,,,,,,,,,,,,,,,,,,,,,,,,,,,,,,,
KBUR,Burbank,,34.1808,-118.3089,2012-04-06 05:53:00,,CLR,10.0,,50,,,,16.0,,26,3.0,30.0,,29.19,,,,,,,,,,,,,,,,,,,,,,,,,,,,,,,,,,,,,,,,,,,,,,,,,,,,,,,,,,,,,,,,,,,,,
KBUR,Burbank,,34.1808,-118.3089,2012-04-06 06:53:00,,CLR,10.0,,47,,,,18.0,,32,,,,29.21,,,,,,,,,,,,,,,,,,,,,,,,,,,,,,,,,,,,,,,,,,,,,,,,,,,,,,,,,,,,,,,,,,,,,
KBUR,Burbank,,34.1808,-118.3089,2012-04-06 07:53:00,,CLR,10.0,,50,,,,21.0,,32,,,,29.24,1.0,Rising Rapidly,,,,,,,,,,,,,,,,,,,,,,,,,,,,,,,,,,,,,,,,,,,,,,,,,,,,,,,,,,,,,,,,,,,
KBUR,Burbank,,34.1808,-118.3089,2012-04-06 08:53:00,,CLR,10.0,,53,,,,25.0,,34,,,,29.24,,,,,,,,,,,,,,,,,,,,,,,,,,,,,,,,,,,,,,,,,,,,,,,,,,,,,,,,,,,,,,,,,,,,,
KBUR,Burbank,,34.1808,-118.3089,2012-04-06 09:53:00,,CLR,10.0,,56,,,,30.0,,37,3.0,170.0,,29.23,,,,,,,,,,,,,,,,,,,,,,,,,,,,,,,,,,,,,,,,,,,,,,,,,,,,,,,,,,,,,,,,,,,,,
KBUR,Burbank,,34.1808,-118.3089,2012-04-06 10:53:00,,CLR,10.0,,60,,,,26.0,,27,3.0,170.0,,29.23,2.0,Falling Rapidly,,,,60.0,46.0,,,,,,,,,,,,,,,,,,,,,,,,,,,,,,,,,,,,,,,,,,,,,,,,,,,,,,,,,,,,,,
KBUR,Burbank,,34.1808,-118.3089,2012-04-06 11:53:00,,CLR,10.0,,62,,,,19.0,,19,,,,29.23,,,,,,,,,,,,,,,,,,,,,,,,,,,,,,,,,,,,,,,,,,,,,,,,,,,,,,,,,,,,,,,,,,,,,
KBUR,Burbank,,34.1808,-118.3089,2012-04-06 12:53:00,,CLR,10.0,,67,,,,22.0,,18,5.0,,,29.21,,,,,,,,,,,,,,,,,,,,,,,,,,,,,,,,,,,,,,,,,,,,,,,,,,,,,,,,,,,,,,,,,,,,,
KBUR,Burbank,,34.1808,-118.3089,2012-04-06 13:53:00,,CLR,10.0,,69,,,,17.0,,14,3.0,,,29.18,2.0,Falling Rapidly,,,,,,,,,,,,,,,,,,,,,,,,,,,,,,,,,,,,,,,,,,,,,,,,,,,,,,,,,,,,,,,,,,,
KBUR,Burbank,,34.1808,-118.3089,2012-04-06 14:53:00,,CLR,10.0,,71,,,,16.0,,12,3.0,,,29.16,,,,,,,,,,,,,,,,,,,,,,,,,,,,,,,,,,,,,,,,,,,,,,,,,,,,,,,,,,,,,,,,,,,,,
KBUR,Burbank,,34.1808,-118.3089,2012-04-06 15:53:00,,CLR,10.0,,73,,,,18.0,,12,9.0,170.0,,29.13,,,,,,,,,,,,,,,,,,,,,,,,,,,,,,,,,,,,,,,,,,,,,,,,,,,,,,,,,,,,,,,,,,,,,
KBUR,Burbank,,34.1808,-118.3089,2012-04-06 16:53:00,,CLR,10.0,,73,,,,24.0,,16,8.0,170.0,,29.12,2.0,Falling,,,,74.0,60.0,,,,,,,,,,,,,,,,,,,,,,,,,,,,,,,,,,,,,,,,,,,,,,,,,,,,,,,,,,,,,,
KBUR,Burbank,,34.1808,-118.3089,2012-04-06 17:53:00,,CLR,10.0,,72,,,,25.0,,17,8.0,160.0,,29.12,,,,,,,,,,,,,,,,,,,,,,,,,,,,,,,,,,,,,,,,,,,,,,,,,,,,,,,,,,,,,,,,,,,,,
KBUR,Burbank,,34.1808,-118.3089,2012-04-06 18:53:00,,CLR,10.0,,69,,,,27.0,,21,5.0,190.0,,29.13,,,,,,,,,,,,,,,,,,,,,,,,,,,,,,,,,,,,,,,,,,,,,,,,,,,,,,,,,,,,,,,,,,,,,
KBUR,Burbank,,34.1808,-118.3089,2012-04-06 19:53:00,,CLR,10.0,,66,,,,30.0,,26,,,,29.13,1.0,Rising Rapidly,,,,,,,,,,,,,,,,,,,,,,,,,,,,,,,,,,,,,,,,,,,,,,,,,,,,,,,,,,,,,,,,,,,
KBUR,Burbank,,34.1808,-118.3089,2012-04-06 20:53:00,,CLR,10.0,,64,,,,30.0,,28,,,,29.15,,,,,,,,,,,,,,,,,,,,,,,,,,,,,,,,,,,,,,,,,,,,,,,,,,,,,,,,,,,,,,,,,,,,,
KBUR,Burbank,,34.1808,-118.3089,2012-04-06 21:53:00,,CLR,10.0,,62,,,,30.0,,30,,,,29.17,,,,,,,,,,,,,,,,,,,,,,,,,,,,,,,,,,,,,,,,,,,,,,,,,,,,,,,,,,,,,,,,,,,,,
KBUR,Burbank,,34.1808,-118.3089,2012-04-06 22:53:00,,CLR,10.0,,59,,,,24.0,,26,3.0,340.0,,29.18,1.0,Rising,,,,73.0,59.0,,,,,,,,,,,,,,,,,,,,,,,,,,,,,,,,,,,,,,,,,,,,,,,,,,,,,,,,,,,,,,
KBUR,Burbank,,34.1808,-118.3089,2012-04-06 23:53:00,,CLR,10.0,,58,,,,24.0,,27,,,,29.17,,,,,,,,,,,,,,,,,,,,,,,,,,,,,,,,,,,,,,,,,,,,,,,,,,,,,,,,,,,,,,,,,,,,,
KBUR,Burbank,,34.1808,-118.3089,2012-04-07 00:53:00,,CLR,10.0,,56,,,,22.0,,27,,,,29.17,,,,,,74.0,46.0,,,,,,,,,,,,,,,,,,,,,,,,,,,,,,,,,,,,,,,,,,,,,,,,,,,,,,,,,,,,,,
KBUR,Burbank,,34.1808,-118.3089,2012-04-07 01:53:00,,CLR,10.0,,57,,,,16.0,,20,,,,29.17,2.0,Falling Rapidly,,,,,,,,,,,,,,,,,,,,,,,,,,,,,,,,,,,,,,,,,,,,,,,,,,,,,,,,,,,,,,,,,,,
KBUR,Burbank,,34.1808,-118.3089,2012-04-07 02:53:00,,CLR,10.0,,53,,,,23.0,,31,,,,29.17,,,,,,,,,,,,,,,,,,,,,,,,,,,,,,,,,,,,,,,,,,,,,,,,,,,,,,,,,,,,,,,,,,,,,
KBUR,Burbank,,34.1808,-118.3089,2012-04-07 03:53:00,,CLR,10.0,,53,,,,18.0,,25,3.0,10.0,,29.17,,,,,,,,,,,,,,,,,,,,,,,,,,,,,,,,,,,,,,,,,,,,,,,,,,,,,,,,,,,,,,,,,,,,,
KBUR,Burbank,,34.1808,-118.3089,2012-04-07 04:53:00,,CLR,10.0,,51,,,,20.0,,29,,,,29.16,2.0,Falling,,,,59.0,51.0,,,,,,,,,,,,,,,,,,,,,,,,,,,,,,,,,,,,,,,,,,,,,,,,,,,,,,,,,,,,,,
KBUR,Burbank,,34.1808,-118.3089,2012-04-07 05:53:00,,CLR,10.0,,52,,,,18.0,,26,,,,29.17,,,,,,,,,,,,,,,,,,,,,,,,,,,,,,,,,,,,,,,,,,,,,,,,,,,,,,,,,,,,,,,,,,,,,
KBUR,Burbank,,34.1808,-118.3089,2012-04-07 06:53:00,,CLR,10.0,,54,,,,15.0,,22,,,,29.17,,,,,,,,,,,,,,,,,,,,,,,,,,,,,,,,,,,,,,,,,,,,,,,,,,,,,,,,,,,,,,,,,,,,,
KBUR,Burbank,,34.1808,-118.3089,2012-04-07 07:13:00,,CLR,10.0,,55,,,,12.0,,18,8.0,310.0,,29.2,,,,,,,,,,,,,,,,,,,,,,,,,,,,,,,,,,,,,,,,,,,,,,,,,,,,,,,,,,,,,,,,,,,,,
KBUR,Burbank,,34.1808,-118.3089,2012-04-07 07:53:00,,CLR,10.0,,57,,,,15.0,,19,8.0,300.0,,29.19,1.0,Rising Rapidly,,,,,,,,,,,,,,,,,,,,,,,,,,,,,,,,,,,,,,,,,,,,,,,,,,,,,,,,,,,,,,,,,,,
KBUR,Burbank,,34.1808,-118.3089,2012-04-07 08:33:00,,CLR,10.0,,61,,,,16.0,,17,,,,29.23,,,,,,,,,,,,,,,,,,,,,,,,,,,,,,,,,,,,,,,,,,,,,,,,,,,,,,,,,,,,,,,,,,,,,
KBUR,Burbank,,34.1808,-118.3089,2012-04-07 08:53:00,,CLR,10.0,,61,,,,19.0,,20,,,,29.19,,,,,,,,,,,,,,,,,,,,,,,,,,,,,,,,,,,,,,,,,,,,,,,,,,,,,,,,,,,,,,,,,,,,,
KBUR,Burbank,,34.1808,-118.3089,2012-04-07 09:53:00,,CLR,10.0,,68,,,,11.0,,11,5.0,100.0,,29.19,,,,,,,,,,,,,,,,,,,,,,,,,,,,,,,,,,,,,,,,,,,,,,,,,,,,,,,,,,,,,,,,,,,,,
KBUR,Burbank,,34.1808,-118.3089,2012-04-07 10:53:00,,CLR,10.0,,70,,,,18.0,,14,3.0,130.0,,29.19,1.0,Rising,,,,71.0,49.0,,,,,,,,,,,,,,,,,,,,,,,,,,,,,,,,,,,,,,,,,,,,,,,,,,,,,,,,,,,,,,
KBUR,Burbank,,34.1808,-118.3089,2012-04-07 11:53:00,,CLR,10.0,,76,,,,14.0,,10,,,,29.18,,,,,,,,,,,,,,,,,,,,,,,,,,,,,,,,,,,,,,,,,,,,,,,,,,,,,,,,,,,,,,,,,,,,,
KBUR,Burbank,,34.1808,-118.3089,2012-04-07 12:53:00,,CLR,10.0,,79,,,,11.0,,8,,,,29.15,,,,,,,,,,,,,,,,,,,,,,,,,,,,,,,,,,,,,,,,,,,,,,,,,,,,,,,,,,,,,,,,,,,,,
KBUR,Burbank,,34.1808,-118.3089,2012-04-07 13:53:00,,CLR,10.0,,81,,,,14.0,,8,3.0,170.0,,29.14,2.0,Falling Rapidly,,,,,,,,,,,,,,,,,,,,,,,,,,,,,,,,,,,,,,,,,,,,,,,,,,,,,,,,,,,,,,,,,,,
KBUR,Burbank,,34.1808,-118.3089,2012-04-07 14:53:00,,CLR,10.0,,82,,,,4.0,,5,7.0,140.0,,29.11,,,,,,,,,,,,,,,,,,,,,,,,,,,,,,,,,,,,,,,,,,,,,,,,,,,,,,,,,,,,,,,,,,,,,
KBUR,Burbank,,34.1808,-118.3089,2012-04-07 15:53:00,,CLR,10.0,,82,,,,19.0,,10,13.0,170.0,,29.1,,,,,,,,,,,,,,,,,,,,,,,,,,,,,,,,,,,,,,,,,,,,,,,,,,,,,,,,,,,,,,,,,,,,,
KBUR,Burbank,,34.1808,-118.3089,2012-04-07 16:53:00,,CLR,10.0,,79,,,,16.0,,9,9.0,180.0,,29.11,0.0,Steady,,,,84.0,71.0,,,,,,,,,,,,,,,,,,,,,,,,,,,,,,,,,,,,,,,,,,,,,,,,,,,,,,,,,,,,,,
KBUR,Burbank,,34.1808,-118.3089,2012-04-07 17:53:00,,CLR,10.0,,76,,,,15.0,,10,12.0,150.0,,29.13,,,,,,,,,,,,,,,,,,,,,,,,,,,,,,,,,,,,,,,,,,,,,,,,,,,,,,,,,,,,,,,,,,,,,
KBUR,Burbank,,34.1808,-118.3089,2012-04-07 18:53:00,,CLR,10.0,,73,,,,13.0,,10,6.0,160.0,,29.14,,,,,,,,,,,,,,,,,,,,,,,,,,,,,,,,,,,,,,,,,,,,,,,,,,,,,,,,,,,,,,,,,,,,,
KBUR,Burbank,,34.1808,-118.3089,2012-04-07 19:53:00,,CLR,10.0,,71,,,,12.0,,10,3.0,70.0,,29.14,1.0,Rising,,,,,,,,,,,,,,,,,,,,,,,,,,,,,,,,,,,,,,,,,,,,,,,,,,,,,,,,,,,,,,,,,,,
KBUR,Burbank,,34.1808,-118.3089,2012-04-07 20:53:00,,CLR,10.0,,68,,,,16.0,,14,5.0,130.0,,29.16,,,,,,,,,,,,,,,,,,,,,,,,,,,,,,,,,,,,,,,,,,,,,,,,,,,,,,,,,,,,,,,,,,,,,
KBUR,Burbank,,34.1808,-118.3089,2012-04-07 21:53:00,,CLR,10.0,,62,,,,23.0,,22,,,,29.17,,,,,,,,,,,,,,,,,,,,,,,,,,,,,,,,,,,,,,,,,,,,,,,,,,,,,,,,,,,,,,,,,,,,,
KBUR,Burbank,,34.1808,-118.3089,2012-04-07 22:53:00,,CLR,10.0,,63,,,,21.0,,20,,,,29.17,0.0,Steady,,,,79.0,61.0,,,,,,,,,,,,,,,,,,,,,,,,,,,,,,,,,,,,,,,,,,,,,,,,,,,,,,,,,,,,,,
KBUR,Burbank,,34.1808,-118.3089,2012-04-07 23:53:00,,CLR,10.0,,57,,,,26.0,,30,,,,29.17,,,,,,,,,,,,,,,,,,,,,,,,,,,,,,,,,,,,,,,,,,,,,,,,,,,,,,,,,,,,,,,,,,,,,
KBUR,Burbank,,34.1808,-118.3089,2012-04-08 00:53:00,,CLR,10.0,,55,,,,24.0,,30,,,,29.18,,,,,,84.0,49.0,,,,,,,,,,,,,,,,,,,,,,,,,,,,,,,,,,,,,,,,,,,,,,,,,,,,,,,,,,,,,,
KBUR,Burbank,,34.1808,-118.3089,2012-04-08 01:53:00,,CLR,10.0,,53,,,,26.0,,35,,,,29.17,2.0,Falling Rapidly,,,,,,,,,,,,,,,,,,,,,,,,,,,,,,,,,,,,,,,,,,,,,,,,,,,,,,,,,,,,,,,,,,,
KBUR,Burbank,,34.1808,-118.3089,2012-04-08 02:53:00,,CLR,10.0,,52,,,,25.0,,35,,,,29.17,,,,,,,,,,,,,,,,,,,,,,,,,,,,,,,,,,,,,,,,,,,,,,,,,,,,,,,,,,,,,,,,,,,,,
KBUR,Burbank,,34.1808,-118.3089,2012-04-08 03:53:00,,CLR,10.0,,52,,,,26.0,,37,,,,29.16,,,,,,,,,,,,,,,,,,,,,,,,,,,,,,,,,,,,,,,,,,,,,,,,,,,,,,,,,,,,,,,,,,,,,
KBUR,Burbank,,34.1808,-118.3089,2012-04-08 04:53:00,,CLR,10.0,,51,,,,27.0,,39,,,,29.16,2.0,Falling Rapidly,,,,63.0,49.0,,,,,,,,,,,,,,,,,,,,,,,,,,,,,,,,,,,,,,,,,,,,,,,,,,,,,,,,,,,,,,
KBUR,Burbank,,34.1808,-118.3089,2012-04-08 05:53:00,,CLR,10.0,,49,,,,27.0,,43,,,,29.16,,,,,,,,,,,,,,,,,,,,,,,,,,,,,,,,,,,,,,,,,,,,,,,,,,,,,,,,,,,,,,,,,,,,,
KBUR,Burbank,,34.1808,-118.3089,2012-04-08 06:53:00,,CLR,10.0,,47,,,,30.0,,52,,,,29.16,,,,,,,,,,,,,,,,,,,,,,,,,,,,,,,,,,,,,,,,,,,,,,,,,,,,,,,,,,,,,,,,,,,,,
KBUR,Burbank,,34.1808,-118.3089,2012-04-08 07:53:00,,CLR,10.0,,52,,,,,,47,,,,29.17,1.0,Rising Rapidly,,,,,,,,,,,,,,,,,,,,,,,,,,,,,,,,,,,,,,,,,,,,,,,,,,,,,,,,,,,,,,,,,,,
KBUR,Burbank,,34.1808,-118.3089,2012-04-08 08:53:00,,CLR,10.0,,59,,,,,,36,,,,29.17,,,,,,,,,,,,,,,,,,,,,,,,,,,,,,,,,,,,,,,,,,,,,,,,,,,,,,,,,,,,,,,,,,,,,
KBUR,Burbank,,34.1808,-118.3089,2012-04-08 09:53:00,,CLR,10.0,,66,,,,31.0,,27,,,,29.18,,,,,,,,,,,,,,,,,,,,,,,,,,,,,,,,,,,,,,,,,,,,,,,,,,,,,,,,,,,,,,,,,,,,,
KBUR,Burbank,,34.1808,-118.3089,2012-04-08 10:53:00,,CLR,10.0,,73,,,,24.0,,16,5.0,140.0,,29.18,1.0,Rising,,,,73.0,47.0,,,,,,,,,,,,,,,,,,,,,,,,,,,,,,,,,,,,,,,,,,,,,,,,,,,,,,,,,,,,,,
KBUR,Burbank,,34.1808,-118.3089,2012-04-08 11:53:00,,CLR,10.0,,77,,,,24.0,,14,10.0,140.0,,29.17,,,,,,,,,,,,,,,,,,,,,,,,,,,,,,,,,,,,,,,,,,,,,,,,,,,,,,,,,,,,,,,,,,,,,
KBUR,Burbank,,34.1808,-118.3089,2012-04-08 12:53:00,,CLR,10.0,,79,,,,21.0,,12,9.0,160.0,,29.16,,,,,,,,,,,,,,,,,,,,,,,,,,,,,,,,,,,,,,,,,,,,,,,,,,,,,,,,,,,,,,,,,,,,,
KBUR,Burbank,,34.1808,-118.3089,2012-04-08 13:53:00,,CLR,10.0,,80,,,,16.0,,9,10.0,190.0,,29.15,2.0,Falling Rapidly,,,,,,,,,,,,,,,,,,,,,,,,,,,,,,,,,,,,,,,,,,,,,,,,,,,,,,,,,,,,,,,,,,,
KBUR,Burbank,,34.1808,-118.3089,2012-04-08 14:53:00,,CLR,10.0,,79,,,,14.0,,9,9.0,200.0,,29.14,,,,,,,,,,,,,,,,,,,,,,,,,,,,,,,,,,,,,,,,,,,,,,,,,,,,,,,,,,,,,,,,,,,,,
KBUR,Burbank,,34.1808,-118.3089,2012-04-08 15:53:00,,CLR,10.0,,80,,,,14.0,,8,10.0,160.0,,29.13,,,,,,,,,,,,,,,,,,,,,,,,,,,,,,,,,,,,,,,,,,,,,,,,,,,,,,,,,,,,,,,,,,,,,
KBUR,Burbank,,34.1808,-118.3089,2012-04-08 16:53:00,,CLR,10.0,,77,,,,15.0,,10,8.0,180.0,,29.13,0.0,Steady,,,,81.0,72.0,,,,,,,,,,,,,,,,,,,,,,,,,,,,,,,,,,,,,,,,,,,,,,,,,,,,,,,,,,,,,,
KBUR,Burbank,,34.1808,-118.3089,2012-04-08 17:53:00,,CLR,10.0,,74,,,,13.0,,10,7.0,140.0,,29.14,,,,,,,,,,,,,,,,,,,,,,,,,,,,,,,,,,,,,,,,,,,,,,,,,,,,,,,,,,,,,,,,,,,,,
KBUR,Burbank,,34.1808,-118.3089,2012-04-08 18:53:00,,CLR,10.0,,71,,,,24.0,,17,6.0,160.0,,29.13,,,,,,,,,,,,,,,,,,,,,,,,,,,,,,,,,,,,,,,,,,,,,,,,,,,,,,,,,,,,,,,,,,,,,
KBUR,Burbank,,34.1808,-118.3089,2012-04-08 19:53:00,,CLR,10.0,,66,,,,28.0,,24,6.0,160.0,,29.13,2.0,Falling Rapidly,,,,,,,,,,,,,,,,,,,,,,,,,,,,,,,,,,,,,,,,,,,,,,,,,,,,,,,,,,,,,,,,,,,
KBUR,Burbank,,34.1808,-118.3089,2012-04-08 20:53:00,,CLR,10.0,,65,,,,30.0,,27,3.0,170.0,,29.15,,,,,,,,,,,,,,,,,,,,,,,,,,,,,,,,,,,,,,,,,,,,,,,,,,,,,,,,,,,,,,,,,,,,,
KBUR,Burbank,,34.1808,-118.3089,2012-04-08 21:53:00,,CLR,10.0,,62,,,,35.0,,37,,,,29.16,,,,,,,,,,,,,,,,,,,,,,,,,,,,,,,,,,,,,,,,,,,,,,,,,,,,,,,,,,,,,,,,,,,,,
KBUR,Burbank,,34.1808,-118.3089,2012-04-08 22:53:00,,CLR,10.0,,60,,,,,,35,,,,29.16,1.0,Rising,,,,76.0,60.0,,,,,,,,,,,,,,,,,,,,,,,,,,,,,,,,,,,,,,,,,,,,,,,,,,,,,,,,,,,,,,
KBUR,Burbank,,34.1808,-118.3089,2012-04-08 23:53:00,,CLR,10.0,,57,,,,30.0,,36,,,,29.16,,,,,,,,,,,,,,,,,,,,,,,,,,,,,,,,,,,,,,,,,,,,,,,,,,,,,,,,,,,,,,,,,,,,,
KBUR,Burbank,,34.1808,-118.3089,2012-04-09 00:53:00,,CLR,10.0,,54,,,,28.0,,37,,,,29.15,,,,,,81.0,47.0,,,,,,,,,,,,,,,,,,,,,,,,,,,,,,,,,,,,,,,,,,,,,,,,,,,,,,,,,,,,,,
KBUR,Burbank,,34.1808,-118.3089,2012-04-09 01:53:00,,CLR,10.0,,54,,,,29.0,,38,3.0,270.0,,29.14,2.0,Falling Rapidly,,,,,,,,,,,,,,,,,,,,,,,,,,,,,,,,,,,,,,,,,,,,,,,,,,,,,,,,,,,,,,,,,,,
KBUR,Burbank,,34.1808,-118.3089,2012-04-09 02:53:00,,CLR,10.0,,51,,,,29.0,,43,,,,29.13,,,,,,,,,,,,,,,,,,,,,,,,,,,,,,,,,,,,,,,,,,,,,,,,,,,,,,,,,,,,,,,,,,,,,
KBUR,Burbank,,34.1808,-118.3089,2012-04-09 03:53:00,,CLR,10.0,,52,,,,28.0,,40,3.0,280.0,,29.12,,,,,,,,,,,,,,,,,,,,,,,,,,,,,,,,,,,,,,,,,,,,,,,,,,,,,,,,,,,,,,,,,,,,,
KBUR,Burbank,,34.1808,-118.3089,2012-04-09 04:53:00,,CLR,10.0,,50,,,,30.0,,46,,,,29.11,2.0,Falling,,,,60.0,49.0,,,,,,,,,,,,,,,,,,,,,,,,,,,,,,,,,,,,,,,,,,,,,,,,,,,,,,,,,,,,,,
KBUR,Burbank,,34.1808,-118.3089,2012-04-09 05:53:00,,CLR,10.0,,48,,,,31.0,,52,,,,29.12,,,,,,,,,,,,,,,,,,,,,,,,,,,,,,,,,,,,,,,,,,,,,,,,,,,,,,,,,,,,,,,,,,,,,
KBUR,Burbank,,34.1808,-118.3089,2012-04-09 06:53:00,,CLR,10.0,,48,,,,31.0,,52,,,,29.12,,,,,,,,,,,,,,,,,,,,,,,,,,,,,,,,,,,,,,,,,,,,,,,,,,,,,,,,,,,,,,,,,,,,,
KBUR,Burbank,,34.1808,-118.3089,2012-04-09 07:53:00,,CLR,10.0,,53,,,,33.0,,47,,,,29.13,1.0,Rising Rapidly,,,,,,,,,,,,,,,,,,,,,,,,,,,,,,,,,,,,,,,,,,,,,,,,,,,,,,,,,,,,,,,,,,,
KBUR,Burbank,,34.1808,-118.3089,2012-04-09 08:53:00,,CLR,10.0,,59,,,,30.0,,33,,,,29.12,,,,,,,,,,,,,,,,,,,,,,,,,,,,,,,,,,,,,,,,,,,,,,,,,,,,,,,,,,,,,,,,,,,,,
KBUR,Burbank,,34.1808,-118.3089,2012-04-09 09:53:00,,CLR,10.0,,66,,,,29.0,,25,,,,29.12,,,,,,,,,,,,,,,,,,,,,,,,,,,,,,,,,,,,,,,,,,,,,,,,,,,,,,,,,,,,,,,,,,,,,
KBUR,Burbank,,34.1808,-118.3089,2012-04-09 10:53:00,,CLR,10.0,,71,,,,31.0,,23,,,,29.12,0.0,Steady,,,,71.0,47.0,,,,,,,,,,,,,,,,,,,,,,,,,,,,,,,,,,,,,,,,,,,,,,,,,,,,,,,,,,,,,,
KBUR,Burbank,,34.1808,-118.3089,2012-04-09 11:53:00,,CLR,10.0,,75,,,,26.0,,16,8.0,130.0,,29.1,,,,,,,,,,,,,,,,,,,,,,,,,,,,,,,,,,,,,,,,,,,,,,,,,,,,,,,,,,,,,,,,,,,,,
KBUR,Burbank,,34.1808,-118.3089,2012-04-09 12:53:00,,CLR,10.0,,77,,,,26.0,,15,7.0,140.0,18.0,29.09,,,,,,,,,,,,,,,,,,,,,,,,,,,,,,,,,,,,,,,,,,,,,,,,,,,,,,,,,,,,,,,,,,,,,
KBUR,Burbank,,34.1808,-118.3089,2012-04-09 13:53:00,,CLR,10.0,,78,,,,,,19,13.0,180.0,,29.07,2.0,Falling,,,,,,,,,,,,,,,,,,,,,,,,,,,,,,,,,,,,,,,,,,,,,,,,,,,,,,,,,,,,,,,,,,,
KBUR,Burbank,,34.1808,-118.3089,2012-04-09 14:53:00,,CLR,10.0,,77,,,,,,19,9.0,200.0,,29.07,,,,,,,,,,,,,,,,,,,,,,,,,,,,,,,,,,,,,,,,,,,,,,,,,,,,,,,,,,,,,,,,,,,,,
KBUR,Burbank,,34.1808,-118.3089,2012-04-09 15:53:00,,CLR,10.0,,77,,,,30.0,,18,12.0,180.0,,29.06,,,,,,,,,,,,,,,,,,,,,,,,,,,,,,,,,,,,,,,,,,,,,,,,,,,,,,,,,,,,,,,,,,,,,
KBUR,Burbank,,34.1808,-118.3089,2012-04-09 16:53:00,,CLR,10.0,,73,,,,29.0,,20,10.0,160.0,,29.07,0.0,Steady,,,,79.0,70.0,,,,,,,,,,,,,,,,,,,,,,,,,,,,,,,,,,,,,,,,,,,,,,,,,,,,,,,,,,,,,,
KBUR,Burbank,,34.1808,-118.3089,2012-04-09 17:53:00,,CLR,10.0,,69,,,,24.0,,18,6.0,150.0,,29.07,,,,,,,,,,,,,,,,,,,,,,,,,,,,,,,,,,,,,,,,,,,,,,,,,,,,,,,,,,,,,,,,,,,,,
KBUR,Burbank,,34.1808,-118.3089,2012-04-09 18:53:00,,CLR,10.0,,66,,,,27.0,,23,9.0,170.0,,29.07,,,,,,,,,,,,,,,,,,,,,,,,,,,,,,,,,,,,,,,,,,,,,,,,,,,,,,,,,,,,,,,,,,,,,
KBUR,Burbank,,34.1808,-118.3089,2012-04-09 19:53:00,,CLR,10.0,,60,,,,35.0,,39,8.0,170.0,,29.1,1.0,Rising Rapidly,,,,,,,,,,,,,,,,,,,,,,,,,,,,,,,,,,,,,,,,,,,,,,,,,,,,,,,,,,,,,,,,,,,
KBUR,Burbank,,34.1808,-118.3089,2012-04-09 20:53:00,,CLR,10.0,,57,,,,38.0,,49,,,,29.13,,,,,,,,,,,,,,,,,,,,,,,,,,,,,,,,,,,,,,,,,,,,,,,,,,,,,,,,,,,,,,,,,,,,,
KBUR,Burbank,,34.1808,-118.3089,2012-04-09 21:53:00,,CLR,10.0,,56,,,,45.0,,67,8.0,140.0,,29.14,,,,,,,,,,,,,,,,,,,,,,,,,,,,,,,,,,,,,,,,,,,,,,,,,,,,,,,,,,,,,,,,,,,,,
KBUR,Burbank,,34.1808,-118.3089,2012-04-09 22:53:00,,CLR,10.0,,53,,,,46.0,,77,,,,29.13,0.0,Steady,,,,73.0,53.0,,,,,,,,,,,,,,,,,,,,,,,,,,,,,,,,,,,,,,,,,,,,,,,,,,,,,,,,,,,,,,
KBUR,Burbank,,34.1808,-118.3089,2012-04-09 23:53:00,,CLR,10.0,,52,,,,47.0,,83,3.0,70.0,,29.13,,,,,,,,,,,,,,,,,,,,,,,,,,,,,,,,,,,,,,,,,,,,,,,,,,,,,,,,,,,,,,,,,,,,,
KBUR,Burbank,,34.1808,-118.3089,2012-04-10 00:53:00,,CLR,9.0,,51,,,,46.0,,83,3.0,150.0,,29.1,,,,,,79.0,47.0,,,,,,,,,,,,,,,,,,,,,,,,,,,,,,,,,,,,,,,,,,,,,,,,,,,,,,,,,,,,,,
KBUR,Burbank,,34.1808,-118.3089,2012-04-10 01:53:00,,CLR,8.0,,50,,,,45.0,,83,,,,29.08,2.0,Falling Rapidly,,,,,,,,,,,,,,,,,,,,,,,,,,,,,,,,,,,,,,,,,,,,,,,,,,,,,,,,,,,,,,,,,,,
KBUR,Burbank,,34.1808,-118.3089,2012-04-10 02:53:00,,CLR,10.0,,49,,,,36.0,,61,,,,29.07,,,,,,,,,,,,,,,,,,,,,,,,,,,,,,,,,,,,,,,,,,,,,,,,,,,,,,,,,,,,,,,,,,,,,
KBUR,Burbank,,34.1808,-118.3089,2012-04-10 03:53:00,,CLR,10.0,,49,,,,,,52,,,,29.06,,,,,,,,,,,,,,,,,,,,,,,,,,,,,,,,,,,,,,,,,,,,,,,,,,,,,,,,,,,,,,,,,,,,,
KBUR,Burbank,,34.1808,-118.3089,2012-04-10 04:53:00,,CLR,10.0,,47,,,,31.0,,54,,,,29.06,2.0,Falling,,,,53.0,46.0,,,,,,,,,,,,,,,,,,,,,,,,,,,,,,,,,,,,,,,,,,,,,,,,,,,,,,,,,,,,,,
KBUR,Burbank,,34.1808,-118.3089,2012-04-10 05:53:00,,CLR,10.0,,47,,,,,,56,,,,29.07,,,,,,,,,,,,,,,,,,,,,,,,,,,,,,,,,,,,,,,,,,,,,,,,,,,,,,,,,,,,,,,,,,,,,
KBUR,Burbank,,34.1808,-118.3089,2012-04-10 06:53:00,,CLR,10.0,,47,,,,33.0,,59,,,,29.07,,,,,,,,,,,,,,,,,,,,,,,,,,,,,,,,,,,,,,,,,,,,,,,,,,,,,,,,,,,,,,,,,,,,,
KBUR,Burbank,,34.1808,-118.3089,2012-04-10 07:53:00,,CLR,10.0,,49,,,,33.0,,54,,,,29.09,1.0,Rising Rapidly,,,,,,,,,,,,,,,,,,,,,,,,,,,,,,,,,,,,,,,,,,,,,,,,,,,,,,,,,,,,,,,,,,,
KBUR,Burbank,,34.1808,-118.3089,2012-04-10 08:53:00,,CLR,10.0,,52,,,,36.0,,54,,,,29.07,,,,,,,,,,,,,,,,,,,,,,,,,,,,,,,,,,,,,,,,,,,,,,,,,,,,,,,,,,,,,,,,,,,,,
KBUR,Burbank,,34.1808,-118.3089,2012-04-10 09:53:00,,CLR,10.0,,56,,,,40.0,,55,6.0,,,29.08,,,,,,,,,,,,,,,,,,,,,,,,,,,,,,,,,,,,,,,,,,,,,,,,,,,,,,,,,,,,,,,,,,,,,
KBUR,Burbank,,34.1808,-118.3089,2012-04-10 10:53:00,,CLR,10.0,,60,,,,41.0,,49,10.0,130.0,,29.07,2.0,Falling,,,,61.0,46.0,,,,,,,,,,,,,,,,,,,,,,,,,,,,,,,,,,,,,,,,,,,,,,,,,,,,,,,,,,,,,,
KBUR,Burbank,,34.1808,-118.3089,2012-04-10 11:53:00,,CLR,10.0,,62,,,,43.0,,50,8.0,190.0,,29.06,,,,,,,,,,,,,,,,,,,,,,,,,,,,,,,,,,,,,,,,,,,,,,,,,,,,,,,,,,,,,,,,,,,,,
KBUR,Burbank,,34.1808,-118.3089,2012-04-10 12:53:00,,CLR,10.0,,65,,,,41.0,,42,8.0,170.0,16.0,29.04,,,,,,,,,,,,,,,,,,,,,,,,,,,,,,,,,,,,,,,,,,,,,,,,,,,,,,,,,,,,,,,,,,,,,
KBUR,Burbank,,34.1808,-118.3089,2012-04-10 13:53:00,,CLR,10.0,,67,,,,42.0,,40,14.0,180.0,,29.02,2.0,Falling,,,,,,,,,,,,,,,,,,,,,,,,,,,,,,,,,,,,,,,,,,,,,,,,,,,,,,,,,,,,,,,,,,,
KBUR,Burbank,,34.1808,-118.3089,2012-04-10 14:53:00,,CLR,10.0,,65,,,,44.0,,47,16.0,170.0,,29.02,,,,,,,,,,,,,,,,,,,,,,,,,,,,,,,,,,,,,,,,,,,,,,,,,,,,,,,,,,,,,,,,,,,,,
KBUR,Burbank,,34.1808,-118.3089,2012-04-10 15:53:00,,CLR,10.0,,64,,,,43.0,,46,16.0,180.0,22.0,29.0,,,,,,,,,,,,,,,,,,,,,,,,,,,,,,,,,,,,,,,,,,,,,,,,,,,,,,,,,,,,,,,,,,,,,
KBUR,Burbank,,34.1808,-118.3089,2012-04-10 16:53:00,,CLR,10.0,,62,,,,42.0,,48,13.0,190.0,,29.01,0.0,Steady,,,,68.0,60.0,,,,,,,,,,,,,,,,,,,,,,,,,,,,,,,,,,,,,,,,,,,,,,,,,,,,,,,,,,,,,,
KBUR,Burbank,,34.1808,-118.3089,2012-04-10 17:53:00,,CLR,10.0,,58,,,,43.0,,58,12.0,190.0,18.0,29.02,,,,,,,,,,,,,,,,,,,,,,,,,,,,,,,,,,,,,,,,,,,,,,,,,,,,,,,,,,,,,,,,,,,,,
KBUR,Burbank,,34.1808,-118.3089,2012-04-10 18:53:00,,CLR,10.0,,57,,,,41.0,,55,7.0,170.0,,29.03,,,,,,,,,,,,,,,,,,,,,,,,,,,,,,,,,,,,,,,,,,,,,,,,,,,,,,,,,,,,,,,,,,,,,
KBUR,Burbank,,34.1808,-118.3089,2012-04-10 19:53:00,,SCT,10.0,,54,,,,45.0,,72,8.0,210.0,,29.04,1.0,Rising,,,,,,,,,,,,,,,,,,,,,,,,,,,,,,,,,,,,,,,,,,,,,,,,,,,,,,,,,,,,,,,,,,,
KBUR,Burbank,,34.1808,-118.3089,2012-04-10 20:53:00,,OVC,10.0,,53,,,,46.0,,77,6.0,170.0,,29.06,,,,,,,,,,,,,,,,,,,,,,,,,,,,,,,,,,,,,,,,,,,,,,,,,,,,,,,,,,,,,,,,,,,,,
KBUR,Burbank,,34.1808,-118.3089,2012-04-10 21:53:00,,OVC,10.0,,54,,,,46.0,,75,5.0,160.0,,29.07,,,,,,,,,,,,,,,,,,,,,,,,,,,,,,,,,,,,,,,,,,,,,,,,,,,,,,,,,,,,,,,,,,,,,
KBUR,Burbank,,34.1808,-118.3089,2012-04-10 22:53:00,,OVC,10.0,,54,,,,47.0,,77,9.0,120.0,,29.04,0.0,Steady,,0.0,,61.0,53.0,,,,,,,,,,,,,,,,,,,,,,,,,,,,,,,,,,,,,,,,,,,,,,,,,,,,,,,,,,,,,,
KBUR,Burbank,,34.1808,-118.3089,2012-04-10 23:53:00,,OVC,10.0,,53,,,,48.0,,83,15.0,150.0,,29.04,,,,0.0,,,,,,,,,,,,,,,,,,,,,,,,,,,,,,,,,,,,,,,,,,,,,,,,,,,,,,,,,,,,,,,,,
KBUR,Burbank,,34.1808,-118.3089,2012-04-11 00:53:00,,OVC,5.0,,52,,,,49.0,,89,12.0,110.0,,29.05,,,,0.09,,68.0,46.0,,,,,,,,,,,,,,,,,,,,,,,,,,,,,,,,,,,,,,,,,,,,,,,,,,,,,,,,,,,,,,
KBUR,Burbank,,34.1808,-118.3089,2012-04-11 01:53:00,,OVC,4.0,,51,,,,48.0,,89,15.0,120.0,21.0,29.03,2.0,Falling Rapidly,,0.1,,,,,,,,,,,,,,,,,,,,,,,,,,,,,,,,,,,,,,,,,,,,,,,,,,,,,,,,,,,,,,,,,
KBUR,Burbank,,34.1808,-118.3089,2012-04-11 02:53:00,,OVC,4.0,,50,,,,48.0,,93,21.0,120.0,25.0,29.01,,,,0.11,,,,,,,,,,,,,,,,,,,,,,,,,,,,,,,,,,,,,,,,,,,,,,,,,,,,,,,,,,,,,,,,,
KBUR,Burbank,,34.1808,-118.3089,2012-04-11 03:53:00,,OVC,5.0,,50,,,,49.0,,96,12.0,130.0,,29.01,,,,0.13,,,,,,,,,,,,,,,,,,,,,,,,,,,,,,,,,,,,,,,,,,,,,,,,,,,,,,,,,,,,,,,,,
KBUR,Burbank,,34.1808,-118.3089,2012-04-11 04:31:00,,OVC,2.0,,50,,,,48.0,,94,17.0,140.0,,29.03,,,,0.06,,,,,,,,,,,,,,,,,,,,,,,,,,,,,,,,,,,,,,,,,,,,,,,,,,,,,,,,,,,,,,,,,
KBUR,Burbank,,34.1808,-118.3089,2012-04-11 04:53:00,,OVC,3.0,,50,,,,48.0,,93,15.0,130.0,,29.01,2.0,Falling,,0.09,,55.0,50.0,,,,,,,,,,,,,,,,,,,,,,,,,,,,,,,,,,,,,,,,,,,,,,,,,,,,,,,,,,,,,,
KBUR,Burbank,,34.1808,-118.3089,2012-04-11 05:01:00,,OVC,1.0,,50,,,,48.0,,94,10.0,150.0,,29.03,,,,0.07,,,,,,,,,,,,,,,,,,,,,,,,,,,,,,,,,,,,,,,,,,,,,,,,,,,,,,,,,,,,,,,,,
KBUR,Burbank,,34.1808,-118.3089,2012-04-11 05:08:00,,OVC,2.0,,50,,,,48.0,,94,14.0,140.0,,29.03,,,,0.1,,,,,,,,,,,,,,,,,,,,,,,,,,,,,,,,,,,,,,,,,,,,,,,,,,,,,,,,,,,,,,,,,
KBUR,Burbank,,34.1808,-118.3089,2012-04-11 05:24:00,,OVC,9.0,,50,,,,48.0,,94,13.0,120.0,,29.03,,,,0.13,,,,,,,,,,,,,,,,,,,,,,,,,,,,,,,,,,,,,,,,,,,,,,,,,,,,,,,,,,,,,,,,,
KBUR,Burbank,,34.1808,-118.3089,2012-04-11 05:42:00,,OVC,10.0,,50,,,,48.0,,94,12.0,110.0,,29.04,,,,0.13,,,,,,,,,,,,,,,,,,,,,,,,,,,,,,,,,,,,,,,,,,,,,,,,,,,,,,,,,,,,,,,,,
KBUR,Burbank,,34.1808,-118.3089,2012-04-11 05:51:00,,OVC,10.0,,50,,,,48.0,,94,14.0,110.0,,29.04,,,,0.13,,,,,,,,,,,,,,,,,,,,,,,,,,,,,,,,,,,,,,,,,,,,,,,,,,,,,,,,,,,,,,,,,
KBUR,Burbank,,34.1808,-118.3089,2012-04-11 05:53:00,,OVC,10.0,,50,,,,49.0,,96,15.0,110.0,,29.02,,,,0.13,,,,,,,,,,,,,,,,,,,,,,,,,,,,,,,,,,,,,,,,,,,,,,,,,,,,,,,,,,,,,,,,,
KBUR,Burbank,,34.1808,-118.3089,2012-04-11 06:00:00,,OVC,10.0,,52,,,,48.0,,88,14.0,110.0,,29.03,,,,,,,,,,,,,,,,,,,,,,,,,,,,,,,,,,,,,,,,,,,,,,,,,,,,,,,,,,,,,,,,,,,,,
KBUR,Burbank,,34.1808,-118.3089,2012-04-11 06:18:00,,OVC,10.0,,52,,,,50.0,,94,13.0,110.0,,29.03,,,,,,,,,,,,,,,,,,,,,,,,,,,,,,,,,,,,,,,,,,,,,,,,,,,,,,,,,,,,,,,,,,,,,
KBUR,Burbank,,34.1808,-118.3089,2012-04-11 06:41:00,,OVC,1.0,,52,,,,48.0,,88,15.0,120.0,,29.03,,,,0.0,,,,,,,,,,,,,,,,,,,,,,,,,,,,,,,,,,,,,,,,,,,,,,,,,,,,,,,,,,,,,,,,,
KBUR,Burbank,,34.1808,-118.3089,2012-04-11 06:53:00,,OVC,1.0,,50,,,,49.0,,96,8.0,190.0,,29.04,,,,0.05,,,,,,,,,,,,,,,,,,,,,,,,,,,,,,,,,,,,,,,,,,,,,,,,,,,,,,,,,,,,,,,,,
KBUR,Burbank,,34.1808,-118.3089,2012-04-11 07:00:00,,OVC,9.0,,50,,,,48.0,,94,8.0,190.0,,29.06,,,,,,,,,,,,,,,,,,,,,,,,,,,,,,,,,,,,,,,,,,,,,,,,,,,,,,,,,,,,,,,,,,,,,
KBUR,Burbank,,34.1808,-118.3089,2012-04-11 07:20:00,,OVC,10.0,,52,,,,48.0,,88,6.0,260.0,,29.07,,,,0.0,,,,,,,,,,,,,,,,,,,,,,,,,,,,,,,,,,,,,,,,,,,,,,,,,,,,,,,,,,,,,,,,,
KBUR,Burbank,,34.1808,-118.3089,2012-04-11 07:53:00,,BKN,10.0,,51,,,,48.0,,89,,,,29.08,1.0,Rising Rapidly,,0.0,,,,,,,,,,,,,,,,,,,,,,,,,,,,,,,,,,,,,,,,,,,,,,,,,,,,,,,,,,,,,,,,,
KBUR,Burbank,,34.1808,-118.3089,2012-04-11 08:12:00,,BKN,10.0,,52,,,,46.0,,82,6.0,210.0,,29.12,,,,,,,,,,,,,,,,,,,,,,,,,,,,,,,,,,,,,,,,,,,,,,,,,,,,,,,,,,,,,,,,,,,,,
KBUR,Burbank,,34.1808,-118.3089,2012-04-11 08:53:00,,OVC,10.0,,51,,,,47.0,,86,,,,29.11,,,,,,,,,,,,,,,,,,,,,,,,,,,,,,,,,,,,,,,,,,,,,,,,,,,,,,,,,,,,,,,,,,,,,
KBUR,Burbank,,34.1808,-118.3089,2012-04-11 09:53:00,,OVC,10.0,,53,,,,47.0,,80,8.0,250.0,,29.15,,,,0.0,,,,,,,,,,,,,,,,,,,,,,,,,,,,,,,,,,,,,,,,,,,,,,,,,,,,,,,,,,,,,,,,,
KBUR,Burbank,,34.1808,-118.3089,2012-04-11 10:53:00,,OVC,10.0,,55,,,,47.0,,74,3.0,160.0,,29.16,1.0,Rising,,0.0,,55.0,49.0,,,,,,,,,,,,,,,,,,,,,,,,,,,,,,,,,,,,,,,,,,,,,,,,,,,,,,,,,,,,,,
KBUR,Burbank,,34.1808,-118.3089,2012-04-11 11:28:00,,OVC,10.0,,54,,,,48.0,,82,9.0,170.0,,29.19,,,,0.0,,,,,,,,,,,,,,,,,,,,,,,,,,,,,,,,,,,,,,,,,,,,,,,,,,,,,,,,,,,,,,,,,
KBUR,Burbank,,34.1808,-118.3089,2012-04-11 11:53:00,,OVC,10.0,,54,,,,49.0,,83,5.0,80.0,,29.17,,,,0.03,,,,,,,,,,,,,,,,,,,,,,,,,,,,,,,,,,,,,,,,,,,,,,,,,,,,,,,,,,,,,,,,,
KBUR,Burbank,,34.1808,-118.3089,2012-04-11 12:33:00,,OVC,1.0,,52,,,,46.0,,82,21.0,290.0,31.0,29.19,,,,0.12,,,,,,,,,,,,,,,,,,,,,,,,,,,,,,,,,,,,,,,,,,,,,,,,,,,,,,,,,,,,,,,,,
KBUR,Burbank,,34.1808,-118.3089,2012-04-11 12:43:00,,OVC,3.0,,52,,,,45.0,,76,3.0,310.0,21.0,29.2,,,,0.15,,,,,,,,,,,,,,,,,,,,,,,,,,,,,,,,,,,,,,,,,,,,,,,,,,,,,,,,,,,,,,,,,
KBUR,Burbank,,34.1808,-118.3089,2012-04-11 12:50:00,,OVC,10.0,,55,,,,46.0,,72,,,,29.2,,,,0.15,,,,,,,,,,,,,,,,,,,,,,,,,,,,,,,,,,,,,,,,,,,,,,,,,,,,,,,,,,,,,,,,,
KBUR,Burbank,,34.1808,-118.3089,2012-04-11 12:53:00,,OVC,10.0,,55,,,,45.0,,69,,,,29.17,,,,0.15,,,,,,,,,,,,,,,,,,,,,,,,,,,,,,,,,,,,,,,,,,,,,,,,,,,,,,,,,,,,,,,,,
KBUR,Burbank,,34.1808,-118.3089,2012-04-11 13:53:00,,BKN,10.0,,57,,,,48.0,,72,12.0,190.0,,29.18,1.0,Rising,,0.0,,,,,,,,,,,,,,,,,,,,,,,,,,,,,,,,,,,,,,,,,,,,,,,,,,,,,,,,,,,,,,,,,
KBUR,Burbank,,34.1808,-118.3089,2012-04-11 14:53:00,,OVC,10.0,,57,,,,48.0,,72,9.0,190.0,,29.17,,,,0.0,,,,,,,,,,,,,,,,,,,,,,,,,,,,,,,,,,,,,,,,,,,,,,,,,,,,,,,,,,,,,,,,,
KBUR,Burbank,,34.1808,-118.3089,2012-04-11 15:53:00,,BKN,10.0,,58,,,,47.0,,67,14.0,190.0,,29.17,,,,,,,,,,,,,,,,,,,,,,,,,,,,,,,,,,,,,,,,,,,,,,,,,,,,,,,,,,,,,,,,,,,,,
KBUR,Burbank,,34.1808,-118.3089,2012-04-11 16:53:00,,BKN,10.0,,58,,,,46.0,,65,8.0,190.0,,29.17,0.0,Steady,,,,60.0,51.0,,,,,,,,,,,,,,,,,,,,,,,,,,,,,,,,,,,,,,,,,,,,,,,,,,,,,,,,,,,,,,
KBUR,Burbank,,34.1808,-118.3089,2012-04-11 17:53:00,,BKN,10.0,,57,,,,46.0,,67,12.0,200.0,,29.18,,,,,,,,,,,,,,,,,,,,,,,,,,,,,,,,,,,,,,,,,,,,,,,,,,,,,,,,,,,,,,,,,,,,,
KBUR,Burbank,,34.1808,-118.3089,2012-04-11 18:53:00,,OVC,10.0,,55,,,,45.0,,69,6.0,210.0,,29.2,,,,,,,,,,,,,,,,,,,,,,,,,,,,,,,,,,,,,,,,,,,,,,,,,,,,,,,,,,,,,,,,,,,,,
KBUR,Burbank,,34.1808,-118.3089,2012-04-11 19:53:00,,BKN,10.0,,54,,,,46.0,,75,5.0,230.0,,29.22,1.0,Rising Rapidly,,,,,,,,,,,,,,,,,,,,,,,,,,,,,,,,,,,,,,,,,,,,,,,,,,,,,,,,,,,,,,,,,,,
KBUR,Burbank,,34.1808,-118.3089,2012-04-11 20:53:00,,BKN,10.0,,53,,,,46.0,,77,,,,29.24,,,,,,,,,,,,,,,,,,,,,,,,,,,,,,,,,,,,,,,,,,,,,,,,,,,,,,,,,,,,,,,,,,,,,
KBUR,Burbank,,34.1808,-118.3089,2012-04-11 21:53:00,,BKN,10.0,,53,,,,45.0,,74,5.0,240.0,,29.26,,,,,,,,,,,,,,,,,,,,,,,,,,,,,,,,,,,,,,,,,,,,,,,,,,,,,,,,,,,,,,,,,,,,,
KBUR,Burbank,,34.1808,-118.3089,2012-04-11 22:53:00,,CLR,10.0,,52,,,,43.0,,71,5.0,280.0,,29.27,1.0,Rising,,,,58.0,52.0,,,,,,,,,,,,,,,,,,,,,,,,,,,,,,,,,,,,,,,,,,,,,,,,,,,,,,,,,,,,,,
KBUR,Burbank,,34.1808,-118.3089,2012-04-11 23:53:00,,CLR,10.0,,51,,,,43.0,,74,6.0,260.0,,29.27,,,,,,,,,,,,,,,,,,,,,,,,,,,,,,,,,,,,,,,,,,,,,,,,,,,,,,,,,,,,,,,,,,,,,
KBUR,Burbank,,34.1808,-118.3089,2012-04-12 00:53:00,,CLR,10.0,,48,,,,43.0,,83,,,,29.28,,,,,,60.0,48.0,,,,,,,,,,,,,,,,,,,,,,,,,,,,,,,,,,,,,,,,,,,,,,,,,,,,,,,,,,,,,,
KBUR,Burbank,,34.1808,-118.3089,2012-04-12 01:33:00,,BKN,10.0,,48,,,,43.0,,82,,,,29.29,,,,,,,,,,,,,,,,,,,,,,,,,,,,,,,,,,,,,,,,,,,,,,,,,,,,,,,,,,,,,,,,,,,,,
KBUR,Burbank,,34.1808,-118.3089,2012-04-12 01:53:00,,OVC,10.0,,50,,,,43.0,,77,3.0,230.0,,29.27,0.0,Steady,,,,,,,,,,,,,,,,,,,,,,,,,,,,,,,,,,,,,,,,,,,,,,,,,,,,,,,,,,,,,,,,,,,
KBUR,Burbank,,34.1808,-118.3089,2012-04-12 02:10:00,,BKN,10.0,,48,,,,43.0,,82,,,,29.29,,,,,,,,,,,,,,,,,,,,,,,,,,,,,,,,,,,,,,,,,,,,,,,,,,,,,,,,,,,,,,,,,,,,,
KBUR,Burbank,,34.1808,-118.3089,2012-04-12 02:19:00,,BKN,10.0,,48,,,,43.0,,82,,,,29.3,,,,,,,,,,,,,,,,,,,,,,,,,,,,,,,,,,,,,,,,,,,,,,,,,,,,,,,,,,,,,,,,,,,,,
KBUR,Burbank,,34.1808,-118.3089,2012-04-12 02:53:00,,BKN,10.0,,49,,,,44.0,,83,,,,29.26,,,,,,,,,,,,,,,,,,,,,,,,,,,,,,,,,,,,,,,,,,,,,,,,,,,,,,,,,,,,,,,,,,,,,
KBUR,Burbank,,34.1808,-118.3089,2012-04-12 03:53:00,,SCT,10.0,,48,,,,44.0,,86,,,,29.27,,,,,,,,,,,,,,,,,,,,,,,,,,,,,,,,,,,,,,,,,,,,,,,,,,,,,,,,,,,,,,,,,,,,,
KBUR,Burbank,,34.1808,-118.3089,2012-04-12 04:36:00,,BKN,10.0,,46,,,,45.0,,93,,,,29.29,,,,,,,,,,,,,,,,,,,,,,,,,,,,,,,,,,,,,,,,,,,,,,,,,,,,,,,,,,,,,,,,,,,,,
KBUR,Burbank,,34.1808,-118.3089,2012-04-12 04:53:00,,OVC,10.0,,48,,,,44.0,,86,,,,29.27,0.0,Steady,,,,52.0,47.0,,,,,,,,,,,,,,,,,,,,,,,,,,,,,,,,,,,,,,,,,,,,,,,,,,,,,,,,,,,,,,
KBUR,Burbank,,34.1808,-118.3089,2012-04-12 05:53:00,,BKN,10.0,,48,,,,44.0,,86,,,,29.27,,,,,,,,,,,,,,,,,,,,,,,,,,,,,,,,,,,,,,,,,,,,,,,,,,,,,,,,,,,,,,,,,,,,,
KBUR,Burbank,,34.1808,-118.3089,2012-04-12 06:10:00,,SCT,10.0,,48,,,,43.0,,82,,,,29.3,,,,,,,,,,,,,,,,,,,,,,,,,,,,,,,,,,,,,,,,,,,,,,,,,,,,,,,,,,,,,,,,,,,,,
KBUR,Burbank,,34.1808,-118.3089,2012-04-12 06:53:00,,CLR,10.0,,49,,,,43.0,,80,,,,29.3,,,,,,,,,,,,,,,,,,,,,,,,,,,,,,,,,,,,,,,,,,,,,,,,,,,,,,,,,,,,,,,,,,,,,
KBUR,Burbank,,34.1808,-118.3089,2012-04-12 07:53:00,,FEW,10.0,,50,,,,44.0,,80,,,,29.31,1.0,Rising Rapidly,,,,,,,,,,,,,,,,,,,,,,,,,,,,,,,,,,,,,,,,,,,,,,,,,,,,,,,,,,,,,,,,,,,
KBUR,Burbank,,34.1808,-118.3089,2012-04-12 08:53:00,,FEW,10.0,,53,,,,43.0,,69,,,,29.31,,,,,,,,,,,,,,,,,,,,,,,,,,,,,,,,,,,,,,,,,,,,,,,,,,,,,,,,,,,,,,,,,,,,,
KBUR,Burbank,,34.1808,-118.3089,2012-04-12 09:16:00,,BKN,10.0,,54,,,,43.0,,67,3.0,200.0,,29.34,,,,,,,,,,,,,,,,,,,,,,,,,,,,,,,,,,,,,,,,,,,,,,,,,,,,,,,,,,,,,,,,,,,,,
KBUR,Burbank,,34.1808,-118.3089,2012-04-12 09:40:00,,OVC,10.0,,54,,,,43.0,,67,,,,29.34,,,,,,,,,,,,,,,,,,,,,,,,,,,,,,,,,,,,,,,,,,,,,,,,,,,,,,,,,,,,,,,,,,,,,
KBUR,Burbank,,34.1808,-118.3089,2012-04-12 09:53:00,,BKN,10.0,,54,,,,43.0,,66,,,,29.32,,,,,,,,,,,,,,,,,,,,,,,,,,,,,,,,,,,,,,,,,,,,,,,,,,,,,,,,,,,,,,,,,,,,,
KBUR,Burbank,,34.1808,-118.3089,2012-04-12 10:53:00,,BKN,10.0,,56,,,,42.0,,60,7.0,,,29.32,0.0,Steady,,,,56.0,47.0,,,,,,,,,,,,,,,,,,,,,,,,,,,,,,,,,,,,,,,,,,,,,,,,,,,,,,,,,,,,,,
KBUR,Burbank,,34.1808,-118.3089,2012-04-12 11:53:00,,OVC,10.0,,57,,,,44.0,,62,10.0,160.0,,29.31,,,,,,,,,,,,,,,,,,,,,,,,,,,,,,,,,,,,,,,,,,,,,,,,,,,,,,,,,,,,,,,,,,,,,
KBUR,Burbank,,34.1808,-118.3089,2012-04-12 12:53:00,,OVC,10.0,,58,,,,44.0,,60,8.0,170.0,,29.29,,,,,,,,,,,,,,,,,,,,,,,,,,,,,,,,,,,,,,,,,,,,,,,,,,,,,,,,,,,,,,,,,,,,,
KBUR,Burbank,,34.1808,-118.3089,2012-04-12 13:53:00,,OVC,10.0,,58,,,,45.0,,62,10.0,190.0,,29.28,2.0,Falling,,,,,,,,,,,,,,,,,,,,,,,,,,,,,,,,,,,,,,,,,,,,,,,,,,,,,,,,,,,,,,,,,,,
KBUR,Burbank,,34.1808,-118.3089,2012-04-12 14:53:00,,OVC,10.0,,58,,,,45.0,,62,13.0,210.0,,29.26,,,,,,,,,,,,,,,,,,,,,,,,,,,,,,,,,,,,,,,,,,,,,,,,,,,,,,,,,,,,,,,,,,,,,
KBUR,Burbank,,34.1808,-118.3089,2012-04-12 15:53:00,,OVC,10.0,,58,,,,45.0,,62,10.0,210.0,,29.25,,,,,,,,,,,,,,,,,,,,,,,,,,,,,,,,,,,,,,,,,,,,,,,,,,,,,,,,,,,,,,,,,,,,,
KBUR,Burbank,,34.1808,-118.3089,2012-04-12 16:53:00,,OVC,10.0,,58,,,,46.0,,65,12.0,230.0,,29.25,2.0,Falling,,,,60.0,56.0,,,,,,,,,,,,,,,,,,,,,,,,,,,,,,,,,,,,,,,,,,,,,,,,,,,,,,,,,,,,,,
KBUR,Burbank,,34.1808,-118.3089,2012-04-12 17:53:00,,BKN,10.0,,57,,,,45.0,,64,8.0,180.0,,29.24,,,,,,,,,,,,,,,,,,,,,,,,,,,,,,,,,,,,,,,,,,,,,,,,,,,,,,,,,,,,,,,,,,,,,
KBUR,Burbank,,34.1808,-118.3089,2012-04-12 18:53:00,,OVC,10.0,,55,,,,45.0,,69,8.0,190.0,,29.24,,,,,,,,,,,,,,,,,,,,,,,,,,,,,,,,,,,,,,,,,,,,,,,,,,,,,,,,,,,,,,,,,,,,,
KBUR,Burbank,,34.1808,-118.3089,2012-04-12 19:53:00,,OVC,10.0,,54,,,,45.0,,72,6.0,230.0,,29.25,0.0,Steady,,,,,,,,,,,,,,,,,,,,,,,,,,,,,,,,,,,,,,,,,,,,,,,,,,,,,,,,,,,,,,,,,,,
KBUR,Burbank,,34.1808,-118.3089,2012-04-12 20:53:00,,OVC,10.0,,53,,,,45.0,,74,7.0,200.0,,29.25,,,,,,,,,,,,,,,,,,,,,,,,,,,,,,,,,,,,,,,,,,,,,,,,,,,,,,,,,,,,,,,,,,,,,
KBUR,Burbank,,34.1808,-118.3089,2012-04-12 21:53:00,,BKN,10.0,,53,,,,45.0,,74,5.0,170.0,,29.24,,,,,,,,,,,,,,,,,,,,,,,,,,,,,,,,,,,,,,,,,,,,,,,,,,,,,,,,,,,,,,,,,,,,,
KBUR,Burbank,,34.1808,-118.3089,2012-04-12 22:53:00,,OVC,10.0,,53,,,,46.0,,77,5.0,180.0,,29.23,2.0,Falling Rapidly,,,,58.0,53.0,,,,,,,,,,,,,,,,,,,,,,,,,,,,,,,,,,,,,,,,,,,,,,,,,,,,,,,,,,,,,,
KBUR,Burbank,,34.1808,-118.3089,2012-04-12 23:53:00,,OVC,10.0,,53,,,,47.0,,80,3.0,180.0,,29.22,,,,,,,,,,,,,,,,,,,,,,,,,,,,,,,,,,,,,,,,,,,,,,,,,,,,,,,,,,,,,,,,,,,,,
KBUR,Burbank,,34.1808,-118.3089,2012-04-13 00:53:00,,OVC,10.0,,53,,,,47.0,,80,3.0,140.0,,29.2,,,,,,60.0,47.0,,,,,,,,,,,,,,,,,,,,,,,,,,,,,,,,,,,,,,,,,,,,,,,,,,,,,,,,,,,,,,
KBUR,Burbank,,34.1808,-118.3089,2012-04-13 01:53:00,,BKN,10.0,,53,,,,47.0,,80,7.0,120.0,,29.17,2.0,Falling Rapidly,,,,,,,,,,,,,,,,,,,,,,,,,,,,,,,,,,,,,,,,,,,,,,,,,,,,,,,,,,,,,,,,,,,
KBUR,Burbank,,34.1808,-118.3089,2012-04-13 02:35:00,,OVC,10.0,,54,,,,48.0,,82,6.0,130.0,,29.18,,,,,,,,,,,,,,,,,,,,,,,,,,,,,,,,,,,,,,,,,,,,,,,,,,,,,,,,,,,,,,,,,,,,,
KBUR,Burbank,,34.1808,-118.3089,2012-04-13 02:53:00,,OVC,10.0,,53,,,,47.0,,80,6.0,130.0,,29.14,,,,,,,,,,,,,,,,,,,,,,,,,,,,,,,,,,,,,,,,,,,,,,,,,,,,,,,,,,,,,,,,,,,,,
KBUR,Burbank,,34.1808,-118.3089,2012-04-13 03:53:00,,OVC,10.0,,53,,,,47.0,,80,7.0,140.0,,29.13,,,,,,,,,,,,,,,,,,,,,,,,,,,,,,,,,,,,,,,,,,,,,,,,,,,,,,,,,,,,,,,,,,,,,
KBUR,Burbank,,34.1808,-118.3089,2012-04-13 04:53:00,,OVC,10.0,,52,,,,48.0,,86,9.0,140.0,,29.1,2.0,Falling,,0.0,,53.0,52.0,,,,,,,,,,,,,,,,,,,,,,,,,,,,,,,,,,,,,,,,,,,,,,,,,,,,,,,,,,,,,,
KBUR,Burbank,,34.1808,-118.3089,2012-04-13 05:53:00,,OVC,10.0,,52,,,,49.0,,89,12.0,120.0,,29.08,,,,0.02,,,,,,,,,,,,,,,,,,,,,,,,,,,,,,,,,,,,,,,,,,,,,,,,,,,,,,,,,,,,,,,,,
KBUR,Burbank,,34.1808,-118.3089,2012-04-13 06:40:00,,OVC,10.0,,52,,,,48.0,,88,12.0,130.0,,29.09,,,,,,,,,,,,,,,,,,,,,,,,,,,,,,,,,,,,,,,,,,,,,,,,,,,,,,,,,,,,,,,,,,,,,
KBUR,Burbank,,34.1808,-118.3089,2012-04-13 06:49:00,,OVC,10.0,,52,,,,48.0,,88,13.0,130.0,,29.08,,,,,,,,,,,,,,,,,,,,,,,,,,,,,,,,,,,,,,,,,,,,,,,,,,,,,,,,,,,,,,,,,,,,,
KBUR,Burbank,,34.1808,-118.3089,2012-04-13 06:53:00,,OVC,10.0,,52,,,,48.0,,86,13.0,140.0,,29.06,,,,,,,,,,,,,,,,,,,,,,,,,,,,,,,,,,,,,,,,,,,,,,,,,,,,,,,,,,,,,,,,,,,,,
KBUR,Burbank,,34.1808,-118.3089,2012-04-13 07:11:00,,OVC,7.0,,52,,,,48.0,,88,10.0,130.0,,29.08,,,,0.0,,,,,,,,,,,,,,,,,,,,,,,,,,,,,,,,,,,,,,,,,,,,,,,,,,,,,,,,,,,,,,,,,
KBUR,Burbank,,34.1808,-118.3089,2012-04-13 07:53:00,,OVC,10.0,,52,,,,49.0,,89,14.0,130.0,,29.06,2.0,Falling,,0.0,,,,,,,,,,,,,,,,,,,,,,,,,,,,,,,,,,,,,,,,,,,,,,,,,,,,,,,,,,,,,,,,,
KBUR,Burbank,,34.1808,-118.3089,2012-04-13 08:15:00,,OVC,10.0,,52,,,,48.0,,88,14.0,110.0,,29.07,,,,,,,,,,,,,,,,,,,,,,,,,,,,,,,,,,,,,,,,,,,,,,,,,,,,,,,,,,,,,,,,,,,,,
KBUR,Burbank,,34.1808,-118.3089,2012-04-13 08:48:00,,OVC,10.0,,52,,,,48.0,,88,14.0,120.0,26.0,29.07,,,,0.0,,,,,,,,,,,,,,,,,,,,,,,,,,,,,,,,,,,,,,,,,,,,,,,,,,,,,,,,,,,,,,,,,
KBUR,Burbank,,34.1808,-118.3089,2012-04-13 08:53:00,,OVC,10.0,,52,,,,49.0,,89,21.0,120.0,30.0,29.04,,,,0.0,,,,,,,,,,,,,,,,,,,,,,,,,,,,,,,,,,,,,,,,,,,,,,,,,,,,,,,,,,,,,,,,,
KBUR,Burbank,,34.1808,-118.3089,2012-04-13 09:02:00,,OVC,10.0,,52,,,,48.0,,88,14.0,130.0,30.0,29.06,,,,0.0,,,,,,,,,,,,,,,,,,,,,,,,,,,,,,,,,,,,,,,,,,,,,,,,,,,,,,,,,,,,,,,,,
KBUR,Burbank,,34.1808,-118.3089,2012-04-13 09:24:00,,OVC,10.0,,52,,,,48.0,,88,17.0,120.0,22.0,29.04,,,,0.0,,,,,,,,,,,,,,,,,,,,,,,,,,,,,,,,,,,,,,,,,,,,,,,,,,,,,,,,,,,,,,,,,
KBUR,Burbank,,34.1808,-118.3089,2012-04-13 09:53:00,,OVC,2.0,,51,,,,49.0,,92,17.0,140.0,25.0,29.02,,,,0.07,,,,,,,,,,,,,,,,,,,,,,,,,,,,,,,,,,,,,,,,,,,,,,,,,,,,,,,,,,,,,,,,,
KBUR,Burbank,,34.1808,-118.3089,2012-04-13 10:04:00,,OVC,10.0,,52,,,,48.0,,88,21.0,130.0,30.0,29.03,,,,0.01,,,,,,,,,,,,,,,,,,,,,,,,,,,,,,,,,,,,,,,,,,,,,,,,,,,,,,,,,,,,,,,,,
KBUR,Burbank,,34.1808,-118.3089,2012-04-13 10:53:00,,OVC,10.0,,51,,,,50.0,,96,16.0,130.0,28.0,28.99,2.0,Falling Rapidly,,0.01,,52.0,51.0,,,,,,,,,,,,,,,,,,,,,,,,,,,,,,,,,,,,,,,,,,,,,,,,,,,,,,,,,,,,,,
KBUR,Burbank,,34.1808,-118.3089,2012-04-13 11:28:00,,OVC,6.0,,52,,,,50.0,,94,21.0,110.0,29.0,28.98,,,,0.01,,,,,,,,,,,,,,,,,,,,,,,,,,,,,,,,,,,,,,,,,,,,,,,,,,,,,,,,,,,,,,,,,
KBUR,Burbank,,34.1808,-118.3089,2012-04-13 11:53:00,,OVC,7.0,,53,,,,50.0,,89,23.0,150.0,33.0,28.95,,,,0.02,,,,,,,,,,,,,,,,,,,,,,,,,,,,,,,,,,,,,,,,,,,,,,,,,,,,,,,,,,,,,,,,,
KBUR,Burbank,,34.1808,-118.3089,2012-04-13 12:05:00,,OVC,1.0,,54,,,,50.0,,88,17.0,160.0,24.0,28.98,,,,0.08,,,,,,,,,,,,,,,,,,,,,,,,,,,,,,,,,,,,,,,,,,,,,,,,,,,,,,,,,,,,,,,,,
KBUR,Burbank,,34.1808,-118.3089,2012-04-13 13:03:00,,OVC,5.0,,48,,,,46.0,,93,3.0,340.0,,28.99,,,,0.02,,,,,,,,,,,,,,,,,,,,,,,,,,,,,,,,,,,,,,,,,,,,,,,,,,,,,,,,,,,,,,,,,
KBUR,Burbank,,34.1808,-118.3089,2012-04-13 13:53:00,,OVC,6.0,,50,,,,47.0,,89,,,,28.95,2.0,Falling,,0.06,,,,,,,,,,,,,,,,,,,,,,,,,,,,,,,,,,,,,,,,,,,,,,,,,,,,,,,,,,,,,,,,,
KBUR,Burbank,,34.1808,-118.3089,2012-04-13 14:53:00,,OVC,10.0,,50,,,,44.0,,80,8.0,280.0,,28.95,,,,0.08,,,,,,,,,,,,,,,,,,,,,,,,,,,,,,,,,,,,,,,,,,,,,,,,,,,,,,,,,,,,,,,,,
KBUR,Burbank,,34.1808,-118.3089,2012-04-13 15:15:00,,BKN,10.0,,50,,,,45.0,,82,,,,28.95,,,,0.0,,,,,,,,,,,,,,,,,,,,,,,,,,,,,,,,,,,,,,,,,,,,,,,,,,,,,,,,,,,,,,,,,
KBUR,Burbank,,34.1808,-118.3089,2012-04-13 15:53:00,,OVC,10.0,,51,,,,44.0,,77,6.0,290.0,,28.92,,,,0.0,,,,,,,,,,,,,,,,,,,,,,,,,,,,,,,,,,,,,,,,,,,,,,,,,,,,,,,,,,,,,,,,,
KBUR,Burbank,,34.1808,-118.3089,2012-04-13 16:53:00,,OVC,10.0,,51,,,,46.0,,83,6.0,220.0,,28.91,2.0,Falling Rapidly,,0.0,,53.0,48.0,,,,,,,,,,,,,,,,,,,,,,,,,,,,,,,,,,,,,,,,,,,,,,,,,,,,,,,,,,,,,,
KBUR,Burbank,,34.1808,-118.3089,2012-04-13 17:53:00,,OVC,10.0,,51,,,,42.0,,71,13.0,260.0,21.0,28.91,,,,0.0,,,,,,,,,,,,,,,,,,,,,,,,,,,,,,,,,,,,,,,,,,,,,,,,,,,,,,,,,,,,,,,,,
KBUR,Burbank,,34.1808,-118.3089,2012-04-13 18:22:00,,OVC,10.0,,52,,,,41.0,,67,16.0,260.0,23.0,28.93,,,,,,,,,,,,,,,,,,,,,,,,,,,,,,,,,,,,,,,,,,,,,,,,,,,,,,,,,,,,,,,,,,,,,
KBUR,Burbank,,34.1808,-118.3089,2012-04-13 18:53:00,,OVC,10.0,,50,,,,41.0,,71,12.0,270.0,,28.91,,,,,,,,,,,,,,,,,,,,,,,,,,,,,,,,,,,,,,,,,,,,,,,,,,,,,,,,,,,,,,,,,,,,,
KBUR,Burbank,,34.1808,-118.3089,2012-04-13 19:53:00,,BKN,10.0,,50,,,,40.0,,68,18.0,260.0,24.0,28.91,0.0,Steady,,,,,,,,,,,,,,,,,,,,,,,,,,,,,,,,,,,,,,,,,,,,,,,,,,,,,,,,,,,,,,,,,,,
KBUR,Burbank,,34.1808,-118.3089,2012-04-13 20:53:00,,CLR,10.0,,49,,,,41.0,,74,5.0,320.0,,28.93,,,,,,,,,,,,,,,,,,,,,,,,,,,,,,,,,,,,,,,,,,,,,,,,,,,,,,,,,,,,,,,,,,,,,
KBUR,Burbank,,34.1808,-118.3089,2012-04-13 21:53:00,,CLR,10.0,,48,,,,39.0,,71,9.0,280.0,,28.94,,,,,,,,,,,,,,,,,,,,,,,,,,,,,,,,,,,,,,,,,,,,,,,,,,,,,,,,,,,,,,,,,,,,,
KBUR,Burbank,,34.1808,-118.3089,2012-04-13 22:53:00,,FEW,10.0,,47,,,,38.0,,71,5.0,300.0,,28.95,1.0,Rising,,,,51.0,47.0,,,,,,,,,,,,,,,,,,,,,,,,,,,,,,,,,,,,,,,,,,,,,,,,,,,,,,,,,,,,,,
KBUR,Burbank,,34.1808,-118.3089,2012-04-13 23:53:00,,CLR,10.0,,46,,,,37.0,,71,8.0,290.0,,28.95,,,,,,,,,,,,,,,,,,,,,,,,,,,,,,,,,,,,,,,,,,,,,,,,,,,,,,,,,,,,,,,,,,,,,
KBUR,Burbank,,34.1808,-118.3089,2012-04-14 00:53:00,,BKN,10.0,,45,,,,38.0,,76,3.0,330.0,,28.96,,,,,,53.0,45.0,,,,,,,,,,,,,,,,,,,,,,,,,,,,,,,,,,,,,,,,,,,,,,,,,,,,,,,,,,,,,,
KBUR,Burbank,,34.1808,-118.3089,2012-04-14 01:53:00,,CLR,10.0,,44,,,,38.0,,79,3.0,320.0,,28.96,0.0,Steady,,,,,,,,,,,,,,,,,,,,,,,,,,,,,,,,,,,,,,,,,,,,,,,,,,,,,,,,,,,,,,,,,,,
KBUR,Burbank,,34.1808,-118.3089,2012-04-14 02:53:00,,CLR,10.0,,43,,,,38.0,,82,6.0,340.0,,28.96,,,,,,,,,,,,,,,,,,,,,,,,,,,,,,,,,,,,,,,,,,,,,,,,,,,,,,,,,,,,,,,,,,,,,
KBUR,Burbank,,34.1808,-118.3089,2012-04-14 03:53:00,,CLR,10.0,,43,,,,37.0,,80,3.0,10.0,,28.97,,,,,,,,,,,,,,,,,,,,,,,,,,,,,,,,,,,,,,,,,,,,,,,,,,,,,,,,,,,,,,,,,,,,,
KBUR,Burbank,,34.1808,-118.3089,2012-04-14 04:53:00,,CLR,10.0,,41,,,,37.0,,86,3.0,310.0,,28.97,0.0,Steady,,,,47.0,41.0,,,,,,,,,,,,,,,,,,,,,,,,,,,,,,,,,,,,,,,,,,,,,,,,,,,,,,,,,,,,,,
KBUR,Burbank,,34.1808,-118.3089,2012-04-14 05:53:00,,CLR,10.0,,40,,,,36.0,,86,5.0,310.0,,28.97,,,,,,,,,,,,,,,,,,,,,,,,,,,,,,,,,,,,,,,,,,,,,,,,,,,,,,,,,,,,,,,,,,,,,
KBUR,Burbank,,34.1808,-118.3089,2012-04-14 06:53:00,,CLR,10.0,,39,,,,36.0,,89,3.0,350.0,,29.0,,,,,,,,,,,,,,,,,,,,,,,,,,,,,,,,,,,,,,,,,,,,,,,,,,,,,,,,,,,,,,,,,,,,,
KBUR,Burbank,,34.1808,-118.3089,2012-04-14 07:53:00,,SCT,10.0,,45,,,,37.0,,74,5.0,10.0,,29.03,1.0,Rising Rapidly,,,,,,,,,,,,,,,,,,,,,,,,,,,,,,,,,,,,,,,,,,,,,,,,,,,,,,,,,,,,,,,,,,,
KBUR,Burbank,,34.1808,-118.3089,2012-04-14 08:53:00,,SCT,10.0,,48,,,,37.0,,66,5.0,280.0,,29.04,,,,,,,,,,,,,,,,,,,,,,,,,,,,,,,,,,,,,,,,,,,,,,,,,,,,,,,,,,,,,,,,,,,,,
KBUR,Burbank,,34.1808,-118.3089,2012-04-14 09:53:00,,SCT,10.0,,51,,,,35.0,,54,5.0,280.0,,29.05,,,,,,,,,,,,,,,,,,,,,,,,,,,,,,,,,,,,,,,,,,,,,,,,,,,,,,,,,,,,,,,,,,,,,
KBUR,Burbank,,34.1808,-118.3089,2012-04-14 10:53:00,,SCT,10.0,,53,,,,33.0,,47,9.0,260.0,,29.07,1.0,Rising Rapidly,,,,54.0,39.0,,,,,,,,,,,,,,,,,,,,,,,,,,,,,,,,,,,,,,,,,,,,,,,,,,,,,,,,,,,,,,
KBUR,Burbank,,34.1808,-118.3089,2012-04-14 11:53:00,,BKN,10.0,,56,,,,33.0,,42,3.0,,16.0,29.07,,,,,,,,,,,,,,,,,,,,,,,,,,,,,,,,,,,,,,,,,,,,,,,,,,,,,,,,,,,,,,,,,,,,,
KBUR,Burbank,,34.1808,-118.3089,2012-04-14 12:53:00,,BKN,10.0,,58,,,,33.0,,39,6.0,,,29.08,,,,,,,,,,,,,,,,,,,,,,,,,,,,,,,,,,,,,,,,,,,,,,,,,,,,,,,,,,,,,,,,,,,,,
KBUR,Burbank,,34.1808,-118.3089,2012-04-14 13:53:00,,BKN,10.0,,60,,,,33.0,,36,9.0,310.0,18.0,29.08,1.0,Rising,,,,,,,,,,,,,,,,,,,,,,,,,,,,,,,,,,,,,,,,,,,,,,,,,,,,,,,,,,,,,,,,,,,
KBUR,Burbank,,34.1808,-118.3089,2012-04-14 14:53:00,,FEW,10.0,,61,,,,33.0,,35,9.0,320.0,18.0,29.08,,,,,,,,,,,,,,,,,,,,,,,,,,,,,,,,,,,,,,,,,,,,,,,,,,,,,,,,,,,,,,,,,,,,,
KBUR,Burbank,,34.1808,-118.3089,2012-04-14 15:53:00,,SCT,10.0,,62,,,,33.0,,34,10.0,310.0,,29.07,,,,,,,,,,,,,,,,,,,,,,,,,,,,,,,,,,,,,,,,,,,,,,,,,,,,,,,,,,,,,,,,,,,,,
KBUR,Burbank,,34.1808,-118.3089,2012-04-14 16:53:00,,FEW,10.0,,62,,,,33.0,,34,8.0,340.0,,29.08,1.0,Rising Rapidly,,,,62.0,53.0,,,,,,,,,,,,,,,,,,,,,,,,,,,,,,,,,,,,,,,,,,,,,,,,,,,,,,,,,,,,,,
KBUR,Burbank,,34.1808,-118.3089,2012-04-14 17:53:00,,SCT,10.0,,60,,,,38.0,,44,7.0,220.0,,29.11,,,,,,,,,,,,,,,,,,,,,,,,,,,,,,,,,,,,,,,,,,,,,,,,,,,,,,,,,,,,,,,,,,,,,
KBUR,Burbank,,34.1808,-118.3089,2012-04-14 18:53:00,,BKN,10.0,,59,,,,39.0,,48,13.0,170.0,,29.13,,,,,,,,,,,,,,,,,,,,,,,,,,,,,,,,,,,,,,,,,,,,,,,,,,,,,,,,,,,,,,,,,,,,,
KBUR,Burbank,,34.1808,-118.3089,2012-04-14 19:53:00,,SCT,10.0,,58,,,,35.0,,42,,,,29.17,1.0,Rising Rapidly,,,,,,,,,,,,,,,,,,,,,,,,,,,,,,,,,,,,,,,,,,,,,,,,,,,,,,,,,,,,,,,,,,,
KBUR,Burbank,,34.1808,-118.3089,2012-04-14 20:53:00,,CLR,10.0,,56,,,,33.0,,42,10.0,350.0,,29.19,,,,,,,,,,,,,,,,,,,,,,,,,,,,,,,,,,,,,,,,,,,,,,,,,,,,,,,,,,,,,,,,,,,,,
KBUR,Burbank,,34.1808,-118.3089,2012-04-14 21:53:00,,CLR,10.0,,55,,,,34.0,,45,5.0,,,29.2,,,,,,,,,,,,,,,,,,,,,,,,,,,,,,,,,,,,,,,,,,,,,,,,,,,,,,,,,,,,,,,,,,,,,
KBUR,Burbank,,34.1808,-118.3089,2012-04-14 22:53:00,,CLR,10.0,,54,,,,34.0,,47,7.0,90.0,,29.22,1.0,Rising,,,,62.0,54.0,,,,,,,,,,,,,,,,,,,,,,,,,,,,,,,,,,,,,,,,,,,,,,,,,,,,,,,,,,,,,,
KBUR,Burbank,,34.1808,-118.3089,2012-04-14 23:53:00,,CLR,10.0,,52,,,,40.0,,63,6.0,100.0,,29.23,,,,,,,,,,,,,,,,,,,,,,,,,,,,,,,,,,,,,,,,,,,,,,,,,,,,,,,,,,,,,,,,,,,,,
KBUR,Burbank,,34.1808,-118.3089,2012-04-15 00:53:00,,CLR,10.0,,51,,,,42.0,,71,3.0,100.0,,29.24,,,,,,62.0,39.0,,,,,,,,,,,,,,,,,,,,,,,,,,,,,,,,,,,,,,,,,,,,,,,,,,,,,,,,,,,,,,
KBUR,Burbank,,34.1808,-118.3089,2012-04-15 01:53:00,,CLR,10.0,,49,,,,41.0,,74,,,,29.24,0.0,Steady,,,,,,,,,,,,,,,,,,,,,,,,,,,,,,,,,,,,,,,,,,,,,,,,,,,,,,,,,,,,,,,,,,,
KBUR,Burbank,,34.1808,-118.3089,2012-04-15 02:53:00,,CLR,10.0,,47,,,,40.0,,77,,,,29.24,,,,,,,,,,,,,,,,,,,,,,,,,,,,,,,,,,,,,,,,,,,,,,,,,,,,,,,,,,,,,,,,,,,,,
KBUR,Burbank,,34.1808,-118.3089,2012-04-15 03:53:00,,CLR,10.0,,46,,,,39.0,,76,,,,29.25,,,,,,,,,,,,,,,,,,,,,,,,,,,,,,,,,,,,,,,,,,,,,,,,,,,,,,,,,,,,,,,,,,,,,
KBUR,Burbank,,34.1808,-118.3089,2012-04-15 04:53:00,,CLR,10.0,,45,,,,39.0,,80,,,,29.26,1.0,Rising Rapidly,,,,54.0,45.0,,,,,,,,,,,,,,,,,,,,,,,,,,,,,,,,,,,,,,,,,,,,,,,,,,,,,,,,,,,,,,
KBUR,Burbank,,34.1808,-118.3089,2012-04-15 05:53:00,,CLR,10.0,,43,,,,39.0,,86,3.0,350.0,,29.26,,,,,,,,,,,,,,,,,,,,,,,,,,,,,,,,,,,,,,,,,,,,,,,,,,,,,,,,,,,,,,,,,,,,,
KBUR,Burbank,,34.1808,-118.3089,2012-04-15 06:53:00,,BKN,10.0,,44,,,,39.0,,82,,,,29.28,,,,,,,,,,,,,,,,,,,,,,,,,,,,,,,,,,,,,,,,,,,,,,,,,,,,,,,,,,,,,,,,,,,,,
KBUR,Burbank,,34.1808,-118.3089,2012-04-15 07:53:00,,BKN,10.0,,48,,,,42.0,,80,,,,29.3,1.0,Rising Rapidly,,,,,,,,,,,,,,,,,,,,,,,,,,,,,,,,,,,,,,,,,,,,,,,,,,,,,,,,,,,,,,,,,,,
KBUR,Burbank,,34.1808,-118.3089,2012-04-15 08:53:00,,SCT,10.0,,51,,,,44.0,,77,7.0,110.0,,29.31,,,,,,,,,,,,,,,,,,,,,,,,,,,,,,,,,,,,,,,,,,,,,,,,,,,,,,,,,,,,,,,,,,,,,
KBUR,Burbank,,34.1808,-118.3089,2012-04-15 09:53:00,,SCT,10.0,,54,,,,42.0,,64,6.0,,,29.31,,,,,,,,,,,,,,,,,,,,,,,,,,,,,,,,,,,,,,,,,,,,,,,,,,,,,,,,,,,,,,,,,,,,,
KBUR,Burbank,,34.1808,-118.3089,2012-04-15 10:53:00,,CLR,10.0,,56,,,,44.0,,64,6.0,140.0,,29.31,1.0,Rising,,,,57.0,43.0,,,,,,,,,,,,,,,,,,,,,,,,,,,,,,,,,,,,,,,,,,,,,,,,,,,,,,,,,,,,,,
KBUR,Burbank,,34.1808,-118.3089,2012-04-15 11:53:00,,CLR,10.0,,60,,,,44.0,,55,,,,29.3,,,,,,,,,,,,,,,,,,,,,,,,,,,,,,,,,,,,,,,,,,,,,,,,,,,,,,,,,,,,,,,,,,,,,
KBUR,Burbank,,34.1808,-118.3089,2012-04-15 12:53:00,,CLR,10.0,,63,,,,43.0,,48,,,,29.28,,,,,,,,,,,,,,,,,,,,,,,,,,,,,,,,,,,,,,,,,,,,,,,,,,,,,,,,,,,,,,,,,,,,,
KBUR,Burbank,,34.1808,-118.3089,2012-04-15 13:53:00,,CLR,10.0,,66,,,,43.0,,43,3.0,,,29.27,2.0,Falling Rapidly,,,,,,,,,,,,,,,,,,,,,,,,,,,,,,,,,,,,,,,,,,,,,,,,,,,,,,,,,,,,,,,,,,,
KBUR,Burbank,,34.1808,-118.3089,2012-04-15 14:53:00,,CLR,10.0,,67,,,,46.0,,47,7.0,200.0,,29.25,,,,,,,,,,,,,,,,,,,,,,,,,,,,,,,,,,,,,,,,,,,,,,,,,,,,,,,,,,,,,,,,,,,,,
KBUR,Burbank,,34.1808,-118.3089,2012-04-15 15:53:00,,CLR,10.0,,67,,,,46.0,,47,8.0,170.0,,29.24,,,,,,,,,,,,,,,,,,,,,,,,,,,,,,,,,,,,,,,,,,,,,,,,,,,,,,,,,,,,,,,,,,,,,
KBUR,Burbank,,34.1808,-118.3089,2012-04-15 16:53:00,,CLR,10.0,,65,,,,46.0,,50,8.0,180.0,,29.24,2.0,Falling,,,,68.0,56.0,,,,,,,,,,,,,,,,,,,,,,,,,,,,,,,,,,,,,,,,,,,,,,,,,,,,,,,,,,,,,,
KBUR,Burbank,,34.1808,-118.3089,2012-04-15 17:53:00,,CLR,10.0,,63,,,,46.0,,54,8.0,190.0,,29.24,,,,,,,,,,,,,,,,,,,,,,,,,,,,,,,,,,,,,,,,,,,,,,,,,,,,,,,,,,,,,,,,,,,,,
KBUR,Burbank,,34.1808,-118.3089,2012-04-15 18:53:00,,CLR,10.0,,61,,,,47.0,,60,6.0,170.0,,29.24,,,,,,,,,,,,,,,,,,,,,,,,,,,,,,,,,,,,,,,,,,,,,,,,,,,,,,,,,,,,,,,,,,,,,
KBUR,Burbank,,34.1808,-118.3089,2012-04-15 19:53:00,,CLR,10.0,,59,,,,48.0,,67,5.0,180.0,,29.25,1.0,Rising Rapidly,,,,,,,,,,,,,,,,,,,,,,,,,,,,,,,,,,,,,,,,,,,,,,,,,,,,,,,,,,,,,,,,,,,
KBUR,Burbank,,34.1808,-118.3089,2012-04-15 20:53:00,,CLR,10.0,,58,,,,47.0,,67,3.0,160.0,,29.27,,,,,,,,,,,,,,,,,,,,,,,,,,,,,,,,,,,,,,,,,,,,,,,,,,,,,,,,,,,,,,,,,,,,,
KBUR,Burbank,,34.1808,-118.3089,2012-04-15 21:53:00,,CLR,10.0,,56,,,,47.0,,72,3.0,130.0,,29.28,,,,,,,,,,,,,,,,,,,,,,,,,,,,,,,,,,,,,,,,,,,,,,,,,,,,,,,,,,,,,,,,,,,,,
KBUR,Burbank,,34.1808,-118.3089,2012-04-15 22:53:00,,CLR,10.0,,56,,,,48.0,,75,,,,29.29,1.0,Rising,,,,65.0,56.0,,,,,,,,,,,,,,,,,,,,,,,,,,,,,,,,,,,,,,,,,,,,,,,,,,,,,,,,,,,,,,
KBUR,Burbank,,34.1808,-118.3089,2012-04-15 23:53:00,,CLR,10.0,,55,,,,49.0,,80,5.0,90.0,,29.29,,,,,,,,,,,,,,,,,,,,,,,,,,,,,,,,,,,,,,,,,,,,,,,,,,,,,,,,,,,,,,,,,,,,,
KBUR,Burbank,,34.1808,-118.3089,2012-04-16 00:53:00,,CLR,10.0,,53,,,,48.0,,83,5.0,100.0,,29.29,,,,,,68.0,43.0,,,,,,,,,,,,,,,,,,,,,,,,,,,,,,,,,,,,,,,,,,,,,,,,,,,,,,,,,,,,,,
KBUR,Burbank,,34.1808,-118.3089,2012-04-16 01:53:00,,CLR,10.0,,52,,,,47.0,,83,,,,29.28,2.0,Falling Rapidly,,,,,,,,,,,,,,,,,,,,,,,,,,,,,,,,,,,,,,,,,,,,,,,,,,,,,,,,,,,,,,,,,,,
KBUR,Burbank,,34.1808,-118.3089,2012-04-16 02:53:00,,CLR,10.0,,51,,,,46.0,,83,,,,29.26,,,,,,,,,,,,,,,,,,,,,,,,,,,,,,,,,,,,,,,,,,,,,,,,,,,,,,,,,,,,,,,,,,,,,
KBUR,Burbank,,34.1808,-118.3089,2012-04-16 03:53:00,,CLR,10.0,,50,,,,45.0,,83,3.0,320.0,,29.26,,,,,,,,,,,,,,,,,,,,,,,,,,,,,,,,,,,,,,,,,,,,,,,,,,,,,,,,,,,,,,,,,,,,,
KBUR,Burbank,,34.1808,-118.3089,2012-04-16 04:53:00,,CLR,10.0,,50,,,,44.0,,80,3.0,250.0,,29.25,2.0,Falling,,,,56.0,50.0,,,,,,,,,,,,,,,,,,,,,,,,,,,,,,,,,,,,,,,,,,,,,,,,,,,,,,,,,,,,,,
KBUR,Burbank,,34.1808,-118.3089,2012-04-16 05:53:00,,CLR,10.0,,48,,,,43.0,,83,,,,29.27,,,,,,,,,,,,,,,,,,,,,,,,,,,,,,,,,,,,,,,,,,,,,,,,,,,,,,,,,,,,,,,,,,,,,
KBUR,Burbank,,34.1808,-118.3089,2012-04-16 06:53:00,,CLR,10.0,,49,,,,42.0,,77,,,,29.28,,,,,,,,,,,,,,,,,,,,,,,,,,,,,,,,,,,,,,,,,,,,,,,,,,,,,,,,,,,,,,,,,,,,,
KBUR,Burbank,,34.1808,-118.3089,2012-04-16 07:53:00,,CLR,10.0,,53,,,,45.0,,74,,,,29.29,1.0,Rising Rapidly,,,,,,,,,,,,,,,,,,,,,,,,,,,,,,,,,,,,,,,,,,,,,,,,,,,,,,,,,,,,,,,,,,,
KBUR,Burbank,,34.1808,-118.3089,2012-04-16 08:53:00,,CLR,10.0,,59,,,,44.0,,58,,,,29.3,,,,,,,,,,,,,,,,,,,,,,,,,,,,,,,,,,,,,,,,,,,,,,,,,,,,,,,,,,,,,,,,,,,,,
KBUR,Burbank,,34.1808,-118.3089,2012-04-16 09:53:00,,CLR,10.0,,64,,,,43.0,,46,3.0,270.0,,29.3,,,,,,,,,,,,,,,,,,,,,,,,,,,,,,,,,,,,,,,,,,,,,,,,,,,,,,,,,,,,,,,,,,,,,
KBUR,Burbank,,34.1808,-118.3089,2012-04-16 10:53:00,,CLR,10.0,,68,,,,42.0,,39,,,,29.29,0.0,Steady,,,,68.0,48.0,,,,,,,,,,,,,,,,,,,,,,,,,,,,,,,,,,,,,,,,,,,,,,,,,,,,,,,,,,,,,,
KBUR,Burbank,,34.1808,-118.3089,2012-04-16 11:53:00,,CLR,10.0,,73,,,,40.0,,30,3.0,200.0,,29.27,,,,,,,,,,,,,,,,,,,,,,,,,,,,,,,,,,,,,,,,,,,,,,,,,,,,,,,,,,,,,,,,,,,,,
KBUR,Burbank,,34.1808,-118.3089,2012-04-16 12:53:00,,CLR,10.0,,75,,,,39.0,,27,7.0,190.0,,29.25,,,,,,,,,,,,,,,,,,,,,,,,,,,,,,,,,,,,,,,,,,,,,,,,,,,,,,,,,,,,,,,,,,,,,
KBUR,Burbank,,34.1808,-118.3089,2012-04-16 13:53:00,,CLR,10.0,,78,,,,40.0,,25,7.0,200.0,,29.24,2.0,Falling,,,,,,,,,,,,,,,,,,,,,,,,,,,,,,,,,,,,,,,,,,,,,,,,,,,,,,,,,,,,,,,,,,,
KBUR,Burbank,,34.1808,-118.3089,2012-04-16 14:53:00,,CLR,10.0,,78,,,,39.0,,25,7.0,170.0,,29.22,,,,,,,,,,,,,,,,,,,,,,,,,,,,,,,,,,,,,,,,,,,,,,,,,,,,,,,,,,,,,,,,,,,,,
KBUR,Burbank,,34.1808,-118.3089,2012-04-16 15:53:00,,CLR,10.0,,78,,,,31.0,,18,8.0,160.0,,29.21,,,,,,,,,,,,,,,,,,,,,,,,,,,,,,,,,,,,,,,,,,,,,,,,,,,,,,,,,,,,,,,,,,,,,
KBUR,Burbank,,34.1808,-118.3089,2012-04-16 16:53:00,,CLR,10.0,,78,,,,30.0,,17,6.0,180.0,,29.21,2.0,Falling,,,,79.0,68.0,,,,,,,,,,,,,,,,,,,,,,,,,,,,,,,,,,,,,,,,,,,,,,,,,,,,,,,,,,,,,,
KBUR,Burbank,,34.1808,-118.3089,2012-04-16 17:53:00,,CLR,10.0,,75,,,,41.0,,29,9.0,180.0,,29.21,,,,,,,,,,,,,,,,,,,,,,,,,,,,,,,,,,,,,,,,,,,,,,,,,,,,,,,,,,,,,,,,,,,,,
KBUR,Burbank,,34.1808,-118.3089,2012-04-16 18:53:00,,CLR,10.0,,73,,,,39.0,,29,6.0,130.0,,29.2,,,,,,,,,,,,,,,,,,,,,,,,,,,,,,,,,,,,,,,,,,,,,,,,,,,,,,,,,,,,,,,,,,,,,
KBUR,Burbank,,34.1808,-118.3089,2012-04-16 19:53:00,,CLR,10.0,,71,,,,41.0,,34,,,,29.21,0.0,Steady,,,,,,,,,,,,,,,,,,,,,,,,,,,,,,,,,,,,,,,,,,,,,,,,,,,,,,,,,,,,,,,,,,,
KBUR,Burbank,,34.1808,-118.3089,2012-04-16 20:53:00,,CLR,10.0,,69,,,,42.0,,38,3.0,300.0,,29.22,,,,,,,,,,,,,,,,,,,,,,,,,,,,,,,,,,,,,,,,,,,,,,,,,,,,,,,,,,,,,,,,,,,,,
KBUR,Burbank,,34.1808,-118.3089,2012-04-16 21:53:00,,CLR,10.0,,66,,,,42.0,,42,5.0,300.0,,29.22,,,,,,,,,,,,,,,,,,,,,,,,,,,,,,,,,,,,,,,,,,,,,,,,,,,,,,,,,,,,,,,,,,,,,
KBUR,Burbank,,34.1808,-118.3089,2012-04-16 22:53:00,,CLR,10.0,,64,,,,41.0,,43,7.0,290.0,,29.22,0.0,Steady,,,,78.0,64.0,,,,,,,,,,,,,,,,,,,,,,,,,,,,,,,,,,,,,,,,,,,,,,,,,,,,,,,,,,,,,,
KBUR,Burbank,,34.1808,-118.3089,2012-04-16 23:53:00,,CLR,10.0,,62,,,,40.0,,44,,,,29.2,,,,,,,,,,,,,,,,,,,,,,,,,,,,,,,,,,,,,,,,,,,,,,,,,,,,,,,,,,,,,,,,,,,,,
KBUR,Burbank,,34.1808,-118.3089,2012-04-17 00:53:00,,CLR,10.0,,61,,,,43.0,,52,5.0,90.0,,29.2,,,,,,79.0,48.0,,,,,,,,,,,,,,,,,,,,,,,,,,,,,,,,,,,,,,,,,,,,,,,,,,,,,,,,,,,,,,
KBUR,Burbank,,34.1808,-118.3089,2012-04-17 01:53:00,,CLR,10.0,,59,,,,43.0,,55,,,,29.2,2.0,Falling,,,,,,,,,,,,,,,,,,,,,,,,,,,,,,,,,,,,,,,,,,,,,,,,,,,,,,,,,,,,,,,,,,,
KBUR,Burbank,,34.1808,-118.3089,2012-04-17 02:53:00,,CLR,10.0,,57,,,,42.0,,57,,,,29.19,,,,,,,,,,,,,,,,,,,,,,,,,,,,,,,,,,,,,,,,,,,,,,,,,,,,,,,,,,,,,,,,,,,,,
KBUR,Burbank,,34.1808,-118.3089,2012-04-17 03:53:00,,CLR,10.0,,57,,,,40.0,,53,,,,29.18,,,,,,,,,,,,,,,,,,,,,,,,,,,,,,,,,,,,,,,,,,,,,,,,,,,,,,,,,,,,,,,,,,,,,
KBUR,Burbank,,34.1808,-118.3089,2012-04-17 04:53:00,,CLR,10.0,,55,,,,41.0,,59,,,,29.18,2.0,Falling,,,,64.0,54.0,,,,,,,,,,,,,,,,,,,,,,,,,,,,,,,,,,,,,,,,,,,,,,,,,,,,,,,,,,,,,,
KBUR,Burbank,,34.1808,-118.3089,2012-04-17 05:53:00,,CLR,10.0,,53,,,,42.0,,66,,,,29.18,,,,,,,,,,,,,,,,,,,,,,,,,,,,,,,,,,,,,,,,,,,,,,,,,,,,,,,,,,,,,,,,,,,,,
KBUR,Burbank,,34.1808,-118.3089,2012-04-17 06:53:00,,CLR,10.0,,53,,,,42.0,,66,,,,29.19,,,,,,,,,,,,,,,,,,,,,,,,,,,,,,,,,,,,,,,,,,,,,,,,,,,,,,,,,,,,,,,,,,,,,
KBUR,Burbank,,34.1808,-118.3089,2012-04-17 07:53:00,,CLR,10.0,,60,,,,42.0,,51,,,,29.19,1.0,Rising Rapidly,,,,,,,,,,,,,,,,,,,,,,,,,,,,,,,,,,,,,,,,,,,,,,,,,,,,,,,,,,,,,,,,,,,
KBUR,Burbank,,34.1808,-118.3089,2012-04-17 08:53:00,,CLR,10.0,,65,,,,41.0,,42,,,,29.19,,,,,,,,,,,,,,,,,,,,,,,,,,,,,,,,,,,,,,,,,,,,,,,,,,,,,,,,,,,,,,,,,,,,,
KBUR,Burbank,,34.1808,-118.3089,2012-04-17 09:53:00,,CLR,10.0,,71,,,,41.0,,34,,,,29.19,,,,,,,,,,,,,,,,,,,,,,,,,,,,,,,,,,,,,,,,,,,,,,,,,,,,,,,,,,,,,,,,,,,,,
KBUR,Burbank,,34.1808,-118.3089,2012-04-17 10:53:00,,CLR,10.0,,74,,,,40.0,,29,,,,29.19,2.0,Falling Rapidly,,,,74.0,52.0,,,,,,,,,,,,,,,,,,,,,,,,,,,,,,,,,,,,,,,,,,,,,,,,,,,,,,,,,,,,,,
KBUR,Burbank,,34.1808,-118.3089,2012-04-17 11:53:00,,CLR,10.0,,78,,,,38.0,,24,7.0,260.0,,29.17,,,,,,,,,,,,,,,,,,,,,,,,,,,,,,,,,,,,,,,,,,,,,,,,,,,,,,,,,,,,,,,,,,,,,
KBUR,Burbank,,34.1808,-118.3089,2012-04-17 12:53:00,,CLR,10.0,,81,,,,35.0,,19,3.0,,,29.15,,,,,,,,,,,,,,,,,,,,,,,,,,,,,,,,,,,,,,,,,,,,,,,,,,,,,,,,,,,,,,,,,,,,,
KBUR,Burbank,,34.1808,-118.3089,2012-04-17 13:53:00,,CLR,10.0,,80,,,,42.0,,26,9.0,190.0,,29.14,2.0,Falling,,,,,,,,,,,,,,,,,,,,,,,,,,,,,,,,,,,,,,,,,,,,,,,,,,,,,,,,,,,,,,,,,,,
KBUR,Burbank,,34.1808,-118.3089,2012-04-17 14:53:00,,CLR,10.0,,81,,,,40.0,,23,12.0,200.0,,29.12,,,,,,,,,,,,,,,,,,,,,,,,,,,,,,,,,,,,,,,,,,,,,,,,,,,,,,,,,,,,,,,,,,,,,
KBUR,Burbank,,34.1808,-118.3089,2012-04-17 15:53:00,,CLR,10.0,,80,,,,39.0,,23,10.0,150.0,,29.11,,,,,,,,,,,,,,,,,,,,,,,,,,,,,,,,,,,,,,,,,,,,,,,,,,,,,,,,,,,,,,,,,,,,,
KBUR,Burbank,,34.1808,-118.3089,2012-04-17 16:53:00,,CLR,10.0,,77,,,,39.0,,25,9.0,190.0,,29.11,2.0,Falling,,,,82.0,74.0,,,,,,,,,,,,,,,,,,,,,,,,,,,,,,,,,,,,,,,,,,,,,,,,,,,,,,,,,,,,,,
KBUR,Burbank,,34.1808,-118.3089,2012-04-17 17:53:00,,CLR,10.0,,76,,,,42.0,,30,8.0,150.0,,29.1,,,,,,,,,,,,,,,,,,,,,,,,,,,,,,,,,,,,,,,,,,,,,,,,,,,,,,,,,,,,,,,,,,,,,
KBUR,Burbank,,34.1808,-118.3089,2012-04-17 18:53:00,,CLR,10.0,,73,,,,43.0,,34,8.0,160.0,,29.1,,,,,,,,,,,,,,,,,,,,,,,,,,,,,,,,,,,,,,,,,,,,,,,,,,,,,,,,,,,,,,,,,,,,,
KBUR,Burbank,,34.1808,-118.3089,2012-04-17 19:53:00,,CLR,10.0,,72,,,,42.0,,34,8.0,140.0,,29.1,0.0,Steady,,,,,,,,,,,,,,,,,,,,,,,,,,,,,,,,,,,,,,,,,,,,,,,,,,,,,,,,,,,,,,,,,,,
KBUR,Burbank,,34.1808,-118.3089,2012-04-17 20:53:00,,CLR,10.0,,69,,,,44.0,,40,5.0,100.0,,29.11,,,,,,,,,,,,,,,,,,,,,,,,,,,,,,,,,,,,,,,,,,,,,,,,,,,,,,,,,,,,,,,,,,,,,
KBUR,Burbank,,34.1808,-118.3089,2012-04-17 21:53:00,,CLR,10.0,,67,,,,44.0,,44,3.0,120.0,,29.12,,,,,,,,,,,,,,,,,,,,,,,,,,,,,,,,,,,,,,,,,,,,,,,,,,,,,,,,,,,,,,,,,,,,,
KBUR,Burbank,,34.1808,-118.3089,2012-04-17 22:53:00,,CLR,10.0,,66,,,,46.0,,48,,,,29.13,1.0,Rising,,,,79.0,66.0,,,,,,,,,,,,,,,,,,,,,,,,,,,,,,,,,,,,,,,,,,,,,,,,,,,,,,,,,,,,,,
KBUR,Burbank,,34.1808,-118.3089,2012-04-17 23:53:00,,CLR,10.0,,63,,,,48.0,,58,3.0,90.0,,29.13,,,,,,,,,,,,,,,,,,,,,,,,,,,,,,,,,,,,,,,,,,,,,,,,,,,,,,,,,,,,,,,,,,,,,
KBUR,Burbank,,34.1808,-118.3089,2012-04-18 00:53:00,,CLR,10.0,,61,,,,50.0,,67,,,,29.13,,,,,,82.0,52.0,,,,,,,,,,,,,,,,,,,,,,,,,,,,,,,,,,,,,,,,,,,,,,,,,,,,,,,,,,,,,,
KBUR,Burbank,,34.1808,-118.3089,2012-04-18 01:53:00,,CLR,10.0,,61,,,,48.0,,62,5.0,110.0,,29.11,2.0,Falling Rapidly,,,,,,,,,,,,,,,,,,,,,,,,,,,,,,,,,,,,,,,,,,,,,,,,,,,,,,,,,,,,,,,,,,,
KBUR,Burbank,,34.1808,-118.3089,2012-04-18 02:53:00,,CLR,10.0,,59,,,,48.0,,67,,,,29.11,,,,,,,,,,,,,,,,,,,,,,,,,,,,,,,,,,,,,,,,,,,,,,,,,,,,,,,,,,,,,,,,,,,,,
KBUR,Burbank,,34.1808,-118.3089,2012-04-18 03:53:00,,CLR,10.0,,58,,,,47.0,,67,,,,29.1,,,,,,,,,,,,,,,,,,,,,,,,,,,,,,,,,,,,,,,,,,,,,,,,,,,,,,,,,,,,,,,,,,,,,
KBUR,Burbank,,34.1808,-118.3089,2012-04-18 04:53:00,,CLR,10.0,,56,,,,46.0,,69,,,,29.09,2.0,Falling,,,,66.0,56.0,,,,,,,,,,,,,,,,,,,,,,,,,,,,,,,,,,,,,,,,,,,,,,,,,,,,,,,,,,,,,,
KBUR,Burbank,,34.1808,-118.3089,2012-04-18 05:53:00,,CLR,10.0,,56,,,,46.0,,69,,,,29.1,,,,,,,,,,,,,,,,,,,,,,,,,,,,,,,,,,,,,,,,,,,,,,,,,,,,,,,,,,,,,,,,,,,,,
KBUR,Burbank,,34.1808,-118.3089,2012-04-18 06:53:00,,CLR,10.0,,56,,,,47.0,,72,,,,29.11,,,,,,,,,,,,,,,,,,,,,,,,,,,,,,,,,,,,,,,,,,,,,,,,,,,,,,,,,,,,,,,,,,,,,
KBUR,Burbank,,34.1808,-118.3089,2012-04-18 07:53:00,,CLR,10.0,,60,,,,49.0,,67,5.0,140.0,,29.13,1.0,Rising Rapidly,,,,,,,,,,,,,,,,,,,,,,,,,,,,,,,,,,,,,,,,,,,,,,,,,,,,,,,,,,,,,,,,,,,
KBUR,Burbank,,34.1808,-118.3089,2012-04-18 08:53:00,,CLR,10.0,,63,,,,49.0,,60,3.0,150.0,,29.12,,,,,,,,,,,,,,,,,,,,,,,,,,,,,,,,,,,,,,,,,,,,,,,,,,,,,,,,,,,,,,,,,,,,,
KBUR,Burbank,,34.1808,-118.3089,2012-04-18 09:53:00,,CLR,10.0,,68,,,,45.0,,43,8.0,140.0,,29.13,,,,,,,,,,,,,,,,,,,,,,,,,,,,,,,,,,,,,,,,,,,,,,,,,,,,,,,,,,,,,,,,,,,,,
KBUR,Burbank,,34.1808,-118.3089,2012-04-18 10:53:00,,CLR,10.0,,71,,,,45.0,,39,7.0,120.0,,29.14,1.0,Rising Rapidly,,,,71.0,56.0,,,,,,,,,,,,,,,,,,,,,,,,,,,,,,,,,,,,,,,,,,,,,,,,,,,,,,,,,,,,,,
KBUR,Burbank,,34.1808,-118.3089,2012-04-18 11:53:00,,CLR,10.0,,74,,,,49.0,,41,6.0,120.0,,29.12,,,,,,,,,,,,,,,,,,,,,,,,,,,,,,,,,,,,,,,,,,,,,,,,,,,,,,,,,,,,,,,,,,,,,
KBUR,Burbank,,34.1808,-118.3089,2012-04-18 12:53:00,,CLR,10.0,,76,,,,50.0,,40,8.0,180.0,,29.1,,,,,,,,,,,,,,,,,,,,,,,,,,,,,,,,,,,,,,,,,,,,,,,,,,,,,,,,,,,,,,,,,,,,,
KBUR,Burbank,,34.1808,-118.3089,2012-04-18 13:53:00,,CLR,10.0,,77,,,,52.0,,42,7.0,,,29.09,2.0,Falling,,,,,,,,,,,,,,,,,,,,,,,,,,,,,,,,,,,,,,,,,,,,,,,,,,,,,,,,,,,,,,,,,,,
KBUR,Burbank,,34.1808,-118.3089,2012-04-18 14:53:00,,CLR,10.0,,77,,,,52.0,,42,10.0,190.0,,29.09,,,,,,,,,,,,,,,,,,,,,,,,,,,,,,,,,,,,,,,,,,,,,,,,,,,,,,,,,,,,,,,,,,,,,
KBUR,Burbank,,34.1808,-118.3089,2012-04-18 15:53:00,,CLR,10.0,,76,,,,51.0,,42,12.0,180.0,,29.07,,,,,,,,,,,,,,,,,,,,,,,,,,,,,,,,,,,,,,,,,,,,,,,,,,,,,,,,,,,,,,,,,,,,,
KBUR,Burbank,,34.1808,-118.3089,2012-04-18 16:53:00,,CLR,10.0,,75,,,,49.0,,40,10.0,180.0,,29.06,2.0,Falling Rapidly,,,,78.0,71.0,,,,,,,,,,,,,,,,,,,,,,,,,,,,,,,,,,,,,,,,,,,,,,,,,,,,,,,,,,,,,,
KBUR,Burbank,,34.1808,-118.3089,2012-04-18 17:53:00,,CLR,10.0,,74,,,,48.0,,40,9.0,180.0,,29.05,,,,,,,,,,,,,,,,,,,,,,,,,,,,,,,,,,,,,,,,,,,,,,,,,,,,,,,,,,,,,,,,,,,,,
KBUR,Burbank,,34.1808,-118.3089,2012-04-18 18:53:00,,CLR,10.0,,70,,,,48.0,,46,7.0,180.0,,29.05,,,,,,,,,,,,,,,,,,,,,,,,,,,,,,,,,,,,,,,,,,,,,,,,,,,,,,,,,,,,,,,,,,,,,
KBUR,Burbank,,34.1808,-118.3089,2012-04-18 19:53:00,,CLR,10.0,,66,,,,47.0,,50,7.0,180.0,,29.07,1.0,Rising Rapidly,,,,,,,,,,,,,,,,,,,,,,,,,,,,,,,,,,,,,,,,,,,,,,,,,,,,,,,,,,,,,,,,,,,
KBUR,Burbank,,34.1808,-118.3089,2012-04-18 20:53:00,,CLR,10.0,,67,,,,46.0,,47,8.0,130.0,,29.08,,,,,,,,,,,,,,,,,,,,,,,,,,,,,,,,,,,,,,,,,,,,,,,,,,,,,,,,,,,,,,,,,,,,,
KBUR,Burbank,,34.1808,-118.3089,2012-04-18 21:53:00,,CLR,10.0,,66,,,,47.0,,50,7.0,140.0,,29.1,,,,,,,,,,,,,,,,,,,,,,,,,,,,,,,,,,,,,,,,,,,,,,,,,,,,,,,,,,,,,,,,,,,,,
KBUR,Burbank,,34.1808,-118.3089,2012-04-18 22:53:00,,CLR,10.0,,65,,,,47.0,,52,6.0,90.0,,29.1,1.0,Rising,,,,75.0,64.0,,,,,,,,,,,,,,,,,,,,,,,,,,,,,,,,,,,,,,,,,,,,,,,,,,,,,,,,,,,,,,
KBUR,Burbank,,34.1808,-118.3089,2012-04-18 23:53:00,,CLR,10.0,,63,,,,50.0,,63,6.0,120.0,,29.1,,,,,,,,,,,,,,,,,,,,,,,,,,,,,,,,,,,,,,,,,,,,,,,,,,,,,,,,,,,,,,,,,,,,,
KBUR,Burbank,,34.1808,-118.3089,2012-04-19 00:53:00,,CLR,10.0,,60,,,,52.0,,75,6.0,140.0,,29.11,,,,,,78.0,56.0,,,,,,,,,,,,,,,,,,,,,,,,,,,,,,,,,,,,,,,,,,,,,,,,,,,,,,,,,,,,,,
KBUR,Burbank,,34.1808,-118.3089,2012-04-19 01:53:00,,CLR,10.0,,59,,,,52.0,,78,5.0,110.0,,29.09,2.0,Falling Rapidly,,,,,,,,,,,,,,,,,,,,,,,,,,,,,,,,,,,,,,,,,,,,,,,,,,,,,,,,,,,,,,,,,,,
KBUR,Burbank,,34.1808,-118.3089,2012-04-19 02:53:00,,CLR,10.0,,58,,,,52.0,,81,7.0,110.0,,29.07,,,,,,,,,,,,,,,,,,,,,,,,,,,,,,,,,,,,,,,,,,,,,,,,,,,,,,,,,,,,,,,,,,,,,
KBUR,Burbank,,34.1808,-118.3089,2012-04-19 03:53:00,,CLR,8.0,,57,,,,54.0,,89,8.0,110.0,,29.07,,,,,,,,,,,,,,,,,,,,,,,,,,,,,,,,,,,,,,,,,,,,,,,,,,,,,,,,,,,,,,,,,,,,,
KBUR,Burbank,,34.1808,-118.3089,2012-04-19 04:53:00,,CLR,7.0,,56,,,,53.0,,90,6.0,110.0,,29.07,2.0,Falling,,,,65.0,56.0,,,,,,,,,,,,,,,,,,,,,,,,,,,,,,,,,,,,,,,,,,,,,,,,,,,,,,,,,,,,,,
KBUR,Burbank,,34.1808,-118.3089,2012-04-19 05:13:00,,FEW,7.0,,55,,,,54.0,,94,5.0,130.0,,29.1,,,,,,,,,,,,,,,,,,,,,,,,,,,,,,,,,,,,,,,,,,,,,,,,,,,,,,,,,,,,,,,,,,,,,
KBUR,Burbank,,34.1808,-118.3089,2012-04-19 05:34:00,,BKN,6.0,,55,,,,54.0,,94,6.0,130.0,,29.1,,,,,,,,,,,,,,,,,,,,,,,,,,,,,,,,,,,,,,,,,,,,,,,,,,,,,,,,,,,,,,,,,,,,,
KBUR,Burbank,,34.1808,-118.3089,2012-04-19 05:53:00,,BKN,5.0,,55,,,,53.0,,93,6.0,120.0,,29.07,,,,,,,,,,,,,,,,,,,,,,,,,,,,,,,,,,,,,,,,,,,,,,,,,,,,,,,,,,,,,,,,,,,,,
KBUR,Burbank,,34.1808,-118.3089,2012-04-19 06:53:00,,OVC,3.0,,55,,,,52.0,,89,8.0,110.0,,29.09,,,,,,,,,,,,,,,,,,,,,,,,,,,,,,,,,,,,,,,,,,,,,,,,,,,,,,,,,,,,,,,,,,,,,
KBUR,Burbank,,34.1808,-118.3089,2012-04-19 07:03:00,,OVC,2.0,,54,,,,52.0,,94,6.0,120.0,,29.13,,,,,,,,,,,,,,,,,,,,,,,,,,,,,,,,,,,,,,,,,,,,,,,,,,,,,,,,,,,,,,,,,,,,,
KBUR,Burbank,,34.1808,-118.3089,2012-04-19 07:53:00,,OVC,2.0,,55,,,,53.0,,93,6.0,110.0,,29.11,1.0,Rising Rapidly,,,,,,,,,,,,,,,,,,,,,,,,,,,,,,,,,,,,,,,,,,,,,,,,,,,,,,,,,,,,,,,,,,,
KBUR,Burbank,,34.1808,-118.3089,2012-04-19 08:00:00,,BKN,3.0,,55,,,,54.0,,94,3.0,90.0,,29.14,,,,,,,,,,,,,,,,,,,,,,,,,,,,,,,,,,,,,,,,,,,,,,,,,,,,,,,,,,,,,,,,,,,,,
KBUR,Burbank,,34.1808,-118.3089,2012-04-19 08:09:00,,FEW,5.0,,55,,,,52.0,,88,3.0,100.0,,29.13,,,,,,,,,,,,,,,,,,,,,,,,,,,,,,,,,,,,,,,,,,,,,,,,,,,,,,,,,,,,,,,,,,,,,
KBUR,Burbank,,34.1808,-118.3089,2012-04-19 08:53:00,,CLR,5.0,,58,,,,52.0,,81,6.0,130.0,,29.1,,,,,,,,,,,,,,,,,,,,,,,,,,,,,,,,,,,,,,,,,,,,,,,,,,,,,,,,,,,,,,,,,,,,,
KBUR,Burbank,,34.1808,-118.3089,2012-04-19 09:53:00,,CLR,7.0,,64,,,,53.0,,67,3.0,,,29.11,,,,,,,,,,,,,,,,,,,,,,,,,,,,,,,,,,,,,,,,,,,,,,,,,,,,,,,,,,,,,,,,,,,,,
KBUR,Burbank,,34.1808,-118.3089,2012-04-19 10:53:00,,CLR,10.0,,69,,,,53.0,,57,9.0,130.0,,29.1,0.0,Steady,,,,69.0,54.0,,,,,,,,,,,,,,,,,,,,,,,,,,,,,,,,,,,,,,,,,,,,,,,,,,,,,,,,,,,,,,
KBUR,Burbank,,34.1808,-118.3089,2012-04-19 11:53:00,,CLR,10.0,,71,,,,53.0,,53,8.0,130.0,16.0,29.09,,,,,,,,,,,,,,,,,,,,,,,,,,,,,,,,,,,,,,,,,,,,,,,,,,,,,,,,,,,,,,,,,,,,,
KBUR,Burbank,,34.1808,-118.3089,2012-04-19 12:53:00,,CLR,10.0,,74,,,,54.0,,50,9.0,140.0,,29.08,,,,,,,,,,,,,,,,,,,,,,,,,,,,,,,,,,,,,,,,,,,,,,,,,,,,,,,,,,,,,,,,,,,,,
KBUR,Burbank,,34.1808,-118.3089,2012-04-19 13:53:00,,CLR,10.0,,74,,,,55.0,,52,8.0,150.0,17.0,29.07,2.0,Falling,,,,,,,,,,,,,,,,,,,,,,,,,,,,,,,,,,,,,,,,,,,,,,,,,,,,,,,,,,,,,,,,,,,
KBUR,Burbank,,34.1808,-118.3089,2012-04-19 14:53:00,,CLR,7.0,,76,,,,54.0,,46,8.0,140.0,,29.06,,,,,,,,,,,,,,,,,,,,,,,,,,,,,,,,,,,,,,,,,,,,,,,,,,,,,,,,,,,,,,,,,,,,,
KBUR,Burbank,,34.1808,-118.3089,2012-04-19 15:53:00,,CLR,10.0,,76,,,,54.0,,46,10.0,200.0,,29.04,,,,,,,,,,,,,,,,,,,,,,,,,,,,,,,,,,,,,,,,,,,,,,,,,,,,,,,,,,,,,,,,,,,,,
KBUR,Burbank,,34.1808,-118.3089,2012-04-19 16:53:00,,CLR,10.0,,76,,,,54.0,,46,8.0,170.0,,29.04,2.0,Falling,,,,78.0,69.0,,,,,,,,,,,,,,,,,,,,,,,,,,,,,,,,,,,,,,,,,,,,,,,,,,,,,,,,,,,,,,
KBUR,Burbank,,34.1808,-118.3089,2012-04-19 17:53:00,,CLR,10.0,,75,,,,52.0,,44,8.0,130.0,,29.04,,,,,,,,,,,,,,,,,,,,,,,,,,,,,,,,,,,,,,,,,,,,,,,,,,,,,,,,,,,,,,,,,,,,,
KBUR,Burbank,,34.1808,-118.3089,2012-04-19 18:53:00,,CLR,10.0,,73,,,,52.0,,48,9.0,120.0,,29.05,,,,,,,,,,,,,,,,,,,,,,,,,,,,,,,,,,,,,,,,,,,,,,,,,,,,,,,,,,,,,,,,,,,,,
KBUR,Burbank,,34.1808,-118.3089,2012-04-19 19:53:00,,CLR,10.0,,69,,,,51.0,,53,5.0,170.0,,29.06,1.0,Rising Rapidly,,,,,,,,,,,,,,,,,,,,,,,,,,,,,,,,,,,,,,,,,,,,,,,,,,,,,,,,,,,,,,,,,,,
KBUR,Burbank,,34.1808,-118.3089,2012-04-19 20:53:00,,CLR,10.0,,68,,,,52.0,,56,8.0,120.0,,29.09,,,,,,,,,,,,,,,,,,,,,,,,,,,,,,,,,,,,,,,,,,,,,,,,,,,,,,,,,,,,,,,,,,,,,
KBUR,Burbank,,34.1808,-118.3089,2012-04-19 21:53:00,,CLR,10.0,,65,,,,53.0,,65,8.0,130.0,,29.1,,,,,,,,,,,,,,,,,,,,,,,,,,,,,,,,,,,,,,,,,,,,,,,,,,,,,,,,,,,,,,,,,,,,,
KBUR,Burbank,,34.1808,-118.3089,2012-04-19 22:53:00,,CLR,10.0,,62,,,,53.0,,72,7.0,130.0,,29.11,1.0,Rising,,,,77.0,62.0,,,,,,,,,,,,,,,,,,,,,,,,,,,,,,,,,,,,,,,,,,,,,,,,,,,,,,,,,,,,,,
KBUR,Burbank,,34.1808,-118.3089,2012-04-19 23:53:00,,CLR,10.0,,61,,,,53.0,,75,5.0,90.0,,29.11,,,,,,,,,,,,,,,,,,,,,,,,,,,,,,,,,,,,,,,,,,,,,,,,,,,,,,,,,,,,,,,,,,,,,
KBUR,Burbank,,34.1808,-118.3089,2012-04-20 00:53:00,,CLR,10.0,,60,,,,53.0,,78,3.0,130.0,,29.1,,,,,,78.0,54.0,,,,,,,,,,,,,,,,,,,,,,,,,,,,,,,,,,,,,,,,,,,,,,,,,,,,,,,,,,,,,,
KBUR,Burbank,,34.1808,-118.3089,2012-04-20 01:53:00,,CLR,9.0,,59,,,,54.0,,83,3.0,120.0,,29.09,2.0,Falling Rapidly,,,,,,,,,,,,,,,,,,,,,,,,,,,,,,,,,,,,,,,,,,,,,,,,,,,,,,,,,,,,,,,,,,,
KBUR,Burbank,,34.1808,-118.3089,2012-04-20 02:53:00,,CLR,9.0,,59,,,,54.0,,83,3.0,140.0,,29.09,,,,,,,,,,,,,,,,,,,,,,,,,,,,,,,,,,,,,,,,,,,,,,,,,,,,,,,,,,,,,,,,,,,,,
KBUR,Burbank,,34.1808,-118.3089,2012-04-20 03:53:00,,CLR,9.0,,58,,,,53.0,,84,,,,29.08,,,,,,,,,,,,,,,,,,,,,,,,,,,,,,,,,,,,,,,,,,,,,,,,,,,,,,,,,,,,,,,,,,,,,
KBUR,Burbank,,34.1808,-118.3089,2012-04-20 04:53:00,,CLR,8.0,,57,,,,53.0,,87,,,,29.07,2.0,Falling,,,,62.0,57.0,,,,,,,,,,,,,,,,,,,,,,,,,,,,,,,,,,,,,,,,,,,,,,,,,,,,,,,,,,,,,,
KBUR,Burbank,,34.1808,-118.3089,2012-04-20 05:53:00,,CLR,8.0,,57,,,,53.0,,87,,,,29.09,,,,,,,,,,,,,,,,,,,,,,,,,,,,,,,,,,,,,,,,,,,,,,,,,,,,,,,,,,,,,,,,,,,,,
KBUR,Burbank,,34.1808,-118.3089,2012-04-20 06:53:00,,CLR,7.0,,57,,,,53.0,,87,,,,29.1,,,,,,,,,,,,,,,,,,,,,,,,,,,,,,,,,,,,,,,,,,,,,,,,,,,,,,,,,,,,,,,,,,,,,
KBUR,Burbank,,34.1808,-118.3089,2012-04-20 07:53:00,,CLR,8.0,,60,,,,54.0,,80,,,,29.11,1.0,Rising Rapidly,,,,,,,,,,,,,,,,,,,,,,,,,,,,,,,,,,,,,,,,,,,,,,,,,,,,,,,,,,,,,,,,,,,
KBUR,Burbank,,34.1808,-118.3089,2012-04-20 08:53:00,,CLR,7.0,,65,,,,54.0,,68,,,,29.11,,,,,,,,,,,,,,,,,,,,,,,,,,,,,,,,,,,,,,,,,,,,,,,,,,,,,,,,,,,,,,,,,,,,,
KBUR,Burbank,,34.1808,-118.3089,2012-04-20 09:53:00,,CLR,8.0,,72,,,,54.0,,53,3.0,120.0,,29.11,,,,,,,,,,,,,,,,,,,,,,,,,,,,,,,,,,,,,,,,,,,,,,,,,,,,,,,,,,,,,,,,,,,,,
KBUR,Burbank,,34.1808,-118.3089,2012-04-20 10:53:00,,CLR,10.0,,78,,,,55.0,,45,3.0,90.0,,29.11,0.0,Steady,,,,78.0,56.0,,,,,,,,,,,,,,,,,,,,,,,,,,,,,,,,,,,,,,,,,,,,,,,,,,,,,,,,,,,,,,
KBUR,Burbank,,34.1808,-118.3089,2012-04-20 11:53:00,,CLR,10.0,,84,,,,53.0,,34,,,,29.1,,,,,,,,,,,,,,,,,,,,,,,,,,,,,,,,,,,,,,,,,,,,,,,,,,,,,,,,,,,,,,,,,,,,,
KBUR,Burbank,,34.1808,-118.3089,2012-04-20 12:53:00,,CLR,10.0,,89,,,,50.0,,26,,,,29.07,,,,,,,,,,,,,,,,,,,,,,,,,,,,,,,,,,,,,,,,,,,,,,,,,,,,,,,,,,,,,,,,,,,,,
KBUR,Burbank,,34.1808,-118.3089,2012-04-20 13:53:00,,CLR,10.0,,93,,,,45.0,,19,7.0,110.0,,29.06,2.0,Falling Rapidly,,,,,,,,,,,,,,,,,,,,,,,,,,,,,,,,,,,,,,,,,,,,,,,,,,,,,,,,,,,,,,,,,,,
KBUR,Burbank,,34.1808,-118.3089,2012-04-20 14:53:00,,CLR,10.0,,94,,,,44.0,,18,8.0,180.0,,29.04,,,,,,,,,,,,,,,,,,,,,,,,,,,,,,,,,,,,,,,,,,,,,,,,,,,,,,,,,,,,,,,,,,,,,
KBUR,Burbank,,34.1808,-118.3089,2012-04-20 15:53:00,,CLR,10.0,,92,,,,43.0,,18,8.0,170.0,,29.02,,,,,,,,,,,,,,,,,,,,,,,,,,,,,,,,,,,,,,,,,,,,,,,,,,,,,,,,,,,,,,,,,,,,,
KBUR,Burbank,,34.1808,-118.3089,2012-04-20 16:53:00,,CLR,10.0,,88,,,,53.0,,30,8.0,140.0,,29.02,2.0,Falling,,,,95.0,78.0,,,,,,,,,,,,,,,,,,,,,,,,,,,,,,,,,,,,,,,,,,,,,,,,,,,,,,,,,,,,,,
KBUR,Burbank,,34.1808,-118.3089,2012-04-20 17:53:00,,CLR,10.0,,83,,,,55.0,,38,13.0,120.0,,29.02,,,,,,,,,,,,,,,,,,,,,,,,,,,,,,,,,,,,,,,,,,,,,,,,,,,,,,,,,,,,,,,,,,,,,
KBUR,Burbank,,34.1808,-118.3089,2012-04-20 18:53:00,,CLR,10.0,,75,,,,55.0,,50,14.0,110.0,,29.04,,,,,,,,,,,,,,,,,,,,,,,,,,,,,,,,,,,,,,,,,,,,,,,,,,,,,,,,,,,,,,,,,,,,,
KBUR,Burbank,,34.1808,-118.3089,2012-04-20 19:53:00,,CLR,10.0,,71,,,,54.0,,55,9.0,110.0,,29.06,1.0,Rising Rapidly,,,,,,,,,,,,,,,,,,,,,,,,,,,,,,,,,,,,,,,,,,,,,,,,,,,,,,,,,,,,,,,,,,,
KBUR,Burbank,,34.1808,-118.3089,2012-04-20 20:53:00,,CLR,10.0,,66,,,,54.0,,65,8.0,110.0,,29.08,,,,,,,,,,,,,,,,,,,,,,,,,,,,,,,,,,,,,,,,,,,,,,,,,,,,,,,,,,,,,,,,,,,,,
KBUR,Burbank,,34.1808,-118.3089,2012-04-20 21:53:00,,CLR,7.0,,63,,,,54.0,,72,10.0,110.0,,29.09,,,,,,,,,,,,,,,,,,,,,,,,,,,,,,,,,,,,,,,,,,,,,,,,,,,,,,,,,,,,,,,,,,,,,
KBUR,Burbank,,34.1808,-118.3089,2012-04-20 22:53:00,,CLR,6.0,,61,,,,54.0,,78,10.0,120.0,,29.1,1.0,Rising,,,,89.0,61.0,,,,,,,,,,,,,,,,,,,,,,,,,,,,,,,,,,,,,,,,,,,,,,,,,,,,,,,,,,,,,,
KBUR,Burbank,,34.1808,-118.3089,2012-04-20 23:53:00,,CLR,5.0,,58,,,,54.0,,87,8.0,140.0,,29.1,,,,,,,,,,,,,,,,,,,,,,,,,,,,,,,,,,,,,,,,,,,,,,,,,,,,,,,,,,,,,,,,,,,,,
KBUR,Burbank,,34.1808,-118.3089,2012-04-21 00:53:00,,CLR,4.0,,58,,,,55.0,,90,7.0,120.0,,29.1,,,,,,95.0,56.0,,,,,,,,,,,,,,,,,,,,,,,,,,,,,,,,,,,,,,,,,,,,,,,,,,,,,,,,,,,,,,
KBUR,Burbank,,34.1808,-118.3089,2012-04-21 01:53:00,,CLR,3.0,,58,,,,55.0,,90,3.0,150.0,,29.08,2.0,Falling Rapidly,,,,,,,,,,,,,,,,,,,,,,,,,,,,,,,,,,,,,,,,,,,,,,,,,,,,,,,,,,,,,,,,,,,
KBUR,Burbank,,34.1808,-118.3089,2012-04-21 02:53:00,,CLR,3.0,,57,,,,55.0,,93,,,,29.07,,,,,,,,,,,,,,,,,,,,,,,,,,,,,,,,,,,,,,,,,,,,,,,,,,,,,,,,,,,,,,,,,,,,,
KBUR,Burbank,,34.1808,-118.3089,2012-04-21 03:53:00,,CLR,3.0,,57,,,,55.0,,93,,,,29.06,,,,,,,,,,,,,,,,,,,,,,,,,,,,,,,,,,,,,,,,,,,,,,,,,,,,,,,,,,,,,,,,,,,,,
KBUR,Burbank,,34.1808,-118.3089,2012-04-21 04:53:00,,CLR,3.0,,57,,,,54.0,,89,,,,29.06,2.0,Falling,,,,62.0,57.0,,,,,,,,,,,,,,,,,,,,,,,,,,,,,,,,,,,,,,,,,,,,,,,,,,,,,,,,,,,,,,
KBUR,Burbank,,34.1808,-118.3089,2012-04-21 05:53:00,,CLR,3.0,,57,,,,54.0,,89,,,,29.07,,,,,,,,,,,,,,,,,,,,,,,,,,,,,,,,,,,,,,,,,,,,,,,,,,,,,,,,,,,,,,,,,,,,,
KBUR,Burbank,,34.1808,-118.3089,2012-04-21 06:22:00,,CLR,2.0,,57,,,,54.0,,88,,,,29.1,,,,,,,,,,,,,,,,,,,,,,,,,,,,,,,,,,,,,,,,,,,,,,,,,,,,,,,,,,,,,,,,,,,,,
KBUR,Burbank,,34.1808,-118.3089,2012-04-21 06:53:00,,CLR,3.0,,57,,,,54.0,,89,,,,29.07,,,,,,,,,,,,,,,,,,,,,,,,,,,,,,,,,,,,,,,,,,,,,,,,,,,,,,,,,,,,,,,,,,,,,
KBUR,Burbank,,34.1808,-118.3089,2012-04-21 07:53:00,,CLR,3.0,,60,,,,54.0,,80,,,,29.08,1.0,Rising Rapidly,,,,,,,,,,,,,,,,,,,,,,,,,,,,,,,,,,,,,,,,,,,,,,,,,,,,,,,,,,,,,,,,,,,
KBUR,Burbank,,34.1808,-118.3089,2012-04-21 08:53:00,,CLR,3.0,,65,,,,56.0,,73,,,,29.08,,,,,,,,,,,,,,,,,,,,,,,,,,,,,,,,,,,,,,,,,,,,,,,,,,,,,,,,,,,,,,,,,,,,,
KBUR,Burbank,,34.1808,-118.3089,2012-04-21 09:53:00,,CLR,4.0,,70,,,,56.0,,61,3.0,,,29.07,,,,,,,,,,,,,,,,,,,,,,,,,,,,,,,,,,,,,,,,,,,,,,,,,,,,,,,,,,,,,,,,,,,,,
KBUR,Burbank,,34.1808,-118.3089,2012-04-21 10:53:00,,CLR,5.0,,75,,,,56.0,,51,3.0,100.0,,29.07,2.0,Falling,,,,75.0,57.0,,,,,,,,,,,,,,,,,,,,,,,,,,,,,,,,,,,,,,,,,,,,,,,,,,,,,,,,,,,,,,
KBUR,Burbank,,34.1808,-118.3089,2012-04-21 11:53:00,,CLR,8.0,,80,,,,55.0,,42,8.0,140.0,,29.06,,,,,,,,,,,,,,,,,,,,,,,,,,,,,,,,,,,,,,,,,,,,,,,,,,,,,,,,,,,,,,,,,,,,,
KBUR,Burbank,,34.1808,-118.3089,2012-04-21 12:53:00,,CLR,9.0,,84,,,,56.0,,38,7.0,140.0,,29.04,,,,,,,,,,,,,,,,,,,,,,,,,,,,,,,,,,,,,,,,,,,,,,,,,,,,,,,,,,,,,,,,,,,,,
KBUR,Burbank,,34.1808,-118.3089,2012-04-21 13:53:00,,CLR,9.0,,85,,,,57.0,,38,9.0,130.0,,29.03,2.0,Falling Rapidly,,,,,,,,,,,,,,,,,,,,,,,,,,,,,,,,,,,,,,,,,,,,,,,,,,,,,,,,,,,,,,,,,,,
KBUR,Burbank,,34.1808,-118.3089,2012-04-21 14:53:00,,CLR,9.0,,82,,,,57.0,,42,8.0,160.0,,29.01,,,,,,,,,,,,,,,,,,,,,,,,,,,,,,,,,,,,,,,,,,,,,,,,,,,,,,,,,,,,,,,,,,,,,
KBUR,Burbank,,34.1808,-118.3089,2012-04-21 15:53:00,,CLR,10.0,,81,,,,55.0,,41,9.0,180.0,,29.0,,,,,,,,,,,,,,,,,,,,,,,,,,,,,,,,,,,,,,,,,,,,,,,,,,,,,,,,,,,,,,,,,,,,,
KBUR,Burbank,,34.1808,-118.3089,2012-04-21 16:53:00,,CLR,10.0,,79,,,,54.0,,42,13.0,110.0,,29.01,0.0,Steady,,,,86.0,75.0,,,,,,,,,,,,,,,,,,,,,,,,,,,,,,,,,,,,,,,,,,,,,,,,,,,,,,,,,,,,,,
KBUR,Burbank,,34.1808,-118.3089,2012-04-21 17:53:00,,CLR,10.0,,73,,,,54.0,,51,14.0,130.0,,29.03,,,,,,,,,,,,,,,,,,,,,,,,,,,,,,,,,,,,,,,,,,,,,,,,,,,,,,,,,,,,,,,,,,,,,
KBUR,Burbank,,34.1808,-118.3089,2012-04-21 18:53:00,,CLR,10.0,,65,,,,54.0,,68,7.0,180.0,,29.03,,,,,,,,,,,,,,,,,,,,,,,,,,,,,,,,,,,,,,,,,,,,,,,,,,,,,,,,,,,,,,,,,,,,,
KBUR,Burbank,,34.1808,-118.3089,2012-04-21 19:53:00,,CLR,10.0,,62,,,,55.0,,78,12.0,140.0,,29.06,1.0,Rising Rapidly,,,,,,,,,,,,,,,,,,,,,,,,,,,,,,,,,,,,,,,,,,,,,,,,,,,,,,,,,,,,,,,,,,,
KBUR,Burbank,,34.1808,-118.3089,2012-04-21 20:53:00,,CLR,6.0,,58,,,,54.0,,87,8.0,130.0,,29.09,,,,,,,,,,,,,,,,,,,,,,,,,,,,,,,,,,,,,,,,,,,,,,,,,,,,,,,,,,,,,,,,,,,,,
KBUR,Burbank,,34.1808,-118.3089,2012-04-21 21:07:00,,SCT,5.0,,57,,,,54.0,,88,10.0,140.0,,29.13,,,,,,,,,,,,,,,,,,,,,,,,,,,,,,,,,,,,,,,,,,,,,,,,,,,,,,,,,,,,,,,,,,,,,
KBUR,Burbank,,34.1808,-118.3089,2012-04-21 21:32:00,,BKN,3.0,,57,,,,54.0,,88,9.0,110.0,,29.13,,,,,,,,,,,,,,,,,,,,,,,,,,,,,,,,,,,,,,,,,,,,,,,,,,,,,,,,,,,,,,,,,,,,,
KBUR,Burbank,,34.1808,-118.3089,2012-04-21 21:53:00,,BKN,3.0,,58,,,,54.0,,87,8.0,110.0,,29.11,,,,,,,,,,,,,,,,,,,,,,,,,,,,,,,,,,,,,,,,,,,,,,,,,,,,,,,,,,,,,,,,,,,,,
KBUR,Burbank,,34.1808,-118.3089,2012-04-21 22:53:00,,OVC,5.0,,58,,,,54.0,,87,5.0,130.0,,29.1,0.0,Steady,,,,79.0,57.0,,,,,,,,,,,,,,,,,,,,,,,,,,,,,,,,,,,,,,,,,,,,,,,,,,,,,,,,,,,,,,
KBUR,Burbank,,34.1808,-118.3089,2012-04-21 23:53:00,,BKN,3.0,,58,,,,54.0,,87,,,,29.1,,,,,,,,,,,,,,,,,,,,,,,,,,,,,,,,,,,,,,,,,,,,,,,,,,,,,,,,,,,,,,,,,,,,,
KBUR,Burbank,,34.1808,-118.3089,2012-04-22 00:53:00,,OVC,5.0,,58,,,,54.0,,87,3.0,,,29.1,,,,,,86.0,57.0,,,,,,,,,,,,,,,,,,,,,,,,,,,,,,,,,,,,,,,,,,,,,,,,,,,,,,,,,,,,,,
KBUR,Burbank,,34.1808,-118.3089,2012-04-22 01:00:00,,CLR,5.0,,57,,,,54.0,,88,,,,29.14,,,,,,,,,,,,,,,,,,,,,,,,,,,,,,,,,,,,,,,,,,,,,,,,,,,,,,,,,,,,,,,,,,,,,
KBUR,Burbank,,34.1808,-118.3089,2012-04-22 01:22:00,,BKN,5.0,,57,,,,54.0,,88,,,,29.13,,,,,,,,,,,,,,,,,,,,,,,,,,,,,,,,,,,,,,,,,,,,,,,,,,,,,,,,,,,,,,,,,,,,,
KBUR,Burbank,,34.1808,-118.3089,2012-04-22 01:53:00,,BKN,5.0,,58,,,,54.0,,87,,,,29.08,2.0,Falling Rapidly,,,,,,,,,,,,,,,,,,,,,,,,,,,,,,,,,,,,,,,,,,,,,,,,,,,,,,,,,,,,,,,,,,,
KBUR,Burbank,,34.1808,-118.3089,2012-04-22 02:00:00,,CLR,4.0,,57,,,,54.0,,88,,,,29.12,,,,,,,,,,,,,,,,,,,,,,,,,,,,,,,,,,,,,,,,,,,,,,,,,,,,,,,,,,,,,,,,,,,,,
KBUR,Burbank,,34.1808,-118.3089,2012-04-22 02:25:00,,SCT,4.0,,57,,,,54.0,,88,,,,29.11,,,,,,,,,,,,,,,,,,,,,,,,,,,,,,,,,,,,,,,,,,,,,,,,,,,,,,,,,,,,,,,,,,,,,
KBUR,Burbank,,34.1808,-118.3089,2012-04-22 02:33:00,,BKN,4.0,,57,,,,54.0,,88,,,,29.11,,,,,,,,,,,,,,,,,,,,,,,,,,,,,,,,,,,,,,,,,,,,,,,,,,,,,,,,,,,,,,,,,,,,,
KBUR,Burbank,,34.1808,-118.3089,2012-04-22 02:53:00,,OVC,4.0,,58,,,,55.0,,90,,,,29.08,,,,,,,,,,,,,,,,,,,,,,,,,,,,,,,,,,,,,,,,,,,,,,,,,,,,,,,,,,,,,,,,,,,,,
KBUR,Burbank,,34.1808,-118.3089,2012-04-22 03:53:00,,OVC,3.0,,58,,,,55.0,,90,3.0,160.0,,29.07,,,,,,,,,,,,,,,,,,,,,,,,,,,,,,,,,,,,,,,,,,,,,,,,,,,,,,,,,,,,,,,,,,,,,
KBUR,Burbank,,34.1808,-118.3089,2012-04-22 04:53:00,,OVC,3.0,,58,,,,55.0,,90,3.0,170.0,,29.07,2.0,Falling,,,,58.0,57.0,,,,,,,,,,,,,,,,,,,,,,,,,,,,,,,,,,,,,,,,,,,,,,,,,,,,,,,,,,,,,,
KBUR,Burbank,,34.1808,-118.3089,2012-04-22 05:53:00,,OVC,3.0,,58,,,,55.0,,90,7.0,360.0,,29.07,,,,,,,,,,,,,,,,,,,,,,,,,,,,,,,,,,,,,,,,,,,,,,,,,,,,,,,,,,,,,,,,,,,,,
KBUR,Burbank,,34.1808,-118.3089,2012-04-22 06:21:00,,OVC,1.0,,57,,,,54.0,,88,5.0,360.0,,29.1,,,,,,,,,,,,,,,,,,,,,,,,,,,,,,,,,,,,,,,,,,,,,,,,,,,,,,,,,,,,,,,,,,,,,
KBUR,Burbank,,34.1808,-118.3089,2012-04-22 06:53:00,,OVC,1.0,,57,,,,55.0,,93,,,,29.08,,,,,,,,,,,,,,,,,,,,,,,,,,,,,,,,,,,,,,,,,,,,,,,,,,,,,,,,,,,,,,,,,,,,,
KBUR,Burbank,,34.1808,-118.3089,2012-04-22 07:53:00,,OVC,1.0,,58,,,,55.0,,90,,,,29.09,1.0,Rising Rapidly,,,,,,,,,,,,,,,,,,,,,,,,,,,,,,,,,,,,,,,,,,,,,,,,,,,,,,,,,,,,,,,,,,,
KBUR,Burbank,,34.1808,-118.3089,2012-04-22 08:53:00,,OVC,1.0,,59,,,,55.0,,87,,,,29.1,,,,,,,,,,,,,,,,,,,,,,,,,,,,,,,,,,,,,,,,,,,,,,,,,,,,,,,,,,,,,,,,,,,,,
KBUR,Burbank,,34.1808,-118.3089,2012-04-22 09:53:00,,FEW,3.0,,62,,,,56.0,,80,,,,29.11,,,,,,,,,,,,,,,,,,,,,,,,,,,,,,,,,,,,,,,,,,,,,,,,,,,,,,,,,,,,,,,,,,,,,
KBUR,Burbank,,34.1808,-118.3089,2012-04-22 10:53:00,,CLR,5.0,,68,,,,56.0,,65,6.0,170.0,,29.11,1.0,Rising Rapidly,,,,68.0,57.0,,,,,,,,,,,,,,,,,,,,,,,,,,,,,,,,,,,,,,,,,,,,,,,,,,,,,,,,,,,,,,
KBUR,Burbank,,34.1808,-118.3089,2012-04-22 11:53:00,,CLR,5.0,,69,,,,57.0,,65,6.0,160.0,,29.1,,,,,,,,,,,,,,,,,,,,,,,,,,,,,,,,,,,,,,,,,,,,,,,,,,,,,,,,,,,,,,,,,,,,,
KBUR,Burbank,,34.1808,-118.3089,2012-04-22 12:53:00,,CLR,5.0,,73,,,,57.0,,57,10.0,110.0,,29.09,,,,,,,,,,,,,,,,,,,,,,,,,,,,,,,,,,,,,,,,,,,,,,,,,,,,,,,,,,,,,,,,,,,,,
KBUR,Burbank,,34.1808,-118.3089,2012-04-22 13:53:00,,CLR,5.0,,72,,,,57.0,,59,12.0,180.0,,29.08,2.0,Falling Rapidly,,,,,,,,,,,,,,,,,,,,,,,,,,,,,,,,,,,,,,,,,,,,,,,,,,,,,,,,,,,,,,,,,,,
KBUR,Burbank,,34.1808,-118.3089,2012-04-22 14:53:00,,CLR,5.0,,72,,,,56.0,,57,10.0,190.0,,29.07,,,,,,,,,,,,,,,,,,,,,,,,,,,,,,,,,,,,,,,,,,,,,,,,,,,,,,,,,,,,,,,,,,,,,
KBUR,Burbank,,34.1808,-118.3089,2012-04-22 15:53:00,,CLR,5.0,,69,,,,55.0,,61,12.0,180.0,,29.07,,,,,,,,,,,,,,,,,,,,,,,,,,,,,,,,,,,,,,,,,,,,,,,,,,,,,,,,,,,,,,,,,,,,,
KBUR,Burbank,,34.1808,-118.3089,2012-04-22 16:53:00,,CLR,5.0,,66,,,,55.0,,68,13.0,190.0,,29.07,0.0,Steady,,,,74.0,65.0,,,,,,,,,,,,,,,,,,,,,,,,,,,,,,,,,,,,,,,,,,,,,,,,,,,,,,,,,,,,,,
KBUR,Burbank,,34.1808,-118.3089,2012-04-22 17:53:00,,FEW,5.0,,63,,,,54.0,,72,10.0,190.0,,29.07,,,,,,,,,,,,,,,,,,,,,,,,,,,,,,,,,,,,,,,,,,,,,,,,,,,,,,,,,,,,,,,,,,,,,
KBUR,Burbank,,34.1808,-118.3089,2012-04-22 18:53:00,,FEW,5.0,,59,,,,54.0,,83,8.0,180.0,,29.07,,,,,,,,,,,,,,,,,,,,,,,,,,,,,,,,,,,,,,,,,,,,,,,,,,,,,,,,,,,,,,,,,,,,,
KBUR,Burbank,,34.1808,-118.3089,2012-04-22 19:51:00,,BKN,10.0,,57,,,,54.0,,88,6.0,170.0,,29.1,,,,,,,,,,,,,,,,,,,,,,,,,,,,,,,,,,,,,,,,,,,,,,,,,,,,,,,,,,,,,,,,,,,,,
KBUR,Burbank,,34.1808,-118.3089,2012-04-22 19:53:00,,BKN,10.0,,58,,,,53.0,,84,7.0,150.0,,29.08,1.0,Rising Rapidly,,,,,,,,,,,,,,,,,,,,,,,,,,,,,,,,,,,,,,,,,,,,,,,,,,,,,,,,,,,,,,,,,,,
KBUR,Burbank,,34.1808,-118.3089,2012-04-22 20:53:00,,OVC,9.0,,58,,,,53.0,,84,7.0,130.0,,29.09,,,,,,,,,,,,,,,,,,,,,,,,,,,,,,,,,,,,,,,,,,,,,,,,,,,,,,,,,,,,,,,,,,,,,
KBUR,Burbank,,34.1808,-118.3089,2012-04-22 21:53:00,,OVC,5.0,,57,,,,53.0,,87,6.0,190.0,,29.1,,,,,,,,,,,,,,,,,,,,,,,,,,,,,,,,,,,,,,,,,,,,,,,,,,,,,,,,,,,,,,,,,,,,,
KBUR,Burbank,,34.1808,-118.3089,2012-04-22 22:53:00,,OVC,4.0,,57,,,,53.0,,87,6.0,200.0,,29.11,1.0,Rising,,,,66.0,57.0,,,,,,,,,,,,,,,,,,,,,,,,,,,,,,,,,,,,,,,,,,,,,,,,,,,,,,,,,,,,,,
KBUR,Burbank,,34.1808,-118.3089,2012-04-22 23:53:00,,OVC,4.0,,55,,,,53.0,,93,5.0,210.0,,29.12,,,,,,,,,,,,,,,,,,,,,,,,,,,,,,,,,,,,,,,,,,,,,,,,,,,,,,,,,,,,,,,,,,,,,
KBUR,Burbank,,34.1808,-118.3089,2012-04-23 00:53:00,,OVC,4.0,,55,,,,53.0,,93,5.0,220.0,,29.11,,,,,,74.0,55.0,,,,,,,,,,,,,,,,,,,,,,,,,,,,,,,,,,,,,,,,,,,,,,,,,,,,,,,,,,,,,,
KBUR,Burbank,,34.1808,-118.3089,2012-04-23 01:53:00,,OVC,4.0,,56,,,,53.0,,90,5.0,190.0,,29.12,1.0,Rising,,,,,,,,,,,,,,,,,,,,,,,,,,,,,,,,,,,,,,,,,,,,,,,,,,,,,,,,,,,,,,,,,,,
KBUR,Burbank,,34.1808,-118.3089,2012-04-23 02:53:00,,OVC,4.0,,55,,,,53.0,,93,7.0,180.0,,29.12,,,,,,,,,,,,,,,,,,,,,,,,,,,,,,,,,,,,,,,,,,,,,,,,,,,,,,,,,,,,,,,,,,,,,
KBUR,Burbank,,34.1808,-118.3089,2012-04-23 03:53:00,,OVC,3.0,,54,,,,53.0,,97,8.0,180.0,,29.13,,,,,,,,,,,,,,,,,,,,,,,,,,,,,,,,,,,,,,,,,,,,,,,,,,,,,,,,,,,,,,,,,,,,,
KBUR,Burbank,,34.1808,-118.3089,2012-04-23 04:45:00,,OVC,3.0,,54,,,,54.0,,100,6.0,170.0,,29.16,,,,,,,,,,,,,,,,,,,,,,,,,,,,,,,,,,,,,,,,,,,,,,,,,,,,,,,,,,,,,,,,,,,,,
KBUR,Burbank,,34.1808,-118.3089,2012-04-23 04:53:00,,OVC,4.0,,54,,,,53.0,,97,6.0,180.0,,29.13,1.0,Rising Rapidly,,,,57.0,54.0,,,,,,,,,,,,,,,,,,,,,,,,,,,,,,,,,,,,,,,,,,,,,,,,,,,,,,,,,,,,,,
KBUR,Burbank,,34.1808,-118.3089,2012-04-23 05:53:00,,OVC,3.0,,53,,,,52.0,,96,5.0,180.0,,29.14,,,,,,,,,,,,,,,,,,,,,,,,,,,,,,,,,,,,,,,,,,,,,,,,,,,,,,,,,,,,,,,,,,,,,
KBUR,Burbank,,34.1808,-118.3089,2012-04-23 06:26:00,,OVC,2.0,,54,,,,54.0,,100,5.0,180.0,,29.18,,,,,,,,,,,,,,,,,,,,,,,,,,,,,,,,,,,,,,,,,,,,,,,,,,,,,,,,,,,,,,,,,,,,,
KBUR,Burbank,,34.1808,-118.3089,2012-04-23 06:53:00,,OVC,2.0,,54,,,,53.0,,97,,,,29.16,,,,,,,,,,,,,,,,,,,,,,,,,,,,,,,,,,,,,,,,,,,,,,,,,,,,,,,,,,,,,,,,,,,,,
KBUR,Burbank,,34.1808,-118.3089,2012-04-23 07:53:00,,OVC,2.0,,54,,,,53.0,,97,,,,29.16,0.0,Steady,,,,,,,,,,,,,,,,,,,,,,,,,,,,,,,,,,,,,,,,,,,,,,,,,,,,,,,,,,,,,,,,,,,
KBUR,Burbank,,34.1808,-118.3089,2012-04-23 08:53:00,,OVC,3.0,,55,,,,53.0,,93,3.0,230.0,,29.16,,,,,,,,,,,,,,,,,,,,,,,,,,,,,,,,,,,,,,,,,,,,,,,,,,,,,,,,,,,,,,,,,,,,,
KBUR,Burbank,,34.1808,-118.3089,2012-04-23 09:53:00,,OVC,3.0,,56,,,,54.0,,93,5.0,210.0,,29.17,,,,,,,,,,,,,,,,,,,,,,,,,,,,,,,,,,,,,,,,,,,,,,,,,,,,,,,,,,,,,,,,,,,,,
KBUR,Burbank,,34.1808,-118.3089,2012-04-23 10:53:00,,OVC,3.0,,56,,,,54.0,,93,5.0,190.0,,29.17,1.0,Rising Rapidly,,0.0,,56.0,53.0,,,,,,,,,,,,,,,,,,,,,,,,,,,,,,,,,,,,,,,,,,,,,,,,,,,,,,,,,,,,,,
KBUR,Burbank,,34.1808,-118.3089,2012-04-23 11:24:00,,OVC,6.0,,55,,,,54.0,,94,,,,29.2,,,,,,,,,,,,,,,,,,,,,,,,,,,,,,,,,,,,,,,,,,,,,,,,,,,,,,,,,,,,,,,,,,,,,
KBUR,Burbank,,34.1808,-118.3089,2012-04-23 11:53:00,,OVC,10.0,,57,,,,52.0,,83,,,,29.17,,,,,,,,,,,,,,,,,,,,,,,,,,,,,,,,,,,,,,,,,,,,,,,,,,,,,,,,,,,,,,,,,,,,,
KBUR,Burbank,,34.1808,-118.3089,2012-04-23 12:53:00,,OVC,10.0,,58,,,,52.0,,81,7.0,160.0,,29.17,,,,,,,,,,,,,,,,,,,,,,,,,,,,,,,,,,,,,,,,,,,,,,,,,,,,,,,,,,,,,,,,,,,,,
KBUR,Burbank,,34.1808,-118.3089,2012-04-23 13:53:00,,OVC,6.0,,57,,,,52.0,,83,6.0,180.0,,29.18,1.0,Rising Rapidly,,,,,,,,,,,,,,,,,,,,,,,,,,,,,,,,,,,,,,,,,,,,,,,,,,,,,,,,,,,,,,,,,,,
KBUR,Burbank,,34.1808,-118.3089,2012-04-23 14:53:00,,OVC,10.0,,58,,,,51.0,,78,7.0,120.0,,29.17,,,,,,,,,,,,,,,,,,,,,,,,,,,,,,,,,,,,,,,,,,,,,,,,,,,,,,,,,,,,,,,,,,,,,
KBUR,Burbank,,34.1808,-118.3089,2012-04-23 15:53:00,,OVC,10.0,,59,,,,50.0,,72,5.0,150.0,,29.17,,,,,,,,,,,,,,,,,,,,,,,,,,,,,,,,,,,,,,,,,,,,,,,,,,,,,,,,,,,,,,,,,,,,,
KBUR,Burbank,,34.1808,-118.3089,2012-04-23 16:53:00,,OVC,10.0,,58,,,,50.0,,75,6.0,170.0,,29.16,2.0,Falling Rapidly,,,,59.0,55.0,,,,,,,,,,,,,,,,,,,,,,,,,,,,,,,,,,,,,,,,,,,,,,,,,,,,,,,,,,,,,,
KBUR,Burbank,,34.1808,-118.3089,2012-04-23 17:53:00,,OVC,10.0,,59,,,,50.0,,72,5.0,180.0,,29.15,,,,,,,,,,,,,,,,,,,,,,,,,,,,,,,,,,,,,,,,,,,,,,,,,,,,,,,,,,,,,,,,,,,,,
KBUR,Burbank,,34.1808,-118.3089,2012-04-23 18:53:00,,OVC,10.0,,58,,,,50.0,,75,3.0,80.0,,29.15,,,,,,,,,,,,,,,,,,,,,,,,,,,,,,,,,,,,,,,,,,,,,,,,,,,,,,,,,,,,,,,,,,,,,
KBUR,Burbank,,34.1808,-118.3089,2012-04-23 19:53:00,,OVC,10.0,,57,,,,50.0,,77,3.0,80.0,,29.16,1.0,Rising Rapidly,,,,,,,,,,,,,,,,,,,,,,,,,,,,,,,,,,,,,,,,,,,,,,,,,,,,,,,,,,,,,,,,,,,
KBUR,Burbank,,34.1808,-118.3089,2012-04-23 20:53:00,,OVC,10.0,,57,,,,50.0,,77,,,,29.17,,,,,,,,,,,,,,,,,,,,,,,,,,,,,,,,,,,,,,,,,,,,,,,,,,,,,,,,,,,,,,,,,,,,,
KBUR,Burbank,,34.1808,-118.3089,2012-04-23 21:53:00,,OVC,10.0,,57,,,,50.0,,77,,,,29.18,,,,,,,,,,,,,,,,,,,,,,,,,,,,,,,,,,,,,,,,,,,,,,,,,,,,,,,,,,,,,,,,,,,,,
KBUR,Burbank,,34.1808,-118.3089,2012-04-23 22:53:00,,OVC,10.0,,57,,,,50.0,,77,,,,29.2,1.0,Rising Rapidly,,,,59.0,57.0,,,,,,,,,,,,,,,,,,,,,,,,,,,,,,,,,,,,,,,,,,,,,,,,,,,,,,,,,,,,,,
KBUR,Burbank,,34.1808,-118.3089,2012-04-23 23:53:00,,OVC,10.0,,57,,,,49.0,,74,5.0,160.0,,29.19,,,,,,,,,,,,,,,,,,,,,,,,,,,,,,,,,,,,,,,,,,,,,,,,,,,,,,,,,,,,,,,,,,,,,
KBUR,Burbank,,34.1808,-118.3089,2012-04-24 00:53:00,,OVC,10.0,,56,,,,49.0,,77,5.0,180.0,,29.19,,,,,,59.0,53.0,,,,,,,,,,,,,,,,,,,,,,,,,,,,,,,,,,,,,,,,,,,,,,,,,,,,,,,,,,,,,,
KBUR,Burbank,,34.1808,-118.3089,2012-04-24 01:00:00,,OVC,10.0,,55,,,,48.0,,77,5.0,180.0,,29.22,,,,,,,,,,,,,,,,,,,,,,,,,,,,,,,,,,,,,,,,,,,,,,,,,,,,,,,,,,,,,,,,,,,,,
KBUR,Burbank,,34.1808,-118.3089,2012-04-24 01:22:00,,OVC,10.0,,55,,,,48.0,,77,3.0,150.0,,29.22,,,,,,,,,,,,,,,,,,,,,,,,,,,,,,,,,,,,,,,,,,,,,,,,,,,,,,,,,,,,,,,,,,,,,
KBUR,Burbank,,34.1808,-118.3089,2012-04-24 01:34:00,,OVC,10.0,,55,,,,48.0,,77,3.0,150.0,,29.21,,,,,,,,,,,,,,,,,,,,,,,,,,,,,,,,,,,,,,,,,,,,,,,,,,,,,,,,,,,,,,,,,,,,,
KBUR,Burbank,,34.1808,-118.3089,2012-04-24 01:53:00,,BKN,10.0,,55,,,,49.0,,80,3.0,130.0,,29.18,2.0,Falling Rapidly,,,,,,,,,,,,,,,,,,,,,,,,,,,,,,,,,,,,,,,,,,,,,,,,,,,,,,,,,,,,,,,,,,,
KBUR,Burbank,,34.1808,-118.3089,2012-04-24 02:53:00,,OVC,10.0,,56,,,,49.0,,77,,,,29.19,,,,,,,,,,,,,,,,,,,,,,,,,,,,,,,,,,,,,,,,,,,,,,,,,,,,,,,,,,,,,,,,,,,,,
KBUR,Burbank,,34.1808,-118.3089,2012-04-24 03:53:00,,BKN,10.0,,56,,,,49.0,,77,,,,29.19,,,,,,,,,,,,,,,,,,,,,,,,,,,,,,,,,,,,,,,,,,,,,,,,,,,,,,,,,,,,,,,,,,,,,
KBUR,Burbank,,34.1808,-118.3089,2012-04-24 04:53:00,,CLR,10.0,,55,,,,49.0,,80,3.0,90.0,,29.16,2.0,Falling Rapidly,,,,57.0,55.0,,,,,,,,,,,,,,,,,,,,,,,,,,,,,,,,,,,,,,,,,,,,,,,,,,,,,,,,,,,,,,
KBUR,Burbank,,34.1808,-118.3089,2012-04-24 05:53:00,,SCT,10.0,,54,,,,49.0,,83,,,,29.2,,,,,,,,,,,,,,,,,,,,,,,,,,,,,,,,,,,,,,,,,,,,,,,,,,,,,,,,,,,,,,,,,,,,,
KBUR,Burbank,,34.1808,-118.3089,2012-04-24 06:53:00,,OVC,10.0,,55,,,,50.0,,83,,,,29.22,,,,,,,,,,,,,,,,,,,,,,,,,,,,,,,,,,,,,,,,,,,,,,,,,,,,,,,,,,,,,,,,,,,,,
KBUR,Burbank,,34.1808,-118.3089,2012-04-24 07:53:00,,OVC,10.0,,56,,,,50.0,,80,3.0,330.0,,29.22,1.0,Rising,,,,,,,,,,,,,,,,,,,,,,,,,,,,,,,,,,,,,,,,,,,,,,,,,,,,,,,,,,,,,,,,,,,
KBUR,Burbank,,34.1808,-118.3089,2012-04-24 08:53:00,,OVC,10.0,,58,,,,48.0,,70,7.0,250.0,,29.21,,,,,,,,,,,,,,,,,,,,,,,,,,,,,,,,,,,,,,,,,,,,,,,,,,,,,,,,,,,,,,,,,,,,,
KBUR,Burbank,,34.1808,-118.3089,2012-04-24 09:53:00,,SCT,10.0,,60,,,,49.0,,67,,,,29.18,,,,,,,,,,,,,,,,,,,,,,,,,,,,,,,,,,,,,,,,,,,,,,,,,,,,,,,,,,,,,,,,,,,,,
KBUR,Burbank,,34.1808,-118.3089,2012-04-24 10:53:00,,SCT,10.0,,63,,,,49.0,,60,6.0,200.0,,29.18,0.0,Steady,,,,63.0,54.0,,,,,,,,,,,,,,,,,,,,,,,,,,,,,,,,,,,,,,,,,,,,,,,,,,,,,,,,,,,,,,
KBUR,Burbank,,34.1808,-118.3089,2012-04-24 11:53:00,,SCT,10.0,,67,,,,50.0,,54,3.0,,,29.17,,,,,,,,,,,,,,,,,,,,,,,,,,,,,,,,,,,,,,,,,,,,,,,,,,,,,,,,,,,,,,,,,,,,,
KBUR,Burbank,,34.1808,-118.3089,2012-04-24 12:53:00,,SCT,10.0,,68,,,,49.0,,50,,,,29.17,,,,,,,,,,,,,,,,,,,,,,,,,,,,,,,,,,,,,,,,,,,,,,,,,,,,,,,,,,,,,,,,,,,,,
KBUR,Burbank,,34.1808,-118.3089,2012-04-24 13:53:00,,CLR,10.0,,68,,,,49.0,,50,9.0,210.0,,29.15,2.0,Falling Rapidly,,,,,,,,,,,,,,,,,,,,,,,,,,,,,,,,,,,,,,,,,,,,,,,,,,,,,,,,,,,,,,,,,,,
KBUR,Burbank,,34.1808,-118.3089,2012-04-24 14:53:00,,CLR,10.0,,69,,,,49.0,,49,3.0,,,29.12,,,,,,,,,,,,,,,,,,,,,,,,,,,,,,,,,,,,,,,,,,,,,,,,,,,,,,,,,,,,,,,,,,,,,
KBUR,Burbank,,34.1808,-118.3089,2012-04-24 15:53:00,,CLR,10.0,,67,,,,50.0,,54,7.0,160.0,,29.11,,,,,,,,,,,,,,,,,,,,,,,,,,,,,,,,,,,,,,,,,,,,,,,,,,,,,,,,,,,,,,,,,,,,,
KBUR,Burbank,,34.1808,-118.3089,2012-04-24 16:53:00,,CLR,10.0,,66,,,,49.0,,54,5.0,200.0,,29.11,2.0,Falling,,,,70.0,63.0,,,,,,,,,,,,,,,,,,,,,,,,,,,,,,,,,,,,,,,,,,,,,,,,,,,,,,,,,,,,,,
KBUR,Burbank,,34.1808,-118.3089,2012-04-24 17:53:00,,CLR,10.0,,67,,,,49.0,,52,3.0,200.0,,29.11,,,,,,,,,,,,,,,,,,,,,,,,,,,,,,,,,,,,,,,,,,,,,,,,,,,,,,,,,,,,,,,,,,,,,
KBUR,Burbank,,34.1808,-118.3089,2012-04-24 18:53:00,,CLR,10.0,,67,,,,50.0,,54,5.0,170.0,,29.1,,,,,,,,,,,,,,,,,,,,,,,,,,,,,,,,,,,,,,,,,,,,,,,,,,,,,,,,,,,,,,,,,,,,,
KBUR,Burbank,,34.1808,-118.3089,2012-04-24 19:53:00,,CLR,10.0,,62,,,,50.0,,65,6.0,170.0,,29.16,1.0,Rising Rapidly,,,,,,,,,,,,,,,,,,,,,,,,,,,,,,,,,,,,,,,,,,,,,,,,,,,,,,,,,,,,,,,,,,,
KBUR,Burbank,,34.1808,-118.3089,2012-04-24 20:53:00,,CLR,10.0,,61,,,,49.0,,64,,,,29.18,,,,,,,,,,,,,,,,,,,,,,,,,,,,,,,,,,,,,,,,,,,,,,,,,,,,,,,,,,,,,,,,,,,,,
KBUR,Burbank,,34.1808,-118.3089,2012-04-24 21:53:00,,CLR,10.0,,62,,,,50.0,,65,6.0,270.0,,29.16,,,,,,,,,,,,,,,,,,,,,,,,,,,,,,,,,,,,,,,,,,,,,,,,,,,,,,,,,,,,,,,,,,,,,
KBUR,Burbank,,34.1808,-118.3089,2012-04-24 22:53:00,,CLR,10.0,,61,,,,49.0,,64,5.0,310.0,,29.15,2.0,Falling Rapidly,,,,67.0,60.0,,,,,,,,,,,,,,,,,,,,,,,,,,,,,,,,,,,,,,,,,,,,,,,,,,,,,,,,,,,,,,
KBUR,Burbank,,34.1808,-118.3089,2012-04-24 23:53:00,,CLR,10.0,,60,,,,49.0,,67,5.0,150.0,,29.17,,,,,,,,,,,,,,,,,,,,,,,,,,,,,,,,,,,,,,,,,,,,,,,,,,,,,,,,,,,,,,,,,,,,,
KBUR,Burbank,,34.1808,-118.3089,2012-04-25 00:53:00,,CLR,10.0,,59,,,,51.0,,75,6.0,150.0,,29.16,,,,,,70.0,54.0,,,,,,,,,,,,,,,,,,,,,,,,,,,,,,,,,,,,,,,,,,,,,,,,,,,,,,,,,,,,,,
KBUR,Burbank,,34.1808,-118.3089,2012-04-25 01:53:00,,CLR,10.0,,59,,,,51.0,,75,3.0,310.0,,29.14,2.0,Falling Rapidly,,,,,,,,,,,,,,,,,,,,,,,,,,,,,,,,,,,,,,,,,,,,,,,,,,,,,,,,,,,,,,,,,,,
KBUR,Burbank,,34.1808,-118.3089,2012-04-25 02:53:00,,SCT,10.0,,60,,,,50.0,,69,5.0,290.0,,29.13,,,,,,,,,,,,,,,,,,,,,,,,,,,,,,,,,,,,,,,,,,,,,,,,,,,,,,,,,,,,,,,,,,,,,
KBUR,Burbank,,34.1808,-118.3089,2012-04-25 03:53:00,,FEW,10.0,,60,,,,49.0,,67,6.0,360.0,,29.12,,,,,,,,,,,,,,,,,,,,,,,,,,,,,,,,,,,,,,,,,,,,,,,,,,,,,,,,,,,,,,,,,,,,,
KBUR,Burbank,,34.1808,-118.3089,2012-04-25 04:53:00,,CLR,10.0,,59,,,,50.0,,72,3.0,210.0,,29.12,2.0,Falling Rapidly,,,,61.0,59.0,,,,,,,,,,,,,,,,,,,,,,,,,,,,,,,,,,,,,,,,,,,,,,,,,,,,,,,,,,,,,,
KBUR,Burbank,,34.1808,-118.3089,2012-04-25 05:53:00,,CLR,10.0,,59,,,,51.0,,75,3.0,140.0,,29.1,,,,,,,,,,,,,,,,,,,,,,,,,,,,,,,,,,,,,,,,,,,,,,,,,,,,,,,,,,,,,,,,,,,,,
KBUR,Burbank,,34.1808,-118.3089,2012-04-25 06:53:00,,CLR,10.0,,59,,,,51.0,,75,5.0,30.0,,29.1,,,,,,,,,,,,,,,,,,,,,,,,,,,,,,,,,,,,,,,,,,,,,,,,,,,,,,,,,,,,,,,,,,,,,
KBUR,Burbank,,34.1808,-118.3089,2012-04-25 07:53:00,,CLR,10.0,,60,,,,51.0,,72,5.0,280.0,,29.09,2.0,Falling,,,,,,,,,,,,,,,,,,,,,,,,,,,,,,,,,,,,,,,,,,,,,,,,,,,,,,,,,,,,,,,,,,,
KBUR,Burbank,,34.1808,-118.3089,2012-04-25 08:53:00,,SCT,10.0,,61,,,,52.0,,72,5.0,60.0,,29.1,,,,,,,,,,,,,,,,,,,,,,,,,,,,,,,,,,,,,,,,,,,,,,,,,,,,,,,,,,,,,,,,,,,,,
KBUR,Burbank,,34.1808,-118.3089,2012-04-25 09:53:00,,CLR,10.0,,67,,,,51.0,,57,7.0,270.0,,29.05,,,,0.0,,,,,,,,,,,,,,,,,,,,,,,,,,,,,,,,,,,,,,,,,,,,,,,,,,,,,,,,,,,,,,,,,
KBUR,Burbank,,34.1808,-118.3089,2012-04-25 10:53:00,,CLR,10.0,,70,,,,51.0,,51,3.0,200.0,,29.03,2.0,Falling Rapidly,,,,70.0,58.0,,,,,,,,,,,,,,,,,,,,,,,,,,,,,,,,,,,,,,,,,,,,,,,,,,,,,,,,,,,,,,
KBUR,Burbank,,34.1808,-118.3089,2012-04-25 11:53:00,,CLR,10.0,,72,,,,52.0,,49,7.0,270.0,,28.99,,,,,,,,,,,,,,,,,,,,,,,,,,,,,,,,,,,,,,,,,,,,,,,,,,,,,,,,,,,,,,,,,,,,,
KBUR,Burbank,,34.1808,-118.3089,2012-04-25 12:53:00,,CLR,10.0,,76,,,,53.0,,45,,,,28.98,,,,,,,,,,,,,,,,,,,,,,,,,,,,,,,,,,,,,,,,,,,,,,,,,,,,,,,,,,,,,,,,,,,,,
KBUR,Burbank,,34.1808,-118.3089,2012-04-25 13:53:00,,CLR,10.0,,82,,,,53.0,,37,5.0,170.0,,28.95,2.0,Falling,,,,,,,,,,,,,,,,,,,,,,,,,,,,,,,,,,,,,,,,,,,,,,,,,,,,,,,,,,,,,,,,,,,
KBUR,Burbank,,34.1808,-118.3089,2012-04-25 14:53:00,,CLR,10.0,,82,,,,52.0,,35,5.0,210.0,,28.92,,,,,,,,,,,,,,,,,,,,,,,,,,,,,,,,,,,,,,,,,,,,,,,,,,,,,,,,,,,,,,,,,,,,,
KBUR,Burbank,,34.1808,-118.3089,2012-04-25 15:53:00,,FEW,10.0,,82,,,,52.0,,35,8.0,180.0,,28.88,,,,,,,,,,,,,,,,,,,,,,,,,,,,,,,,,,,,,,,,,,,,,,,,,,,,,,,,,,,,,,,,,,,,,
KBUR,Burbank,,34.1808,-118.3089,2012-04-25 16:53:00,,BKN,10.0,,68,,,,48.0,,49,6.0,,,28.97,1.0,Rising Rapidly,,0.0,,83.0,67.0,,,,,,,,,,,,,,,,,,,,,,,,,,,,,,,,,,,,,,,,,,,,,,,,,,,,,,,,,,,,,,
KBUR,Burbank,,34.1808,-118.3089,2012-04-25 17:53:00,,SCT,10.0,,67,,,,53.0,,61,5.0,,,28.98,,,,0.0,,,,,,,,,,,,,,,,,,,,,,,,,,,,,,,,,,,,,,,,,,,,,,,,,,,,,,,,,,,,,,,,,
KBUR,Burbank,,34.1808,-118.3089,2012-04-25 18:53:00,,BKN,10.0,,64,,,,51.0,,63,10.0,100.0,17.0,29.0,,,,0.0,,,,,,,,,,,,,,,,,,,,,,,,,,,,,,,,,,,,,,,,,,,,,,,,,,,,,,,,,,,,,,,,,
KBUR,Burbank,,34.1808,-118.3089,2012-04-25 19:53:00,,BKN,10.0,,63,,,,51.0,,65,7.0,150.0,,29.0,1.0,Rising,,0.0,,,,,,,,,,,,,,,,,,,,,,,,,,,,,,,,,,,,,,,,,,,,,,,,,,,,,,,,,,,,,,,,,
KBUR,Burbank,,34.1808,-118.3089,2012-04-25 20:53:00,,BKN,10.0,,62,,,,52.0,,70,9.0,150.0,,29.06,,,,0.0,,,,,,,,,,,,,,,,,,,,,,,,,,,,,,,,,,,,,,,,,,,,,,,,,,,,,,,,,,,,,,,,,
KBUR,Burbank,,34.1808,-118.3089,2012-04-25 21:53:00,,OVC,10.0,,62,,,,51.0,,67,10.0,120.0,,29.04,,,,,,,,,,,,,,,,,,,,,,,,,,,,,,,,,,,,,,,,,,,,,,,,,,,,,,,,,,,,,,,,,,,,,
KBUR,Burbank,,34.1808,-118.3089,2012-04-25 22:53:00,,OVC,9.0,,58,,,,55.0,,90,9.0,180.0,,29.07,1.0,Rising,,0.0,,70.0,58.0,,,,,,,,,,,,,,,,,,,,,,,,,,,,,,,,,,,,,,,,,,,,,,,,,,,,,,,,,,,,,,
KBUR,Burbank,,34.1808,-118.3089,2012-04-25 23:01:00,,OVC,8.0,,57,,,,55.0,,94,13.0,200.0,,29.1,,,,0.0,,,,,,,,,,,,,,,,,,,,,,,,,,,,,,,,,,,,,,,,,,,,,,,,,,,,,,,,,,,,,,,,,
KBUR,Burbank,,34.1808,-118.3089,2012-04-25 23:40:00,,OVC,8.0,,55,,,,55.0,,100,6.0,170.0,,29.1,,,,0.05,,,,,,,,,,,,,,,,,,,,,,,,,,,,,,,,,,,,,,,,,,,,,,,,,,,,,,,,,,,,,,,,,
KBUR,Burbank,,34.1808,-118.3089,2012-04-25 23:53:00,,OVC,10.0,,56,,,,55.0,,97,7.0,170.0,,29.07,,,,0.06,,,,,,,,,,,,,,,,,,,,,,,,,,,,,,,,,,,,,,,,,,,,,,,,,,,,,,,,,,,,,,,,,
KBUR,Burbank,,34.1808,-118.3089,2012-04-26 00:48:00,,OVC,10.0,,57,,,,55.0,,94,7.0,110.0,,29.05,,,,0.04,,83.0,56.0,,,,,,,,,,,,,,,,,,,,,,,,,,,,,,,,,,,,,,,,,,,,,,,,,,,,,,,,,,,,,,
KBUR,Burbank,,34.1808,-118.3089,2012-04-26 00:53:00,,OVC,10.0,,57,,,,56.0,,96,7.0,120.0,,29.02,,,,0.04,,83.0,56.0,,,,,,,,,,,,,,,,,,,,,,,,,,,,,,,,,,,,,,,,,,,,,,,,,,,,,,,,,,,,,,
KBUR,Burbank,,34.1808,-118.3089,2012-04-26 01:53:00,,OVC,10.0,,58,,,,55.0,,90,6.0,160.0,,29.01,2.0,Falling,,0.01,,,,,,,,,,,,,,,,,,,,,,,,,,,,,,,,,,,,,,,,,,,,,,,,,,,,,,,,,,,,,,,,,
KBUR,Burbank,,34.1808,-118.3089,2012-04-26 02:53:00,,OVC,10.0,,57,,,,55.0,,93,7.0,130.0,,28.99,,,,0.04,,,,,,,,,,,,,,,,,,,,,,,,,,,,,,,,,,,,,,,,,,,,,,,,,,,,,,,,,,,,,,,,,
KBUR,Burbank,,34.1808,-118.3089,2012-04-26 03:53:00,,OVC,10.0,,57,,,,55.0,,93,,,,28.99,,,,0.0,,,,,,,,,,,,,,,,,,,,,,,,,,,,,,,,,,,,,,,,,,,,,,,,,,,,,,,,,,,,,,,,,
KBUR,Burbank,,34.1808,-118.3089,2012-04-26 04:20:00,,OVC,10.0,,57,,,,54.0,,88,3.0,180.0,,29.04,,,,,,,,,,,,,,,,,,,,,,,,,,,,,,,,,,,,,,,,,,,,,,,,,,,,,,,,,,,,,,,,,,,,,
KBUR,Burbank,,34.1808,-118.3089,2012-04-26 04:53:00,,OVC,10.0,,57,,,,55.0,,93,,,,29.01,0.0,Steady,,,,58.0,56.0,,,,,,,,,,,,,,,,,,,,,,,,,,,,,,,,,,,,,,,,,,,,,,,,,,,,,,,,,,,,,,
KBUR,Burbank,,34.1808,-118.3089,2012-04-26 05:17:00,,OVC,3.0,,55,,,,55.0,,100,,,,29.04,,,,0.09,,,,,,,,,,,,,,,,,,,,,,,,,,,,,,,,,,,,,,,,,,,,,,,,,,,,,,,,,,,,,,,,,
KBUR,Burbank,,34.1808,-118.3089,2012-04-26 05:30:00,,OVC,3.0,,55,,,,55.0,,100,,,,29.04,,,,0.12,,,,,,,,,,,,,,,,,,,,,,,,,,,,,,,,,,,,,,,,,,,,,,,,,,,,,,,,,,,,,,,,,
KBUR,Burbank,,34.1808,-118.3089,2012-04-26 05:53:00,,OVC,3.0,,56,,,,55.0,,97,,,,29.02,,,,0.2,,,,,,,,,,,,,,,,,,,,,,,,,,,,,,,,,,,,,,,,,,,,,,,,,,,,,,,,,,,,,,,,,
KBUR,Burbank,,34.1808,-118.3089,2012-04-26 06:09:00,,OVC,6.0,,55,,,,55.0,,100,5.0,110.0,,29.03,,,,0.02,,,,,,,,,,,,,,,,,,,,,,,,,,,,,,,,,,,,,,,,,,,,,,,,,,,,,,,,,,,,,,,,,
KBUR,Burbank,,34.1808,-118.3089,2012-04-26 06:53:00,,BKN,10.0,,56,,,,55.0,,97,3.0,100.0,,29.02,,,,0.02,,,,,,,,,,,,,,,,,,,,,,,,,,,,,,,,,,,,,,,,,,,,,,,,,,,,,,,,,,,,,,,,,
KBUR,Burbank,,34.1808,-118.3089,2012-04-26 07:53:00,,OVC,10.0,,57,,,,56.0,,96,6.0,140.0,,29.06,1.0,Rising Rapidly,,,,,,,,,,,,,,,,,,,,,,,,,,,,,,,,,,,,,,,,,,,,,,,,,,,,,,,,,,,,,,,,,,,
KBUR,Burbank,,34.1808,-118.3089,2012-04-26 08:53:00,,OVC,10.0,,58,,,,54.0,,87,7.0,170.0,,29.09,,,,,,,,,,,,,,,,,,,,,,,,,,,,,,,,,,,,,,,,,,,,,,,,,,,,,,,,,,,,,,,,,,,,,
KBUR,Burbank,,34.1808,-118.3089,2012-04-26 09:03:00,,OVC,10.0,,57,,,,54.0,,88,6.0,160.0,,29.12,,,,,,,,,,,,,,,,,,,,,,,,,,,,,,,,,,,,,,,,,,,,,,,,,,,,,,,,,,,,,,,,,,,,,
KBUR,Burbank,,34.1808,-118.3089,2012-04-26 09:27:00,,OVC,10.0,,57,,,,55.0,,94,7.0,140.0,,29.13,,,,,,,,,,,,,,,,,,,,,,,,,,,,,,,,,,,,,,,,,,,,,,,,,,,,,,,,,,,,,,,,,,,,,
KBUR,Burbank,,34.1808,-118.3089,2012-04-26 09:53:00,,OVC,10.0,,56,,,,54.0,,93,10.0,190.0,,29.12,,,,,,,,,,,,,,,,,,,,,,,,,,,,,,,,,,,,,,,,,,,,,,,,,,,,,,,,,,,,,,,,,,,,,
KBUR,Burbank,,34.1808,-118.3089,2012-04-26 10:53:00,,OVC,10.0,,57,,,,53.0,,87,9.0,180.0,,29.15,1.0,Rising Rapidly,,,,58.0,55.0,,,,,,,,,,,,,,,,,,,,,,,,,,,,,,,,,,,,,,,,,,,,,,,,,,,,,,,,,,,,,,
KBUR,Burbank,,34.1808,-118.3089,2012-04-26 11:53:00,,OVC,10.0,,59,,,,52.0,,78,8.0,130.0,,29.16,,,,,,,,,,,,,,,,,,,,,,,,,,,,,,,,,,,,,,,,,,,,,,,,,,,,,,,,,,,,,,,,,,,,,
KBUR,Burbank,,34.1808,-118.3089,2012-04-26 12:53:00,,BKN,10.0,,62,,,,53.0,,72,7.0,160.0,,29.15,,,,,,,,,,,,,,,,,,,,,,,,,,,,,,,,,,,,,,,,,,,,,,,,,,,,,,,,,,,,,,,,,,,,,
KBUR,Burbank,,34.1808,-118.3089,2012-04-26 13:53:00,,OVC,10.0,,62,,,,53.0,,72,10.0,130.0,,29.17,1.0,Rising Rapidly,,,,,,,,,,,,,,,,,,,,,,,,,,,,,,,,,,,,,,,,,,,,,,,,,,,,,,,,,,,,,,,,,,,
KBUR,Burbank,,34.1808,-118.3089,2012-04-26 14:53:00,,OVC,10.0,,61,,,,53.0,,75,8.0,180.0,,29.19,,,,,,,,,,,,,,,,,,,,,,,,,,,,,,,,,,,,,,,,,,,,,,,,,,,,,,,,,,,,,,,,,,,,,
KBUR,Burbank,,34.1808,-118.3089,2012-04-26 15:53:00,,OVC,10.0,,61,,,,53.0,,75,10.0,100.0,,29.18,,,,,,,,,,,,,,,,,,,,,,,,,,,,,,,,,,,,,,,,,,,,,,,,,,,,,,,,,,,,,,,,,,,,,
KBUR,Burbank,,34.1808,-118.3089,2012-04-26 16:53:00,,OVC,10.0,,62,,,,52.0,,70,9.0,150.0,,29.18,0.0,Steady,,,,63.0,57.0,,,,,,,,,,,,,,,,,,,,,,,,,,,,,,,,,,,,,,,,,,,,,,,,,,,,,,,,,,,,,,
KBUR,Burbank,,34.1808,-118.3089,2012-04-26 17:53:00,,OVC,10.0,,61,,,,52.0,,72,7.0,170.0,,29.18,,,,,,,,,,,,,,,,,,,,,,,,,,,,,,,,,,,,,,,,,,,,,,,,,,,,,,,,,,,,,,,,,,,,,
KBUR,Burbank,,34.1808,-118.3089,2012-04-26 18:53:00,,OVC,10.0,,60,,,,53.0,,78,6.0,160.0,,29.17,,,,,,,,,,,,,,,,,,,,,,,,,,,,,,,,,,,,,,,,,,,,,,,,,,,,,,,,,,,,,,,,,,,,,
KBUR,Burbank,,34.1808,-118.3089,2012-04-26 19:53:00,,OVC,10.0,,60,,,,52.0,,75,7.0,140.0,,29.17,2.0,Falling,,,,,,,,,,,,,,,,,,,,,,,,,,,,,,,,,,,,,,,,,,,,,,,,,,,,,,,,,,,,,,,,,,,
KBUR,Burbank,,34.1808,-118.3089,2012-04-26 20:53:00,,OVC,10.0,,59,,,,52.0,,78,6.0,150.0,,29.18,,,,,,,,,,,,,,,,,,,,,,,,,,,,,,,,,,,,,,,,,,,,,,,,,,,,,,,,,,,,,,,,,,,,,
KBUR,Burbank,,34.1808,-118.3089,2012-04-26 21:53:00,,SCT,10.0,,58,,,,52.0,,81,5.0,150.0,,29.2,,,,,,,,,,,,,,,,,,,,,,,,,,,,,,,,,,,,,,,,,,,,,,,,,,,,,,,,,,,,,,,,,,,,,
KBUR,Burbank,,34.1808,-118.3089,2012-04-26 22:53:00,,BKN,10.0,,57,,,,52.0,,83,3.0,140.0,,29.2,1.0,Rising,,,,62.0,57.0,,,,,,,,,,,,,,,,,,,,,,,,,,,,,,,,,,,,,,,,,,,,,,,,,,,,,,,,,,,,,,
KBUR,Burbank,,34.1808,-118.3089,2012-04-26 23:53:00,,CLR,10.0,,56,,,,51.0,,84,8.0,110.0,,29.2,,,,,,,,,,,,,,,,,,,,,,,,,,,,,,,,,,,,,,,,,,,,,,,,,,,,,,,,,,,,,,,,,,,,,
KBUR,Burbank,,34.1808,-118.3089,2012-04-27 00:53:00,,FEW,10.0,,54,,,,51.0,,90,6.0,120.0,,29.21,,,,,,63.0,54.0,,,,,,,,,,,,,,,,,,,,,,,,,,,,,,,,,,,,,,,,,,,,,,,,,,,,,,,,,,,,,,
KBUR,Burbank,,34.1808,-118.3089,2012-04-27 01:17:00,,BKN,10.0,,54,,,,52.0,,94,7.0,120.0,,29.23,,,,,,,,,,,,,,,,,,,,,,,,,,,,,,,,,,,,,,,,,,,,,,,,,,,,,,,,,,,,,,,,,,,,,
KBUR,Burbank,,34.1808,-118.3089,2012-04-27 01:53:00,,OVC,10.0,,54,,,,50.0,,86,,,,29.2,2.0,Falling Rapidly,,,,,,,,,,,,,,,,,,,,,,,,,,,,,,,,,,,,,,,,,,,,,,,,,,,,,,,,,,,,,,,,,,,
KBUR,Burbank,,34.1808,-118.3089,2012-04-27 02:53:00,,BKN,10.0,,54,,,,50.0,,86,,,,29.2,,,,,,,,,,,,,,,,,,,,,,,,,,,,,,,,,,,,,,,,,,,,,,,,,,,,,,,,,,,,,,,,,,,,,
KBUR,Burbank,,34.1808,-118.3089,2012-04-27 03:53:00,,SCT,10.0,,54,,,,50.0,,86,,,,29.19,,,,,,,,,,,,,,,,,,,,,,,,,,,,,,,,,,,,,,,,,,,,,,,,,,,,,,,,,,,,,,,,,,,,,
KBUR,Burbank,,34.1808,-118.3089,2012-04-27 04:17:00,,BKN,10.0,,54,,,,50.0,,88,,,,29.21,,,,,,,,,,,,,,,,,,,,,,,,,,,,,,,,,,,,,,,,,,,,,,,,,,,,,,,,,,,,,,,,,,,,,
KBUR,Burbank,,34.1808,-118.3089,2012-04-27 04:24:00,,SCT,10.0,,54,,,,50.0,,88,,,,29.22,,,,,,,,,,,,,,,,,,,,,,,,,,,,,,,,,,,,,,,,,,,,,,,,,,,,,,,,,,,,,,,,,,,,,
KBUR,Burbank,,34.1808,-118.3089,2012-04-27 04:36:00,,BKN,10.0,,52,,,,50.0,,94,3.0,340.0,,29.22,,,,,,,,,,,,,,,,,,,,,,,,,,,,,,,,,,,,,,,,,,,,,,,,,,,,,,,,,,,,,,,,,,,,,
KBUR,Burbank,,34.1808,-118.3089,2012-04-27 04:50:00,,SCT,10.0,,52,,,,50.0,,94,,,,29.21,,,,,,,,,,,,,,,,,,,,,,,,,,,,,,,,,,,,,,,,,,,,,,,,,,,,,,,,,,,,,,,,,,,,,
KBUR,Burbank,,34.1808,-118.3089,2012-04-27 04:53:00,,SCT,10.0,,52,,,,50.0,,93,,,,29.19,2.0,Falling,,,,57.0,52.0,,,,,,,,,,,,,,,,,,,,,,,,,,,,,,,,,,,,,,,,,,,,,,,,,,,,,,,,,,,,,,
KBUR,Burbank,,34.1808,-118.3089,2012-04-27 05:53:00,,FEW,10.0,,51,,,,49.0,,92,,,,29.2,,,,,,,,,,,,,,,,,,,,,,,,,,,,,,,,,,,,,,,,,,,,,,,,,,,,,,,,,,,,,,,,,,,,,
KBUR,Burbank,,34.1808,-118.3089,2012-04-27 06:53:00,,SCT,10.0,,52,,,,49.0,,89,3.0,360.0,,29.22,,,,,,,,,,,,,,,,,,,,,,,,,,,,,,,,,,,,,,,,,,,,,,,,,,,,,,,,,,,,,,,,,,,,,
KBUR,Burbank,,34.1808,-118.3089,2012-04-27 07:53:00,,FEW,10.0,,57,,,,51.0,,81,,,,29.22,1.0,Rising,,,,,,,,,,,,,,,,,,,,,,,,,,,,,,,,,,,,,,,,,,,,,,,,,,,,,,,,,,,,,,,,,,,
KBUR,Burbank,,34.1808,-118.3089,2012-04-27 08:53:00,,SCT,10.0,,58,,,,50.0,,75,,,,29.22,,,,,,,,,,,,,,,,,,,,,,,,,,,,,,,,,,,,,,,,,,,,,,,,,,,,,,,,,,,,,,,,,,,,,
KBUR,Burbank,,34.1808,-118.3089,2012-04-27 09:53:00,,SCT,10.0,,61,,,,50.0,,67,5.0,,,29.22,,,,,,,,,,,,,,,,,,,,,,,,,,,,,,,,,,,,,,,,,,,,,,,,,,,,,,,,,,,,,,,,,,,,,
KBUR,Burbank,,34.1808,-118.3089,2012-04-27 10:53:00,,CLR,10.0,,64,,,,49.0,,58,3.0,,,29.21,2.0,Falling Rapidly,,,,64.0,51.0,,,,,,,,,,,,,,,,,,,,,,,,,,,,,,,,,,,,,,,,,,,,,,,,,,,,,,,,,,,,,,
KBUR,Burbank,,34.1808,-118.3089,2012-04-27 11:53:00,,FEW,10.0,,66,,,,48.0,,52,7.0,220.0,,29.19,,,,,,,,,,,,,,,,,,,,,,,,,,,,,,,,,,,,,,,,,,,,,,,,,,,,,,,,,,,,,,,,,,,,,
KBUR,Burbank,,34.1808,-118.3089,2012-04-27 12:53:00,,FEW,10.0,,68,,,,49.0,,50,,,,29.17,,,,,,,,,,,,,,,,,,,,,,,,,,,,,,,,,,,,,,,,,,,,,,,,,,,,,,,,,,,,,,,,,,,,,
KBUR,Burbank,,34.1808,-118.3089,2012-04-27 13:53:00,,CLR,10.0,,69,,,,51.0,,53,9.0,190.0,,29.15,2.0,Falling Rapidly,,,,,,,,,,,,,,,,,,,,,,,,,,,,,,,,,,,,,,,,,,,,,,,,,,,,,,,,,,,,,,,,,,,
KBUR,Burbank,,34.1808,-118.3089,2012-04-27 14:53:00,,CLR,10.0,,68,,,,50.0,,52,9.0,210.0,,29.14,,,,,,,,,,,,,,,,,,,,,,,,,,,,,,,,,,,,,,,,,,,,,,,,,,,,,,,,,,,,,,,,,,,,,
KBUR,Burbank,,34.1808,-118.3089,2012-04-27 15:53:00,,CLR,10.0,,68,,,,49.0,,50,8.0,180.0,,29.12,,,,,,,,,,,,,,,,,,,,,,,,,,,,,,,,,,,,,,,,,,,,,,,,,,,,,,,,,,,,,,,,,,,,,
KBUR,Burbank,,34.1808,-118.3089,2012-04-27 16:53:00,,CLR,10.0,,69,,,,49.0,,49,9.0,160.0,,29.09,2.0,Falling Rapidly,,,,70.0,63.0,,,,,,,,,,,,,,,,,,,,,,,,,,,,,,,,,,,,,,,,,,,,,,,,,,,,,,,,,,,,,,
KBUR,Burbank,,34.1808,-118.3089,2012-04-27 17:53:00,,CLR,10.0,,69,,,,48.0,,47,9.0,160.0,,29.09,,,,,,,,,,,,,,,,,,,,,,,,,,,,,,,,,,,,,,,,,,,,,,,,,,,,,,,,,,,,,,,,,,,,,
KBUR,Burbank,,34.1808,-118.3089,2012-04-27 18:53:00,,CLR,10.0,,67,,,,48.0,,51,7.0,170.0,,29.09,,,,,,,,,,,,,,,,,,,,,,,,,,,,,,,,,,,,,,,,,,,,,,,,,,,,,,,,,,,,,,,,,,,,,
KBUR,Burbank,,34.1808,-118.3089,2012-04-27 19:53:00,,CLR,10.0,,63,,,,48.0,,58,5.0,160.0,,29.09,0.0,Steady,,,,,,,,,,,,,,,,,,,,,,,,,,,,,,,,,,,,,,,,,,,,,,,,,,,,,,,,,,,,,,,,,,,
KBUR,Burbank,,34.1808,-118.3089,2012-04-27 20:53:00,,CLR,10.0,,62,,,,47.0,,58,6.0,120.0,,29.11,,,,,,,,,,,,,,,,,,,,,,,,,,,,,,,,,,,,,,,,,,,,,,,,,,,,,,,,,,,,,,,,,,,,,
KBUR,Burbank,,34.1808,-118.3089,2012-04-27 21:53:00,,CLR,10.0,,60,,,,47.0,,62,7.0,,,29.11,,,,,,,,,,,,,,,,,,,,,,,,,,,,,,,,,,,,,,,,,,,,,,,,,,,,,,,,,,,,,,,,,,,,,
KBUR,Burbank,,34.1808,-118.3089,2012-04-27 22:53:00,,CLR,10.0,,60,,,,47.0,,62,6.0,130.0,,29.11,0.0,Steady,,,,70.0,60.0,,,,,,,,,,,,,,,,,,,,,,,,,,,,,,,,,,,,,,,,,,,,,,,,,,,,,,,,,,,,,,
KBUR,Burbank,,34.1808,-118.3089,2012-04-27 23:53:00,,CLR,10.0,,59,,,,47.0,,64,6.0,90.0,,29.09,,,,,,,,,,,,,,,,,,,,,,,,,,,,,,,,,,,,,,,,,,,,,,,,,,,,,,,,,,,,,,,,,,,,,
KBUR,Burbank,,34.1808,-118.3089,2012-04-28 00:53:00,,CLR,10.0,,57,,,,47.0,,69,3.0,70.0,,29.09,,,,,,70.0,51.0,,,,,,,,,,,,,,,,,,,,,,,,,,,,,,,,,,,,,,,,,,,,,,,,,,,,,,,,,,,,,,
KBUR,Burbank,,34.1808,-118.3089,2012-04-28 01:53:00,,CLR,10.0,,58,,,,46.0,,65,,,,29.07,2.0,Falling,,,,,,,,,,,,,,,,,,,,,,,,,,,,,,,,,,,,,,,,,,,,,,,,,,,,,,,,,,,,,,,,,,,
KBUR,Burbank,,34.1808,-118.3089,2012-04-28 02:53:00,,CLR,10.0,,56,,,,48.0,,75,,,,29.05,,,,,,,,,,,,,,,,,,,,,,,,,,,,,,,,,,,,,,,,,,,,,,,,,,,,,,,,,,,,,,,,,,,,,
KBUR,Burbank,,34.1808,-118.3089,2012-04-28 03:53:00,,CLR,10.0,,54,,,,48.0,,80,3.0,20.0,,29.05,,,,,,,,,,,,,,,,,,,,,,,,,,,,,,,,,,,,,,,,,,,,,,,,,,,,,,,,,,,,,,,,,,,,,
KBUR,Burbank,,34.1808,-118.3089,2012-04-28 04:53:00,,CLR,10.0,,55,,,,47.0,,74,,,,29.04,2.0,Falling,,,,60.0,54.0,,,,,,,,,,,,,,,,,,,,,,,,,,,,,,,,,,,,,,,,,,,,,,,,,,,,,,,,,,,,,,
KBUR,Burbank,,34.1808,-118.3089,2012-04-28 05:53:00,,CLR,10.0,,52,,,,47.0,,83,,,,29.05,,,,,,,,,,,,,,,,,,,,,,,,,,,,,,,,,,,,,,,,,,,,,,,,,,,,,,,,,,,,,,,,,,,,,
KBUR,Burbank,,34.1808,-118.3089,2012-04-28 06:53:00,,CLR,10.0,,54,,,,48.0,,80,,,,29.04,,,,,,,,,,,,,,,,,,,,,,,,,,,,,,,,,,,,,,,,,,,,,,,,,,,,,,,,,,,,,,,,,,,,,
KBUR,Burbank,,34.1808,-118.3089,2012-04-28 07:53:00,,CLR,10.0,,56,,,,48.0,,75,3.0,150.0,,29.05,1.0,Rising Rapidly,,,,,,,,,,,,,,,,,,,,,,,,,,,,,,,,,,,,,,,,,,,,,,,,,,,,,,,,,,,,,,,,,,,
KBUR,Burbank,,34.1808,-118.3089,2012-04-28 08:53:00,,CLR,10.0,,60,,,,49.0,,67,5.0,130.0,,29.05,,,,,,,,,,,,,,,,,,,,,,,,,,,,,,,,,,,,,,,,,,,,,,,,,,,,,,,,,,,,,,,,,,,,,
KBUR,Burbank,,34.1808,-118.3089,2012-04-28 09:53:00,,CLR,10.0,,64,,,,48.0,,56,5.0,130.0,,29.03,,,,,,,,,,,,,,,,,,,,,,,,,,,,,,,,,,,,,,,,,,,,,,,,,,,,,,,,,,,,,,,,,,,,,
KBUR,Burbank,,34.1808,-118.3089,2012-04-28 10:53:00,,CLR,10.0,,69,,,,49.0,,49,5.0,110.0,,29.02,2.0,Falling Rapidly,,,,69.0,51.0,,,,,,,,,,,,,,,,,,,,,,,,,,,,,,,,,,,,,,,,,,,,,,,,,,,,,,,,,,,,,,
KBUR,Burbank,,34.1808,-118.3089,2012-04-28 11:53:00,,CLR,10.0,,73,,,,48.0,,41,6.0,110.0,,29.01,,,,,,,,,,,,,,,,,,,,,,,,,,,,,,,,,,,,,,,,,,,,,,,,,,,,,,,,,,,,,,,,,,,,,
KBUR,Burbank,,34.1808,-118.3089,2012-04-28 12:53:00,,CLR,10.0,,78,,,,50.0,,37,6.0,140.0,,28.98,,,,,,,,,,,,,,,,,,,,,,,,,,,,,,,,,,,,,,,,,,,,,,,,,,,,,,,,,,,,,,,,,,,,,
KBUR,Burbank,,34.1808,-118.3089,2012-04-28 13:53:00,,CLR,10.0,,79,,,,52.0,,39,8.0,150.0,,28.95,2.0,Falling Rapidly,,,,,,,,,,,,,,,,,,,,,,,,,,,,,,,,,,,,,,,,,,,,,,,,,,,,,,,,,,,,,,,,,,,
KBUR,Burbank,,34.1808,-118.3089,2012-04-28 14:53:00,,CLR,10.0,,80,,,,50.0,,35,8.0,170.0,,28.93,,,,,,,,,,,,,,,,,,,,,,,,,,,,,,,,,,,,,,,,,,,,,,,,,,,,,,,,,,,,,,,,,,,,,
KBUR,Burbank,,34.1808,-118.3089,2012-04-28 15:53:00,,CLR,10.0,,79,,,,49.0,,35,10.0,170.0,,28.91,,,,,,,,,,,,,,,,,,,,,,,,,,,,,,,,,,,,,,,,,,,,,,,,,,,,,,,,,,,,,,,,,,,,,
KBUR,Burbank,,34.1808,-118.3089,2012-04-28 16:53:00,,CLR,10.0,,77,,,,50.0,,39,10.0,200.0,,28.9,2.0,Falling,,,,81.0,69.0,,,,,,,,,,,,,,,,,,,,,,,,,,,,,,,,,,,,,,,,,,,,,,,,,,,,,,,,,,,,,,
KBUR,Burbank,,34.1808,-118.3089,2012-04-28 17:53:00,,CLR,10.0,,76,,,,49.0,,38,6.0,150.0,,28.91,,,,,,,,,,,,,,,,,,,,,,,,,,,,,,,,,,,,,,,,,,,,,,,,,,,,,,,,,,,,,,,,,,,,,
KBUR,Burbank,,34.1808,-118.3089,2012-04-28 18:53:00,,CLR,10.0,,73,,,,51.0,,46,9.0,110.0,,28.91,,,,,,,,,,,,,,,,,,,,,,,,,,,,,,,,,,,,,,,,,,,,,,,,,,,,,,,,,,,,,,,,,,,,,
KBUR,Burbank,,34.1808,-118.3089,2012-04-28 19:53:00,,CLR,10.0,,69,,,,52.0,,54,8.0,140.0,,28.93,1.0,Rising Rapidly,,,,,,,,,,,,,,,,,,,,,,,,,,,,,,,,,,,,,,,,,,,,,,,,,,,,,,,,,,,,,,,,,,,
KBUR,Burbank,,34.1808,-118.3089,2012-04-28 20:53:00,,CLR,10.0,,67,,,,51.0,,57,7.0,120.0,,28.95,,,,,,,,,,,,,,,,,,,,,,,,,,,,,,,,,,,,,,,,,,,,,,,,,,,,,,,,,,,,,,,,,,,,,
KBUR,Burbank,,34.1808,-118.3089,2012-04-28 21:53:00,,CLR,10.0,,66,,,,50.0,,56,8.0,90.0,,28.97,,,,,,,,,,,,,,,,,,,,,,,,,,,,,,,,,,,,,,,,,,,,,,,,,,,,,,,,,,,,,,,,,,,,,
KBUR,Burbank,,34.1808,-118.3089,2012-04-28 22:53:00,,CLR,10.0,,62,,,,51.0,,67,12.0,120.0,,28.97,1.0,Rising,,,,77.0,62.0,,,,,,,,,,,,,,,,,,,,,,,,,,,,,,,,,,,,,,,,,,,,,,,,,,,,,,,,,,,,,,
KBUR,Burbank,,34.1808,-118.3089,2012-04-28 23:53:00,,CLR,10.0,,60,,,,53.0,,78,6.0,130.0,,28.96,,,,,,,,,,,,,,,,,,,,,,,,,,,,,,,,,,,,,,,,,,,,,,,,,,,,,,,,,,,,,,,,,,,,,
KBUR,Burbank,,34.1808,-118.3089,2012-04-29 00:53:00,,CLR,10.0,,59,,,,52.0,,78,7.0,130.0,,28.97,,,,,,81.0,51.0,,,,,,,,,,,,,,,,,,,,,,,,,,,,,,,,,,,,,,,,,,,,,,,,,,,,,,,,,,,,,,
KBUR,Burbank,,34.1808,-118.3089,2012-04-29 01:53:00,,CLR,10.0,,58,,,,52.0,,81,,,,28.96,2.0,Falling,,,,,,,,,,,,,,,,,,,,,,,,,,,,,,,,,,,,,,,,,,,,,,,,,,,,,,,,,,,,,,,,,,,
KBUR,Burbank,,34.1808,-118.3089,2012-04-29 02:53:00,,CLR,10.0,,58,,,,52.0,,81,3.0,180.0,,28.96,,,,,,,,,,,,,,,,,,,,,,,,,,,,,,,,,,,,,,,,,,,,,,,,,,,,,,,,,,,,,,,,,,,,,
KBUR,Burbank,,34.1808,-118.3089,2012-04-29 03:53:00,,CLR,10.0,,57,,,,52.0,,83,,,,28.96,,,,,,,,,,,,,,,,,,,,,,,,,,,,,,,,,,,,,,,,,,,,,,,,,,,,,,,,,,,,,,,,,,,,,
KBUR,Burbank,,34.1808,-118.3089,2012-04-29 04:53:00,,CLR,10.0,,55,,,,50.0,,83,,,,28.97,1.0,Rising Rapidly,,,,62.0,55.0,,,,,,,,,,,,,,,,,,,,,,,,,,,,,,,,,,,,,,,,,,,,,,,,,,,,,,,,,,,,,,
KBUR,Burbank,,34.1808,-118.3089,2012-04-29 05:53:00,,CLR,10.0,,54,,,,50.0,,86,,,,28.98,,,,,,,,,,,,,,,,,,,,,,,,,,,,,,,,,,,,,,,,,,,,,,,,,,,,,,,,,,,,,,,,,,,,,
KBUR,Burbank,,34.1808,-118.3089,2012-04-29 06:53:00,,CLR,10.0,,55,,,,50.0,,83,,,,28.99,,,,,,,,,,,,,,,,,,,,,,,,,,,,,,,,,,,,,,,,,,,,,,,,,,,,,,,,,,,,,,,,,,,,,
KBUR,Burbank,,34.1808,-118.3089,2012-04-29 07:53:00,,CLR,10.0,,59,,,,52.0,,78,,,,29.01,1.0,Rising Rapidly,,,,,,,,,,,,,,,,,,,,,,,,,,,,,,,,,,,,,,,,,,,,,,,,,,,,,,,,,,,,,,,,,,,
KBUR,Burbank,,34.1808,-118.3089,2012-04-29 08:53:00,,CLR,10.0,,62,,,,51.0,,67,3.0,,,29.02,,,,,,,,,,,,,,,,,,,,,,,,,,,,,,,,,,,,,,,,,,,,,,,,,,,,,,,,,,,,,,,,,,,,,
KBUR,Burbank,,34.1808,-118.3089,2012-04-29 09:53:00,,CLR,10.0,,66,,,,51.0,,59,,,,29.03,,,,,,,,,,,,,,,,,,,,,,,,,,,,,,,,,,,,,,,,,,,,,,,,,,,,,,,,,,,,,,,,,,,,,
KBUR,Burbank,,34.1808,-118.3089,2012-04-29 10:53:00,,CLR,10.0,,69,,,,50.0,,51,6.0,150.0,,29.02,0.0,Steady,,,,69.0,54.0,,,,,,,,,,,,,,,,,,,,,,,,,,,,,,,,,,,,,,,,,,,,,,,,,,,,,,,,,,,,,,
KBUR,Burbank,,34.1808,-118.3089,2012-04-29 11:53:00,,CLR,10.0,,72,,,,53.0,,51,5.0,170.0,,29.01,,,,,,,,,,,,,,,,,,,,,,,,,,,,,,,,,,,,,,,,,,,,,,,,,,,,,,,,,,,,,,,,,,,,,
KBUR,Burbank,,34.1808,-118.3089,2012-04-29 12:53:00,,CLR,10.0,,75,,,,54.0,,48,3.0,,,29.0,,,,,,,,,,,,,,,,,,,,,,,,,,,,,,,,,,,,,,,,,,,,,,,,,,,,,,,,,,,,,,,,,,,,,
KBUR,Burbank,,34.1808,-118.3089,2012-04-29 13:53:00,,CLR,10.0,,77,,,,54.0,,45,8.0,200.0,,28.99,2.0,Falling Rapidly,,,,,,,,,,,,,,,,,,,,,,,,,,,,,,,,,,,,,,,,,,,,,,,,,,,,,,,,,,,,,,,,,,,
KBUR,Burbank,,34.1808,-118.3089,2012-04-29 14:53:00,,CLR,10.0,,75,,,,55.0,,50,12.0,180.0,,28.98,,,,,,,,,,,,,,,,,,,,,,,,,,,,,,,,,,,,,,,,,,,,,,,,,,,,,,,,,,,,,,,,,,,,,
KBUR,Burbank,,34.1808,-118.3089,2012-04-29 15:53:00,,CLR,10.0,,72,,,,55.0,,55,13.0,170.0,,28.99,,,,,,,,,,,,,,,,,,,,,,,,,,,,,,,,,,,,,,,,,,,,,,,,,,,,,,,,,,,,,,,,,,,,,
KBUR,Burbank,,34.1808,-118.3089,2012-04-29 16:53:00,,CLR,10.0,,69,,,,55.0,,61,13.0,180.0,,28.99,2.0,Falling,,,,77.0,69.0,,,,,,,,,,,,,,,,,,,,,,,,,,,,,,,,,,,,,,,,,,,,,,,,,,,,,,,,,,,,,,
KBUR,Burbank,,34.1808,-118.3089,2012-04-29 17:53:00,,CLR,10.0,,68,,,,55.0,,63,10.0,180.0,,28.99,,,,,,,,,,,,,,,,,,,,,,,,,,,,,,,,,,,,,,,,,,,,,,,,,,,,,,,,,,,,,,,,,,,,,
KBUR,Burbank,,34.1808,-118.3089,2012-04-29 18:53:00,,CLR,10.0,,64,,,,54.0,,70,8.0,180.0,,29.01,,,,,,,,,,,,,,,,,,,,,,,,,,,,,,,,,,,,,,,,,,,,,,,,,,,,,,,,,,,,,,,,,,,,,
KBUR,Burbank,,34.1808,-118.3089,2012-04-29 19:53:00,,CLR,10.0,,61,,,,54.0,,78,9.0,180.0,,29.02,1.0,Rising Rapidly,,,,,,,,,,,,,,,,,,,,,,,,,,,,,,,,,,,,,,,,,,,,,,,,,,,,,,,,,,,,,,,,,,,
KBUR,Burbank,,34.1808,-118.3089,2012-04-29 20:53:00,,CLR,10.0,,59,,,,54.0,,83,7.0,170.0,,29.05,,,,,,,,,,,,,,,,,,,,,,,,,,,,,,,,,,,,,,,,,,,,,,,,,,,,,,,,,,,,,,,,,,,,,
KBUR,Burbank,,34.1808,-118.3089,2012-04-29 21:31:00,,BKN,10.0,,59,,,,54.0,,82,6.0,180.0,,29.09,,,,,,,,,,,,,,,,,,,,,,,,,,,,,,,,,,,,,,,,,,,,,,,,,,,,,,,,,,,,,,,,,,,,,
KBUR,Burbank,,34.1808,-118.3089,2012-04-29 21:53:00,,OVC,10.0,,59,,,,54.0,,83,6.0,180.0,,29.07,,,,,,,,,,,,,,,,,,,,,,,,,,,,,,,,,,,,,,,,,,,,,,,,,,,,,,,,,,,,,,,,,,,,,
KBUR,Burbank,,34.1808,-118.3089,2012-04-29 22:53:00,,OVC,10.0,,59,,,,54.0,,83,3.0,180.0,,29.08,1.0,Rising,,,,69.0,59.0,,,,,,,,,,,,,,,,,,,,,,,,,,,,,,,,,,,,,,,,,,,,,,,,,,,,,,,,,,,,,,
KBUR,Burbank,,34.1808,-118.3089,2012-04-29 23:53:00,,OVC,9.0,,59,,,,54.0,,83,5.0,190.0,,29.09,,,,,,,,,,,,,,,,,,,,,,,,,,,,,,,,,,,,,,,,,,,,,,,,,,,,,,,,,,,,,,,,,,,,,
KBUR,Burbank,,34.1808,-118.3089,2012-04-30 00:53:00,,OVC,9.0,,59,,,,54.0,,83,3.0,180.0,,29.09,,,,,,77.0,54.0,,,,,,,,,,,,,,,,,,,,,,,,,,,,,,,,,,,,,,,,,,,,,,,,,,,,,,,,,,,,,,
KBUR,Burbank,,34.1808,-118.3089,2012-04-30 01:53:00,,OVC,9.0,,59,,,,54.0,,83,3.0,190.0,,29.09,0.0,Steady,,,,,,,,,,,,,,,,,,,,,,,,,,,,,,,,,,,,,,,,,,,,,,,,,,,,,,,,,,,,,,,,,,,
KBUR,Burbank,,34.1808,-118.3089,2012-04-30 02:53:00,,OVC,8.0,,59,,,,54.0,,83,5.0,190.0,,29.07,,,,,,,,,,,,,,,,,,,,,,,,,,,,,,,,,,,,,,,,,,,,,,,,,,,,,,,,,,,,,,,,,,,,,
KBUR,Burbank,,34.1808,-118.3089,2012-04-30 03:53:00,,OVC,8.0,,59,,,,54.0,,83,,,,29.07,,,,,,,,,,,,,,,,,,,,,,,,,,,,,,,,,,,,,,,,,,,,,,,,,,,,,,,,,,,,,,,,,,,,,
KBUR,Burbank,,34.1808,-118.3089,2012-04-30 04:53:00,,OVC,8.0,,59,,,,54.0,,83,,,,29.07,2.0,Falling,,,,59.0,59.0,,,,,,,,,,,,,,,,,,,,,,,,,,,,,,,,,,,,,,,,,,,,,,,,,,,,,,,,,,,,,,
KBUR,Burbank,,34.1808,-118.3089,2012-04-30 05:53:00,,OVC,8.0,,59,,,,54.0,,83,,,,29.07,,,,,,,,,,,,,,,,,,,,,,,,,,,,,,,,,,,,,,,,,,,,,,,,,,,,,,,,,,,,,,,,,,,,,
KBUR,Burbank,,34.1808,-118.3089,2012-04-30 06:53:00,,OVC,5.0,,59,,,,53.0,,81,,,,29.07,,,,,,,,,,,,,,,,,,,,,,,,,,,,,,,,,,,,,,,,,,,,,,,,,,,,,,,,,,,,,,,,,,,,,
KBUR,Burbank,,34.1808,-118.3089,2012-04-30 07:53:00,,OVC,5.0,,61,,,,53.0,,75,,,,29.09,1.0,Rising Rapidly,,,,,,,,,,,,,,,,,,,,,,,,,,,,,,,,,,,,,,,,,,,,,,,,,,,,,,,,,,,,,,,,,,,
KBUR,Burbank,,34.1808,-118.3089,2012-04-30 08:53:00,,BKN,5.0,,62,,,,54.0,,75,,,,29.1,,,,,,,,,,,,,,,,,,,,,,,,,,,,,,,,,,,,,,,,,,,,,,,,,,,,,,,,,,,,,,,,,,,,,
KBUR,Burbank,,34.1808,-118.3089,2012-04-30 09:22:00,,SCT,5.0,,63,,,,54.0,,72,,,,29.13,,,,,,,,,,,,,,,,,,,,,,,,,,,,,,,,,,,,,,,,,,,,,,,,,,,,,,,,,,,,,,,,,,,,,
KBUR,Burbank,,34.1808,-118.3089,2012-04-30 09:53:00,,CLR,5.0,,65,,,,54.0,,68,3.0,130.0,,29.11,,,,,,,,,,,,,,,,,,,,,,,,,,,,,,,,,,,,,,,,,,,,,,,,,,,,,,,,,,,,,,,,,,,,,
KBUR,Burbank,,34.1808,-118.3089,2012-04-30 10:53:00,,CLR,8.0,,68,,,,55.0,,63,5.0,160.0,,29.1,1.0,Rising,,,,68.0,59.0,,,,,,,,,,,,,,,,,,,,,,,,,,,,,,,,,,,,,,,,,,,,,,,,,,,,,,,,,,,,,,
KBUR,Burbank,,34.1808,-118.3089,2012-04-30 11:53:00,,CLR,7.0,,70,,,,56.0,,61,5.0,150.0,,29.1,,,,,,,,,,,,,,,,,,,,,,,,,,,,,,,,,,,,,,,,,,,,,,,,,,,,,,,,,,,,,,,,,,,,,
KBUR,Burbank,,34.1808,-118.3089,2012-04-30 12:53:00,,CLR,7.0,,70,,,,55.0,,59,12.0,160.0,,29.09,,,,,,,,,,,,,,,,,,,,,,,,,,,,,,,,,,,,,,,,,,,,,,,,,,,,,,,,,,,,,,,,,,,,,
KBUR,Burbank,,34.1808,-118.3089,2012-04-30 13:53:00,,CLR,10.0,,70,,,,55.0,,59,12.0,190.0,,29.09,2.0,Falling Rapidly,,,,,,,,,,,,,,,,,,,,,,,,,,,,,,,,,,,,,,,,,,,,,,,,,,,,,,,,,,,,,,,,,,,
KBUR,Burbank,,34.1808,-118.3089,2012-04-30 14:53:00,,CLR,9.0,,68,,,,55.0,,63,13.0,170.0,,29.09,,,,,,,,,,,,,,,,,,,,,,,,,,,,,,,,,,,,,,,,,,,,,,,,,,,,,,,,,,,,,,,,,,,,,
KBUR,Burbank,,34.1808,-118.3089,2012-04-30 15:53:00,,CLR,9.0,,66,,,,55.0,,68,13.0,170.0,,29.08,,,,,,,,,,,,,,,,,,,,,,,,,,,,,,,,,,,,,,,,,,,,,,,,,,,,,,,,,,,,,,,,,,,,,
KBUR,Burbank,,34.1808,-118.3089,2012-04-30 16:53:00,,CLR,9.0,,64,,,,54.0,,70,12.0,170.0,,29.09,0.0,Steady,,,,71.0,64.0,,,,,,,,,,,,,,,,,,,,,,,,,,,,,,,,,,,,,,,,,,,,,,,,,,,,,,,,,,,,,,
KBUR,Burbank,,34.1808,-118.3089,2012-04-30 17:53:00,,BKN,10.0,,63,,,,54.0,,72,7.0,190.0,,29.09,,,,,,,,,,,,,,,,,,,,,,,,,,,,,,,,,,,,,,,,,,,,,,,,,,,,,,,,,,,,,,,,,,,,,
KBUR,Burbank,,34.1808,-118.3089,2012-04-30 18:53:00,,OVC,10.0,,61,,,,54.0,,78,8.0,180.0,,29.08,,,,,,,,,,,,,,,,,,,,,,,,,,,,,,,,,,,,,,,,,,,,,,,,,,,,,,,,,,,,,,,,,,,,,
KBUR,Burbank,,34.1808,-118.3089,2012-04-30 19:53:00,,OVC,9.0,,60,,,,53.0,,78,7.0,190.0,,29.09,0.0,Steady,,,,,,,,,,,,,,,,,,,,,,,,,,,,,,,,,,,,,,,,,,,,,,,,,,,,,,,,,,,,,,,,,,,
KBUR,Burbank,,34.1808,-118.3089,2012-04-30 20:53:00,,OVC,10.0,,59,,,,53.0,,81,5.0,210.0,,29.1,,,,,,,,,,,,,,,,,,,,,,,,,,,,,,,,,,,,,,,,,,,,,,,,,,,,,,,,,,,,,,,,,,,,,
KBUR,Burbank,,34.1808,-118.3089,2012-04-30 21:10:00,,OVC,9.0,,59,,,,54.0,,82,3.0,180.0,,29.13,,,,,,,,,,,,,,,,,,,,,,,,,,,,,,,,,,,,,,,,,,,,,,,,,,,,,,,,,,,,,,,,,,,,,
KBUR,Burbank,,34.1808,-118.3089,2012-04-30 21:53:00,,OVC,9.0,,59,,,,53.0,,81,5.0,170.0,,29.11,,,,,,,,,,,,,,,,,,,,,,,,,,,,,,,,,,,,,,,,,,,,,,,,,,,,,,,,,,,,,,,,,,,,,
KBUR,Burbank,,34.1808,-118.3089,2012-04-30 22:53:00,,OVC,10.0,,59,,,,54.0,,83,6.0,180.0,,29.1,0.0,Steady,,,,64.0,59.0,,,,,,,,,,,,,,,,,,,,,,,,,,,,,,,,,,,,,,,,,,,,,,,,,,,,,,,,,,,,,,
KBUR,Burbank,,34.1808,-118.3089,2012-04-30 23:53:00,,OVC,10.0,,58,,,,54.0,,87,3.0,180.0,,29.09,,,,,,,,,,,,,,,,,,,,,,,,,,,,,,,,,,,,,,,,,,,,,,,,,,,,,,,,,,,,,,,,,,,,,
KBUR,Burbank,,34.1808,-118.3089,2012-05-01 00:53:00,,OVC,10.0,,58,,,,54.0,,87,6.0,160.0,,29.08,,,,,,71.0,58.0,,,,,,,,,,,,,,,,,,,,,,,,,,,,,,,,,,,,,,,,,,,,,,,,,,,,,,,,,,,,,,
KBUR,Burbank,,34.1808,-118.3089,2012-05-01 01:53:00,,OVC,10.0,,57,,,,54.0,,89,6.0,170.0,,29.06,2.0,Falling Rapidly,,,,,,,,,,,,,,,,,,,,,,,,,,,,,,,,,,,,,,,,,,,,,,,,,,,,,,,,,,,,,,,,,,,
KBUR,Burbank,,34.1808,-118.3089,2012-05-01 02:53:00,,OVC,7.0,,57,,,,55.0,,93,6.0,180.0,,29.06,,,,,,,,,,,,,,,,,,,,,,,,,,,,,,,,,,,,,,,,,,,,,,,,,,,,,,,,,,,,,,,,,,,,,
KBUR,Burbank,,34.1808,-118.3089,2012-05-01 03:53:00,,OVC,5.0,,56,,,,55.0,,97,5.0,180.0,,29.05,,,,,,,,,,,,,,,,,,,,,,,,,,,,,,,,,,,,,,,,,,,,,,,,,,,,,,,,,,,,,,,,,,,,,
KBUR,Burbank,,34.1808,-118.3089,2012-05-01 04:53:00,,OVC,7.0,,56,,,,55.0,,97,3.0,190.0,,29.05,2.0,Falling,,0.0,,59.0,56.0,,,,,,,,,,,,,,,,,,,,,,,,,,,,,,,,,,,,,,,,,,,,,,,,,,,,,,,,,,,,,,
KBUR,Burbank,,34.1808,-118.3089,2012-05-01 05:53:00,,OVC,6.0,,56,,,,55.0,,97,5.0,160.0,,29.05,,,,0.0,,,,,,,,,,,,,,,,,,,,,,,,,,,,,,,,,,,,,,,,,,,,,,,,,,,,,,,,,,,,,,,,,
KBUR,Burbank,,34.1808,-118.3089,2012-05-01 06:38:00,,OVC,10.0,,55,,,,54.0,,94,6.0,160.0,,29.07,,,,,,,,,,,,,,,,,,,,,,,,,,,,,,,,,,,,,,,,,,,,,,,,,,,,,,,,,,,,,,,,,,,,,
KBUR,Burbank,,34.1808,-118.3089,2012-05-01 06:53:00,,OVC,10.0,,56,,,,54.0,,93,3.0,170.0,,29.05,,,,,,,,,,,,,,,,,,,,,,,,,,,,,,,,,,,,,,,,,,,,,,,,,,,,,,,,,,,,,,,,,,,,,
KBUR,Burbank,,34.1808,-118.3089,2012-05-01 07:53:00,,OVC,10.0,,57,,,,54.0,,89,5.0,170.0,,29.07,1.0,Rising Rapidly,,,,,,,,,,,,,,,,,,,,,,,,,,,,,,,,,,,,,,,,,,,,,,,,,,,,,,,,,,,,,,,,,,,
KBUR,Burbank,,34.1808,-118.3089,2012-05-01 08:00:00,,OVC,10.0,,57,,,,54.0,,88,5.0,150.0,,29.09,,,,,,,,,,,,,,,,,,,,,,,,,,,,,,,,,,,,,,,,,,,,,,,,,,,,,,,,,,,,,,,,,,,,,
KBUR,Burbank,,34.1808,-118.3089,2012-05-01 08:53:00,,OVC,9.0,,57,,,,53.0,,87,6.0,170.0,,29.07,,,,,,,,,,,,,,,,,,,,,,,,,,,,,,,,,,,,,,,,,,,,,,,,,,,,,,,,,,,,,,,,,,,,,
KBUR,Burbank,,34.1808,-118.3089,2012-05-01 09:53:00,,OVC,8.0,,58,,,,53.0,,84,6.0,170.0,,29.08,,,,,,,,,,,,,,,,,,,,,,,,,,,,,,,,,,,,,,,,,,,,,,,,,,,,,,,,,,,,,,,,,,,,,
KBUR,Burbank,,34.1808,-118.3089,2012-05-01 10:18:00,,OVC,9.0,,57,,,,54.0,,88,6.0,160.0,,29.11,,,,,,,,,,,,,,,,,,,,,,,,,,,,,,,,,,,,,,,,,,,,,,,,,,,,,,,,,,,,,,,,,,,,,
KBUR,Burbank,,34.1808,-118.3089,2012-05-01 10:53:00,,OVC,10.0,,58,,,,53.0,,84,7.0,170.0,,29.09,1.0,Rising Rapidly,,,,58.0,56.0,,,,,,,,,,,,,,,,,,,,,,,,,,,,,,,,,,,,,,,,,,,,,,,,,,,,,,,,,,,,,,
KBUR,Burbank,,34.1808,-118.3089,2012-05-01 11:53:00,,OVC,10.0,,59,,,,53.0,,81,6.0,160.0,,29.09,,,,,,,,,,,,,,,,,,,,,,,,,,,,,,,,,,,,,,,,,,,,,,,,,,,,,,,,,,,,,,,,,,,,,
KBUR,Burbank,,34.1808,-118.3089,2012-05-01 12:53:00,,OVC,10.0,,59,,,,53.0,,81,8.0,160.0,,29.08,,,,,,,,,,,,,,,,,,,,,,,,,,,,,,,,,,,,,,,,,,,,,,,,,,,,,,,,,,,,,,,,,,,,,
KBUR,Burbank,,34.1808,-118.3089,2012-05-01 13:53:00,,OVC,4.0,,58,,,,53.0,,84,6.0,160.0,,29.08,2.0,Falling,,0.0,,,,,,,,,,,,,,,,,,,,,,,,,,,,,,,,,,,,,,,,,,,,,,,,,,,,,,,,,,,,,,,,,
KBUR,Burbank,,34.1808,-118.3089,2012-05-01 14:53:00,,OVC,10.0,,58,,,,53.0,,84,6.0,190.0,,29.07,,,,0.0,,,,,,,,,,,,,,,,,,,,,,,,,,,,,,,,,,,,,,,,,,,,,,,,,,,,,,,,,,,,,,,,,
KBUR,Burbank,,34.1808,-118.3089,2012-05-01 15:53:00,,OVC,4.0,,58,,,,53.0,,84,6.0,150.0,,29.05,,,,,,,,,,,,,,,,,,,,,,,,,,,,,,,,,,,,,,,,,,,,,,,,,,,,,,,,,,,,,,,,,,,,,
KBUR,Burbank,,34.1808,-118.3089,2012-05-01 16:53:00,,OVC,3.0,,57,,,,54.0,,89,3.0,210.0,,29.05,2.0,Falling,,,,60.0,57.0,,,,,,,,,,,,,,,,,,,,,,,,,,,,,,,,,,,,,,,,,,,,,,,,,,,,,,,,,,,,,,
KBUR,Burbank,,34.1808,-118.3089,2012-05-01 17:53:00,,OVC,3.0,,57,,,,54.0,,89,,,,29.04,,,,,,,,,,,,,,,,,,,,,,,,,,,,,,,,,,,,,,,,,,,,,,,,,,,,,,,,,,,,,,,,,,,,,
KBUR,Burbank,,34.1808,-118.3089,2012-05-01 18:15:00,,OVC,6.0,,57,,,,54.0,,88,,,,29.06,,,,,,,,,,,,,,,,,,,,,,,,,,,,,,,,,,,,,,,,,,,,,,,,,,,,,,,,,,,,,,,,,,,,,
KBUR,Burbank,,34.1808,-118.3089,2012-05-01 18:50:00,,OVC,3.0,,57,,,,54.0,,88,3.0,170.0,,29.06,,,,,,,,,,,,,,,,,,,,,,,,,,,,,,,,,,,,,,,,,,,,,,,,,,,,,,,,,,,,,,,,,,,,,
KBUR,Burbank,,34.1808,-118.3089,2012-05-01 18:53:00,,OVC,3.0,,57,,,,54.0,,89,,,,29.04,,,,,,,,,,,,,,,,,,,,,,,,,,,,,,,,,,,,,,,,,,,,,,,,,,,,,,,,,,,,,,,,,,,,,
KBUR,Burbank,,34.1808,-118.3089,2012-05-01 19:53:00,,OVC,8.0,,57,,,,54.0,,89,,,,29.04,0.0,Steady,,,,,,,,,,,,,,,,,,,,,,,,,,,,,,,,,,,,,,,,,,,,,,,,,,,,,,,,,,,,,,,,,,,
KBUR,Burbank,,34.1808,-118.3089,2012-05-01 20:53:00,,OVC,3.0,,57,,,,53.0,,87,,,,29.05,,,,,,,,,,,,,,,,,,,,,,,,,,,,,,,,,,,,,,,,,,,,,,,,,,,,,,,,,,,,,,,,,,,,,
KBUR,Burbank,,34.1808,-118.3089,2012-05-01 21:00:00,,OVC,10.0,,57,,,,54.0,,88,3.0,60.0,,29.08,,,,,,,,,,,,,,,,,,,,,,,,,,,,,,,,,,,,,,,,,,,,,,,,,,,,,,,,,,,,,,,,,,,,,
KBUR,Burbank,,34.1808,-118.3089,2012-05-01 21:53:00,,OVC,10.0,,57,,,,53.0,,87,3.0,80.0,,29.05,,,,,,,,,,,,,,,,,,,,,,,,,,,,,,,,,,,,,,,,,,,,,,,,,,,,,,,,,,,,,,,,,,,,,
KBUR,Burbank,,34.1808,-118.3089,2012-05-01 22:53:00,,OVC,7.0,,58,,,,53.0,,84,3.0,160.0,,29.05,0.0,Steady,,,,58.0,56.0,,,,,,,,,,,,,,,,,,,,,,,,,,,,,,,,,,,,,,,,,,,,,,,,,,,,,,,,,,,,,,
KBUR,Burbank,,34.1808,-118.3089,2012-05-01 23:00:00,,OVC,9.0,,57,,,,54.0,,88,5.0,130.0,,29.07,,,,,,,,,,,,,,,,,,,,,,,,,,,,,,,,,,,,,,,,,,,,,,,,,,,,,,,,,,,,,,,,,,,,,
KBUR,Burbank,,34.1808,-118.3089,2012-05-01 23:13:00,,OVC,9.0,,57,,,,52.0,,82,6.0,120.0,,29.07,,,,,,,,,,,,,,,,,,,,,,,,,,,,,,,,,,,,,,,,,,,,,,,,,,,,,,,,,,,,,,,,,,,,,
KBUR,Burbank,,34.1808,-118.3089,2012-05-01 23:53:00,,OVC,10.0,,58,,,,52.0,,81,5.0,150.0,,29.05,,,,,,,,,,,,,,,,,,,,,,,,,,,,,,,,,,,,,,,,,,,,,,,,,,,,,,,,,,,,,,,,,,,,,
KBUR,Burbank,,34.1808,-118.3089,2012-05-02 00:53:00,,OVC,10.0,,57,,,,52.0,,83,3.0,160.0,,29.05,,,,,,60.0,56.0,,,,,,,,,,,,,,,,,,,,,,,,,,,,,,,,,,,,,,,,,,,,,,,,,,,,,,,,,,,,,,
KBUR,Burbank,,34.1808,-118.3089,2012-05-02 01:53:00,,OVC,10.0,,57,,,,51.0,,81,3.0,160.0,,29.04,2.0,Falling Rapidly,,,,,,,,,,,,,,,,,,,,,,,,,,,,,,,,,,,,,,,,,,,,,,,,,,,,,,,,,,,,,,,,,,,
KBUR,Burbank,,34.1808,-118.3089,2012-05-02 02:53:00,,OVC,10.0,,57,,,,51.0,,81,5.0,170.0,,29.04,,,,,,,,,,,,,,,,,,,,,,,,,,,,,,,,,,,,,,,,,,,,,,,,,,,,,,,,,,,,,,,,,,,,,
KBUR,Burbank,,34.1808,-118.3089,2012-05-02 03:53:00,,OVC,10.0,,56,,,,52.0,,87,,,,29.04,,,,,,,,,,,,,,,,,,,,,,,,,,,,,,,,,,,,,,,,,,,,,,,,,,,,,,,,,,,,,,,,,,,,,
KBUR,Burbank,,34.1808,-118.3089,2012-05-02 04:53:00,,OVC,10.0,,56,,,,52.0,,87,6.0,100.0,,29.04,2.0,Falling,,,,58.0,56.0,,,,,,,,,,,,,,,,,,,,,,,,,,,,,,,,,,,,,,,,,,,,,,,,,,,,,,,,,,,,,,
KBUR,Burbank,,34.1808,-118.3089,2012-05-02 05:53:00,,OVC,8.0,,55,,,,53.0,,93,3.0,110.0,,29.06,,,,0.0,,,,,,,,,,,,,,,,,,,,,,,,,,,,,,,,,,,,,,,,,,,,,,,,,,,,,,,,,,,,,,,,,
KBUR,Burbank,,34.1808,-118.3089,2012-05-02 06:53:00,,OVC,8.0,,55,,,,53.0,,93,5.0,100.0,,29.07,,,,0.0,,,,,,,,,,,,,,,,,,,,,,,,,,,,,,,,,,,,,,,,,,,,,,,,,,,,,,,,,,,,,,,,,
KBUR,Burbank,,34.1808,-118.3089,2012-05-02 07:53:00,,OVC,9.0,,55,,,,53.0,,93,5.0,140.0,,29.08,1.0,Rising,,,,,,,,,,,,,,,,,,,,,,,,,,,,,,,,,,,,,,,,,,,,,,,,,,,,,,,,,,,,,,,,,,,
KBUR,Burbank,,34.1808,-118.3089,2012-05-02 08:53:00,,OVC,3.0,,56,,,,54.0,,93,5.0,150.0,,29.09,,,,0.0,,,,,,,,,,,,,,,,,,,,,,,,,,,,,,,,,,,,,,,,,,,,,,,,,,,,,,,,,,,,,,,,,
KBUR,Burbank,,34.1808,-118.3089,2012-05-02 09:51:00,,OVC,3.0,,55,,,,54.0,,94,3.0,120.0,,29.13,,,,0.0,,,,,,,,,,,,,,,,,,,,,,,,,,,,,,,,,,,,,,,,,,,,,,,,,,,,,,,,,,,,,,,,,
KBUR,Burbank,,34.1808,-118.3089,2012-05-02 09:53:00,,OVC,3.0,,56,,,,54.0,,93,,,,29.11,,,,0.0,,,,,,,,,,,,,,,,,,,,,,,,,,,,,,,,,,,,,,,,,,,,,,,,,,,,,,,,,,,,,,,,,
KBUR,Burbank,,34.1808,-118.3089,2012-05-02 10:53:00,,OVC,8.0,,58,,,,54.0,,87,7.0,120.0,,29.11,1.0,Rising,,,,58.0,55.0,,,,,,,,,,,,,,,,,,,,,,,,,,,,,,,,,,,,,,,,,,,,,,,,,,,,,,,,,,,,,,
KBUR,Burbank,,34.1808,-118.3089,2012-05-02 11:53:00,,OVC,10.0,,60,,,,52.0,,75,5.0,170.0,,29.11,,,,,,,,,,,,,,,,,,,,,,,,,,,,,,,,,,,,,,,,,,,,,,,,,,,,,,,,,,,,,,,,,,,,,
KBUR,Burbank,,34.1808,-118.3089,2012-05-02 12:53:00,,OVC,10.0,,62,,,,51.0,,67,5.0,,,29.09,,,,,,,,,,,,,,,,,,,,,,,,,,,,,,,,,,,,,,,,,,,,,,,,,,,,,,,,,,,,,,,,,,,,,
KBUR,Burbank,,34.1808,-118.3089,2012-05-02 13:53:00,,OVC,10.0,,63,,,,51.0,,65,7.0,110.0,,29.09,2.0,Falling,,,,,,,,,,,,,,,,,,,,,,,,,,,,,,,,,,,,,,,,,,,,,,,,,,,,,,,,,,,,,,,,,,,
KBUR,Burbank,,34.1808,-118.3089,2012-05-02 14:53:00,,OVC,10.0,,64,,,,51.0,,63,8.0,130.0,,29.09,,,,,,,,,,,,,,,,,,,,,,,,,,,,,,,,,,,,,,,,,,,,,,,,,,,,,,,,,,,,,,,,,,,,,
KBUR,Burbank,,34.1808,-118.3089,2012-05-02 15:53:00,,OVC,10.0,,62,,,,51.0,,67,8.0,160.0,,29.09,,,,,,,,,,,,,,,,,,,,,,,,,,,,,,,,,,,,,,,,,,,,,,,,,,,,,,,,,,,,,,,,,,,,,
KBUR,Burbank,,34.1808,-118.3089,2012-05-02 16:53:00,,OVC,10.0,,61,,,,51.0,,70,7.0,180.0,,29.08,2.0,Falling Rapidly,,,,65.0,58.0,,,,,,,,,,,,,,,,,,,,,,,,,,,,,,,,,,,,,,,,,,,,,,,,,,,,,,,,,,,,,,
KBUR,Burbank,,34.1808,-118.3089,2012-05-02 17:53:00,,OVC,10.0,,61,,,,51.0,,70,6.0,150.0,,29.08,,,,,,,,,,,,,,,,,,,,,,,,,,,,,,,,,,,,,,,,,,,,,,,,,,,,,,,,,,,,,,,,,,,,,
KBUR,Burbank,,34.1808,-118.3089,2012-05-02 18:53:00,,OVC,10.0,,60,,,,50.0,,69,5.0,180.0,,29.08,,,,,,,,,,,,,,,,,,,,,,,,,,,,,,,,,,,,,,,,,,,,,,,,,,,,,,,,,,,,,,,,,,,,,
KBUR,Burbank,,34.1808,-118.3089,2012-05-02 19:53:00,,OVC,10.0,,60,,,,50.0,,69,5.0,190.0,,29.09,1.0,Rising Rapidly,,,,,,,,,,,,,,,,,,,,,,,,,,,,,,,,,,,,,,,,,,,,,,,,,,,,,,,,,,,,,,,,,,,
KBUR,Burbank,,34.1808,-118.3089,2012-05-02 20:53:00,,OVC,10.0,,59,,,,50.0,,72,5.0,170.0,,29.1,,,,,,,,,,,,,,,,,,,,,,,,,,,,,,,,,,,,,,,,,,,,,,,,,,,,,,,,,,,,,,,,,,,,,
KBUR,Burbank,,34.1808,-118.3089,2012-05-02 21:53:00,,OVC,10.0,,59,,,,50.0,,72,6.0,160.0,,29.12,,,,,,,,,,,,,,,,,,,,,,,,,,,,,,,,,,,,,,,,,,,,,,,,,,,,,,,,,,,,,,,,,,,,,
KBUR,Burbank,,34.1808,-118.3089,2012-05-02 22:15:00,,OVC,10.0,,59,,,,52.0,,77,3.0,180.0,,29.14,,,,,,,,,,,,,,,,,,,,,,,,,,,,,,,,,,,,,,,,,,,,,,,,,,,,,,,,,,,,,,,,,,,,,
KBUR,Burbank,,34.1808,-118.3089,2012-05-02 22:53:00,,OVC,10.0,,58,,,,51.0,,78,3.0,180.0,,29.12,1.0,Rising,,,,62.0,58.0,,,,,,,,,,,,,,,,,,,,,,,,,,,,,,,,,,,,,,,,,,,,,,,,,,,,,,,,,,,,,,
KBUR,Burbank,,34.1808,-118.3089,2012-05-02 23:53:00,,OVC,10.0,,58,,,,51.0,,78,,,,29.12,,,,,,,,,,,,,,,,,,,,,,,,,,,,,,,,,,,,,,,,,,,,,,,,,,,,,,,,,,,,,,,,,,,,,
KBUR,Burbank,,34.1808,-118.3089,2012-05-03 00:53:00,,OVC,10.0,,57,,,,51.0,,81,3.0,180.0,,29.12,,,,,,65.0,55.0,,,,,,,,,,,,,,,,,,,,,,,,,,,,,,,,,,,,,,,,,,,,,,,,,,,,,,,,,,,,,,
KBUR,Burbank,,34.1808,-118.3089,2012-05-03 01:53:00,,OVC,10.0,,57,,,,52.0,,83,3.0,140.0,,29.11,2.0,Falling Rapidly,,,,,,,,,,,,,,,,,,,,,,,,,,,,,,,,,,,,,,,,,,,,,,,,,,,,,,,,,,,,,,,,,,,
KBUR,Burbank,,34.1808,-118.3089,2012-05-03 02:53:00,,OVC,10.0,,57,,,,51.0,,81,3.0,150.0,,29.11,,,,,,,,,,,,,,,,,,,,,,,,,,,,,,,,,,,,,,,,,,,,,,,,,,,,,,,,,,,,,,,,,,,,,
KBUR,Burbank,,34.1808,-118.3089,2012-05-03 03:53:00,,OVC,10.0,,57,,,,51.0,,81,6.0,110.0,,29.11,,,,,,,,,,,,,,,,,,,,,,,,,,,,,,,,,,,,,,,,,,,,,,,,,,,,,,,,,,,,,,,,,,,,,
KBUR,Burbank,,34.1808,-118.3089,2012-05-03 04:46:00,,OVC,10.0,,55,,,,52.0,,88,5.0,150.0,,29.14,,,,,,,,,,,,,,,,,,,,,,,,,,,,,,,,,,,,,,,,,,,,,,,,,,,,,,,,,,,,,,,,,,,,,
KBUR,Burbank,,34.1808,-118.3089,2012-05-03 04:53:00,,OVC,10.0,,56,,,,51.0,,84,5.0,140.0,,29.12,1.0,Rising Rapidly,,,,59.0,56.0,,,,,,,,,,,,,,,,,,,,,,,,,,,,,,,,,,,,,,,,,,,,,,,,,,,,,,,,,,,,,,
KBUR,Burbank,,34.1808,-118.3089,2012-05-03 05:53:00,,OVC,10.0,,55,,,,51.0,,86,6.0,160.0,,29.12,,,,,,,,,,,,,,,,,,,,,,,,,,,,,,,,,,,,,,,,,,,,,,,,,,,,,,,,,,,,,,,,,,,,,
KBUR,Burbank,,34.1808,-118.3089,2012-05-03 06:53:00,,OVC,10.0,,55,,,,50.0,,83,3.0,150.0,,29.14,,,,,,,,,,,,,,,,,,,,,,,,,,,,,,,,,,,,,,,,,,,,,,,,,,,,,,,,,,,,,,,,,,,,,
KBUR,Burbank,,34.1808,-118.3089,2012-05-03 07:53:00,,OVC,10.0,,56,,,,49.0,,77,,,,29.17,1.0,Rising Rapidly,,,,,,,,,,,,,,,,,,,,,,,,,,,,,,,,,,,,,,,,,,,,,,,,,,,,,,,,,,,,,,,,,,,
KBUR,Burbank,,34.1808,-118.3089,2012-05-03 08:53:00,,OVC,10.0,,58,,,,49.0,,72,,,,29.17,,,,,,,,,,,,,,,,,,,,,,,,,,,,,,,,,,,,,,,,,,,,,,,,,,,,,,,,,,,,,,,,,,,,,
KBUR,Burbank,,34.1808,-118.3089,2012-05-03 09:53:00,,OVC,10.0,,61,,,,49.0,,64,5.0,170.0,,29.18,,,,,,,,,,,,,,,,,,,,,,,,,,,,,,,,,,,,,,,,,,,,,,,,,,,,,,,,,,,,,,,,,,,,,
KBUR,Burbank,,34.1808,-118.3089,2012-05-03 10:53:00,,BKN,10.0,,64,,,,50.0,,60,6.0,150.0,,29.18,1.0,Rising,,,,64.0,55.0,,,,,,,,,,,,,,,,,,,,,,,,,,,,,,,,,,,,,,,,,,,,,,,,,,,,,,,,,,,,,,
KBUR,Burbank,,34.1808,-118.3089,2012-05-03 11:53:00,,OVC,10.0,,63,,,,50.0,,63,5.0,,,29.18,,,,,,,,,,,,,,,,,,,,,,,,,,,,,,,,,,,,,,,,,,,,,,,,,,,,,,,,,,,,,,,,,,,,,
KBUR,Burbank,,34.1808,-118.3089,2012-05-03 12:53:00,,BKN,10.0,,65,,,,50.0,,58,7.0,160.0,,29.17,,,,,,,,,,,,,,,,,,,,,,,,,,,,,,,,,,,,,,,,,,,,,,,,,,,,,,,,,,,,,,,,,,,,,
KBUR,Burbank,,34.1808,-118.3089,2012-05-03 13:53:00,,OVC,10.0,,65,,,,50.0,,58,8.0,220.0,,29.17,2.0,Falling,,,,,,,,,,,,,,,,,,,,,,,,,,,,,,,,,,,,,,,,,,,,,,,,,,,,,,,,,,,,,,,,,,,
KBUR,Burbank,,34.1808,-118.3089,2012-05-03 14:53:00,,BKN,10.0,,66,,,,50.0,,56,8.0,160.0,,29.17,,,,,,,,,,,,,,,,,,,,,,,,,,,,,,,,,,,,,,,,,,,,,,,,,,,,,,,,,,,,,,,,,,,,,
KBUR,Burbank,,34.1808,-118.3089,2012-05-03 15:53:00,,OVC,10.0,,66,,,,50.0,,56,9.0,190.0,,29.15,,,,,,,,,,,,,,,,,,,,,,,,,,,,,,,,,,,,,,,,,,,,,,,,,,,,,,,,,,,,,,,,,,,,,
KBUR,Burbank,,34.1808,-118.3089,2012-05-03 16:53:00,,OVC,10.0,,65,,,,50.0,,58,8.0,190.0,,29.14,2.0,Falling Rapidly,,,,67.0,62.0,,,,,,,,,,,,,,,,,,,,,,,,,,,,,,,,,,,,,,,,,,,,,,,,,,,,,,,,,,,,,,
KBUR,Burbank,,34.1808,-118.3089,2012-05-03 17:53:00,,OVC,10.0,,63,,,,49.0,,60,9.0,210.0,,29.14,,,,,,,,,,,,,,,,,,,,,,,,,,,,,,,,,,,,,,,,,,,,,,,,,,,,,,,,,,,,,,,,,,,,,
KBUR,Burbank,,34.1808,-118.3089,2012-05-03 18:53:00,,BKN,10.0,,62,,,,49.0,,62,8.0,190.0,,29.14,,,,,,,,,,,,,,,,,,,,,,,,,,,,,,,,,,,,,,,,,,,,,,,,,,,,,,,,,,,,,,,,,,,,,
KBUR,Burbank,,34.1808,-118.3089,2012-05-03 19:53:00,,OVC,10.0,,61,,,,48.0,,62,6.0,170.0,,29.15,1.0,Rising Rapidly,,,,,,,,,,,,,,,,,,,,,,,,,,,,,,,,,,,,,,,,,,,,,,,,,,,,,,,,,,,,,,,,,,,
KBUR,Burbank,,34.1808,-118.3089,2012-05-03 20:53:00,,OVC,10.0,,60,,,,49.0,,67,6.0,140.0,,29.17,,,,,,,,,,,,,,,,,,,,,,,,,,,,,,,,,,,,,,,,,,,,,,,,,,,,,,,,,,,,,,,,,,,,,
KBUR,Burbank,,34.1808,-118.3089,2012-05-03 21:53:00,,OVC,10.0,,60,,,,49.0,,67,5.0,150.0,,29.19,,,,,,,,,,,,,,,,,,,,,,,,,,,,,,,,,,,,,,,,,,,,,,,,,,,,,,,,,,,,,,,,,,,,,
KBUR,Burbank,,34.1808,-118.3089,2012-05-03 22:53:00,,CLR,10.0,,59,,,,50.0,,72,5.0,130.0,,29.19,0.0,Steady,,,,64.0,58.0,,,,,,,,,,,,,,,,,,,,,,,,,,,,,,,,,,,,,,,,,,,,,,,,,,,,,,,,,,,,,,
KBUR,Burbank,,34.1808,-118.3089,2012-05-03 23:53:00,,OVC,10.0,,58,,,,50.0,,75,5.0,110.0,,29.19,,,,,,,,,,,,,,,,,,,,,,,,,,,,,,,,,,,,,,,,,,,,,,,,,,,,,,,,,,,,,,,,,,,,,
KBUR,Burbank,,34.1808,-118.3089,2012-05-04 00:53:00,,SCT,10.0,,57,,,,50.0,,77,3.0,140.0,,29.19,,,,,,67.0,55.0,,,,,,,,,,,,,,,,,,,,,,,,,,,,,,,,,,,,,,,,,,,,,,,,,,,,,,,,,,,,,,
KBUR,Burbank,,34.1808,-118.3089,2012-05-04 01:53:00,,BKN,10.0,,56,,,,50.0,,80,3.0,130.0,,29.17,2.0,Falling Rapidly,,,,,,,,,,,,,,,,,,,,,,,,,,,,,,,,,,,,,,,,,,,,,,,,,,,,,,,,,,,,,,,,,,,
KBUR,Burbank,,34.1808,-118.3089,2012-05-04 02:53:00,,SCT,10.0,,56,,,,50.0,,80,,,,29.17,,,,,,,,,,,,,,,,,,,,,,,,,,,,,,,,,,,,,,,,,,,,,,,,,,,,,,,,,,,,,,,,,,,,,
KBUR,Burbank,,34.1808,-118.3089,2012-05-04 03:53:00,,CLR,10.0,,54,,,,49.0,,83,3.0,340.0,,29.15,,,,,,,,,,,,,,,,,,,,,,,,,,,,,,,,,,,,,,,,,,,,,,,,,,,,,,,,,,,,,,,,,,,,,
KBUR,Burbank,,34.1808,-118.3089,2012-05-04 04:53:00,,CLR,10.0,,53,,,,49.0,,86,5.0,260.0,,29.15,2.0,Falling Rapidly,,,,59.0,53.0,,,,,,,,,,,,,,,,,,,,,,,,,,,,,,,,,,,,,,,,,,,,,,,,,,,,,,,,,,,,,,
KBUR,Burbank,,34.1808,-118.3089,2012-05-04 05:53:00,,CLR,10.0,,53,,,,48.0,,83,,,,29.16,,,,,,,,,,,,,,,,,,,,,,,,,,,,,,,,,,,,,,,,,,,,,,,,,,,,,,,,,,,,,,,,,,,,,
KBUR,Burbank,,34.1808,-118.3089,2012-05-04 06:53:00,,CLR,10.0,,53,,,,49.0,,86,,,,29.18,,,,,,,,,,,,,,,,,,,,,,,,,,,,,,,,,,,,,,,,,,,,,,,,,,,,,,,,,,,,,,,,,,,,,
KBUR,Burbank,,34.1808,-118.3089,2012-05-04 07:53:00,,CLR,10.0,,56,,,,49.0,,77,,,,29.19,1.0,Rising Rapidly,,,,,,,,,,,,,,,,,,,,,,,,,,,,,,,,,,,,,,,,,,,,,,,,,,,,,,,,,,,,,,,,,,,
KBUR,Burbank,,34.1808,-118.3089,2012-05-04 08:53:00,,CLR,10.0,,60,,,,50.0,,69,,,,29.2,,,,,,,,,,,,,,,,,,,,,,,,,,,,,,,,,,,,,,,,,,,,,,,,,,,,,,,,,,,,,,,,,,,,,
KBUR,Burbank,,34.1808,-118.3089,2012-05-04 09:53:00,,SCT,10.0,,62,,,,51.0,,67,9.0,180.0,,29.21,,,,,,,,,,,,,,,,,,,,,,,,,,,,,,,,,,,,,,,,,,,,,,,,,,,,,,,,,,,,,,,,,,,,,
KBUR,Burbank,,34.1808,-118.3089,2012-05-04 10:53:00,,SCT,10.0,,63,,,,51.0,,65,12.0,140.0,,29.22,1.0,Rising,,,,64.0,52.0,,,,,,,,,,,,,,,,,,,,,,,,,,,,,,,,,,,,,,,,,,,,,,,,,,,,,,,,,,,,,,
KBUR,Burbank,,34.1808,-118.3089,2012-05-04 11:53:00,,CLR,10.0,,65,,,,52.0,,63,9.0,180.0,18.0,29.22,,,,,,,,,,,,,,,,,,,,,,,,,,,,,,,,,,,,,,,,,,,,,,,,,,,,,,,,,,,,,,,,,,,,,
KBUR,Burbank,,34.1808,-118.3089,2012-05-04 12:53:00,,BKN,10.0,,66,,,,52.0,,60,8.0,130.0,,29.21,,,,,,,,,,,,,,,,,,,,,,,,,,,,,,,,,,,,,,,,,,,,,,,,,,,,,,,,,,,,,,,,,,,,,
KBUR,Burbank,,34.1808,-118.3089,2012-05-04 13:53:00,,SCT,10.0,,67,,,,51.0,,57,7.0,170.0,,29.21,2.0,Falling Rapidly,,,,,,,,,,,,,,,,,,,,,,,,,,,,,,,,,,,,,,,,,,,,,,,,,,,,,,,,,,,,,,,,,,,
KBUR,Burbank,,34.1808,-118.3089,2012-05-04 14:53:00,,BKN,10.0,,68,,,,51.0,,55,6.0,180.0,,29.19,,,,,,,,,,,,,,,,,,,,,,,,,,,,,,,,,,,,,,,,,,,,,,,,,,,,,,,,,,,,,,,,,,,,,
KBUR,Burbank,,34.1808,-118.3089,2012-05-04 15:53:00,,SCT,10.0,,69,,,,52.0,,54,8.0,150.0,,29.18,,,,,,,,,,,,,,,,,,,,,,,,,,,,,,,,,,,,,,,,,,,,,,,,,,,,,,,,,,,,,,,,,,,,,
KBUR,Burbank,,34.1808,-118.3089,2012-05-04 16:53:00,,SCT,10.0,,68,,,,52.0,,56,6.0,170.0,,29.17,2.0,Falling,,,,70.0,63.0,,,,,,,,,,,,,,,,,,,,,,,,,,,,,,,,,,,,,,,,,,,,,,,,,,,,,,,,,,,,,,
KBUR,Burbank,,34.1808,-118.3089,2012-05-04 17:53:00,,FEW,10.0,,68,,,,52.0,,56,8.0,150.0,,29.16,,,,,,,,,,,,,,,,,,,,,,,,,,,,,,,,,,,,,,,,,,,,,,,,,,,,,,,,,,,,,,,,,,,,,
KBUR,Burbank,,34.1808,-118.3089,2012-05-04 18:53:00,,CLR,10.0,,67,,,,51.0,,57,7.0,180.0,,29.15,,,,,,,,,,,,,,,,,,,,,,,,,,,,,,,,,,,,,,,,,,,,,,,,,,,,,,,,,,,,,,,,,,,,,
KBUR,Burbank,,34.1808,-118.3089,2012-05-04 19:53:00,,CLR,10.0,,64,,,,52.0,,65,6.0,170.0,,29.15,0.0,Steady,,,,,,,,,,,,,,,,,,,,,,,,,,,,,,,,,,,,,,,,,,,,,,,,,,,,,,,,,,,,,,,,,,,
KBUR,Burbank,,34.1808,-118.3089,2012-05-04 20:53:00,,CLR,10.0,,62,,,,52.0,,70,,,,29.16,,,,,,,,,,,,,,,,,,,,,,,,,,,,,,,,,,,,,,,,,,,,,,,,,,,,,,,,,,,,,,,,,,,,,
KBUR,Burbank,,34.1808,-118.3089,2012-05-04 21:53:00,,CLR,10.0,,62,,,,52.0,,70,5.0,160.0,,29.16,,,,,,,,,,,,,,,,,,,,,,,,,,,,,,,,,,,,,,,,,,,,,,,,,,,,,,,,,,,,,,,,,,,,,
KBUR,Burbank,,34.1808,-118.3089,2012-05-04 22:53:00,,CLR,10.0,,60,,,,52.0,,75,3.0,130.0,,29.16,0.0,Steady,,,,69.0,60.0,,,,,,,,,,,,,,,,,,,,,,,,,,,,,,,,,,,,,,,,,,,,,,,,,,,,,,,,,,,,,,
KBUR,Burbank,,34.1808,-118.3089,2012-05-04 23:53:00,,CLR,10.0,,58,,,,52.0,,81,5.0,100.0,,29.15,,,,,,,,,,,,,,,,,,,,,,,,,,,,,,,,,,,,,,,,,,,,,,,,,,,,,,,,,,,,,,,,,,,,,
KBUR,Burbank,,34.1808,-118.3089,2012-05-05 00:53:00,,CLR,10.0,,57,,,,52.0,,83,3.0,100.0,,29.14,,,,,,70.0,52.0,,,,,,,,,,,,,,,,,,,,,,,,,,,,,,,,,,,,,,,,,,,,,,,,,,,,,,,,,,,,,,
KBUR,Burbank,,34.1808,-118.3089,2012-05-05 01:53:00,,CLR,10.0,,57,,,,52.0,,83,5.0,90.0,,29.13,2.0,Falling Rapidly,,,,,,,,,,,,,,,,,,,,,,,,,,,,,,,,,,,,,,,,,,,,,,,,,,,,,,,,,,,,,,,,,,,
KBUR,Burbank,,34.1808,-118.3089,2012-05-05 02:53:00,,CLR,10.0,,56,,,,51.0,,84,5.0,100.0,,29.12,,,,,,,,,,,,,,,,,,,,,,,,,,,,,,,,,,,,,,,,,,,,,,,,,,,,,,,,,,,,,,,,,,,,,
KBUR,Burbank,,34.1808,-118.3089,2012-05-05 03:53:00,,CLR,10.0,,55,,,,51.0,,86,3.0,110.0,,29.13,,,,,,,,,,,,,,,,,,,,,,,,,,,,,,,,,,,,,,,,,,,,,,,,,,,,,,,,,,,,,,,,,,,,,
KBUR,Burbank,,34.1808,-118.3089,2012-05-05 04:53:00,,CLR,10.0,,54,,,,50.0,,86,3.0,70.0,,29.13,1.0,Rising Rapidly,,,,60.0,53.0,,,,,,,,,,,,,,,,,,,,,,,,,,,,,,,,,,,,,,,,,,,,,,,,,,,,,,,,,,,,,,
KBUR,Burbank,,34.1808,-118.3089,2012-05-05 05:53:00,,CLR,10.0,,53,,,,49.0,,86,3.0,70.0,,29.13,,,,,,,,,,,,,,,,,,,,,,,,,,,,,,,,,,,,,,,,,,,,,,,,,,,,,,,,,,,,,,,,,,,,,
KBUR,Burbank,,34.1808,-118.3089,2012-05-05 06:53:00,,CLR,10.0,,53,,,,48.0,,83,,,,29.14,,,,,,,,,,,,,,,,,,,,,,,,,,,,,,,,,,,,,,,,,,,,,,,,,,,,,,,,,,,,,,,,,,,,,
KBUR,Burbank,,34.1808,-118.3089,2012-05-05 07:53:00,,CLR,10.0,,56,,,,50.0,,80,5.0,140.0,,29.15,1.0,Rising Rapidly,,,,,,,,,,,,,,,,,,,,,,,,,,,,,,,,,,,,,,,,,,,,,,,,,,,,,,,,,,,,,,,,,,,
KBUR,Burbank,,34.1808,-118.3089,2012-05-05 08:53:00,,CLR,8.0,,59,,,,51.0,,75,6.0,150.0,,29.15,,,,,,,,,,,,,,,,,,,,,,,,,,,,,,,,,,,,,,,,,,,,,,,,,,,,,,,,,,,,,,,,,,,,,
KBUR,Burbank,,34.1808,-118.3089,2012-05-05 09:53:00,,CLR,10.0,,63,,,,50.0,,63,7.0,120.0,,29.15,,,,,,,,,,,,,,,,,,,,,,,,,,,,,,,,,,,,,,,,,,,,,,,,,,,,,,,,,,,,,,,,,,,,,
KBUR,Burbank,,34.1808,-118.3089,2012-05-05 10:53:00,,CLR,10.0,,66,,,,51.0,,59,8.0,110.0,,29.15,0.0,Steady,,,,66.0,51.0,,,,,,,,,,,,,,,,,,,,,,,,,,,,,,,,,,,,,,,,,,,,,,,,,,,,,,,,,,,,,,
KBUR,Burbank,,34.1808,-118.3089,2012-05-05 11:53:00,,CLR,10.0,,70,,,,52.0,,53,8.0,160.0,,29.14,,,,,,,,,,,,,,,,,,,,,,,,,,,,,,,,,,,,,,,,,,,,,,,,,,,,,,,,,,,,,,,,,,,,,
KBUR,Burbank,,34.1808,-118.3089,2012-05-05 12:53:00,,CLR,10.0,,72,,,,49.0,,44,9.0,170.0,,29.12,,,,,,,,,,,,,,,,,,,,,,,,,,,,,,,,,,,,,,,,,,,,,,,,,,,,,,,,,,,,,,,,,,,,,
KBUR,Burbank,,34.1808,-118.3089,2012-05-05 13:53:00,,CLR,10.0,,73,,,,52.0,,48,12.0,180.0,,29.11,2.0,Falling,,,,,,,,,,,,,,,,,,,,,,,,,,,,,,,,,,,,,,,,,,,,,,,,,,,,,,,,,,,,,,,,,,,
KBUR,Burbank,,34.1808,-118.3089,2012-05-05 14:53:00,,CLR,10.0,,72,,,,51.0,,48,9.0,180.0,,29.11,,,,,,,,,,,,,,,,,,,,,,,,,,,,,,,,,,,,,,,,,,,,,,,,,,,,,,,,,,,,,,,,,,,,,
KBUR,Burbank,,34.1808,-118.3089,2012-05-05 15:53:00,,CLR,10.0,,72,,,,51.0,,48,8.0,170.0,,29.09,,,,,,,,,,,,,,,,,,,,,,,,,,,,,,,,,,,,,,,,,,,,,,,,,,,,,,,,,,,,,,,,,,,,,
KBUR,Burbank,,34.1808,-118.3089,2012-05-05 16:53:00,,CLR,10.0,,72,,,,49.0,,44,8.0,180.0,,29.08,2.0,Falling,,,,74.0,66.0,,,,,,,,,,,,,,,,,,,,,,,,,,,,,,,,,,,,,,,,,,,,,,,,,,,,,,,,,,,,,,
KBUR,Burbank,,34.1808,-118.3089,2012-05-05 17:53:00,,CLR,10.0,,71,,,,52.0,,51,9.0,170.0,,29.07,,,,,,,,,,,,,,,,,,,,,,,,,,,,,,,,,,,,,,,,,,,,,,,,,,,,,,,,,,,,,,,,,,,,,
KBUR,Burbank,,34.1808,-118.3089,2012-05-05 18:53:00,,CLR,10.0,,67,,,,52.0,,59,8.0,180.0,,29.07,,,,,,,,,,,,,,,,,,,,,,,,,,,,,,,,,,,,,,,,,,,,,,,,,,,,,,,,,,,,,,,,,,,,,
KBUR,Burbank,,34.1808,-118.3089,2012-05-05 19:53:00,,CLR,10.0,,64,,,,53.0,,67,7.0,160.0,,29.09,1.0,Rising Rapidly,,,,,,,,,,,,,,,,,,,,,,,,,,,,,,,,,,,,,,,,,,,,,,,,,,,,,,,,,,,,,,,,,,,
KBUR,Burbank,,34.1808,-118.3089,2012-05-05 20:53:00,,CLR,10.0,,62,,,,53.0,,72,5.0,,,29.1,,,,,,,,,,,,,,,,,,,,,,,,,,,,,,,,,,,,,,,,,,,,,,,,,,,,,,,,,,,,,,,,,,,,,
KBUR,Burbank,,34.1808,-118.3089,2012-05-05 21:53:00,,CLR,10.0,,61,,,,53.0,,75,6.0,100.0,,29.1,,,,,,,,,,,,,,,,,,,,,,,,,,,,,,,,,,,,,,,,,,,,,,,,,,,,,,,,,,,,,,,,,,,,,
KBUR,Burbank,,34.1808,-118.3089,2012-05-05 22:53:00,,CLR,10.0,,61,,,,53.0,,75,6.0,130.0,,29.1,0.0,Steady,,,,73.0,61.0,,,,,,,,,,,,,,,,,,,,,,,,,,,,,,,,,,,,,,,,,,,,,,,,,,,,,,,,,,,,,,
KBUR,Burbank,,34.1808,-118.3089,2012-05-05 23:53:00,,CLR,10.0,,59,,,,54.0,,83,6.0,130.0,,29.11,,,,,,,,,,,,,,,,,,,,,,,,,,,,,,,,,,,,,,,,,,,,,,,,,,,,,,,,,,,,,,,,,,,,,
KBUR,Burbank,,34.1808,-118.3089,2012-05-06 00:53:00,,CLR,10.0,,59,,,,54.0,,83,3.0,60.0,,29.09,,,,,,74.0,51.0,,,,,,,,,,,,,,,,,,,,,,,,,,,,,,,,,,,,,,,,,,,,,,,,,,,,,,,,,,,,,,
KBUR,Burbank,,34.1808,-118.3089,2012-05-06 01:53:00,,CLR,10.0,,59,,,,53.0,,81,3.0,90.0,,29.08,2.0,Falling Rapidly,,,,,,,,,,,,,,,,,,,,,,,,,,,,,,,,,,,,,,,,,,,,,,,,,,,,,,,,,,,,,,,,,,,
KBUR,Burbank,,34.1808,-118.3089,2012-05-06 02:53:00,,CLR,10.0,,57,,,,52.0,,83,,,,29.07,,,,,,,,,,,,,,,,,,,,,,,,,,,,,,,,,,,,,,,,,,,,,,,,,,,,,,,,,,,,,,,,,,,,,
KBUR,Burbank,,34.1808,-118.3089,2012-05-06 03:53:00,,CLR,10.0,,57,,,,52.0,,83,3.0,100.0,,29.08,,,,,,,,,,,,,,,,,,,,,,,,,,,,,,,,,,,,,,,,,,,,,,,,,,,,,,,,,,,,,,,,,,,,,
KBUR,Burbank,,34.1808,-118.3089,2012-05-06 04:45:00,,SCT,10.0,,55,,,,52.0,,88,3.0,100.0,,29.1,,,,,,,,,,,,,,,,,,,,,,,,,,,,,,,,,,,,,,,,,,,,,,,,,,,,,,,,,,,,,,,,,,,,,
KBUR,Burbank,,34.1808,-118.3089,2012-05-06 04:53:00,,BKN,10.0,,56,,,,52.0,,87,3.0,90.0,,29.08,2.0,Falling,,,,61.0,56.0,,,,,,,,,,,,,,,,,,,,,,,,,,,,,,,,,,,,,,,,,,,,,,,,,,,,,,,,,,,,,,
KBUR,Burbank,,34.1808,-118.3089,2012-05-06 05:01:00,,BKN,10.0,,55,,,,52.0,,88,5.0,100.0,,29.11,,,,,,,,,,,,,,,,,,,,,,,,,,,,,,,,,,,,,,,,,,,,,,,,,,,,,,,,,,,,,,,,,,,,,
KBUR,Burbank,,34.1808,-118.3089,2012-05-06 05:46:00,,OVC,7.0,,55,,,,54.0,,94,3.0,150.0,,29.11,,,,,,,,,,,,,,,,,,,,,,,,,,,,,,,,,,,,,,,,,,,,,,,,,,,,,,,,,,,,,,,,,,,,,
KBUR,Burbank,,34.1808,-118.3089,2012-05-06 05:53:00,,OVC,6.0,,56,,,,53.0,,90,3.0,150.0,,29.08,,,,,,,,,,,,,,,,,,,,,,,,,,,,,,,,,,,,,,,,,,,,,,,,,,,,,,,,,,,,,,,,,,,,,
KBUR,Burbank,,34.1808,-118.3089,2012-05-06 06:53:00,,OVC,4.0,,56,,,,53.0,,90,6.0,160.0,,29.09,,,,,,,,,,,,,,,,,,,,,,,,,,,,,,,,,,,,,,,,,,,,,,,,,,,,,,,,,,,,,,,,,,,,,
KBUR,Burbank,,34.1808,-118.3089,2012-05-06 07:01:00,,OVC,2.0,,55,,,,54.0,,94,3.0,130.0,,29.12,,,,,,,,,,,,,,,,,,,,,,,,,,,,,,,,,,,,,,,,,,,,,,,,,,,,,,,,,,,,,,,,,,,,,
KBUR,Burbank,,34.1808,-118.3089,2012-05-06 07:53:00,,OVC,3.0,,57,,,,53.0,,87,5.0,90.0,,29.11,1.0,Rising Rapidly,,,,,,,,,,,,,,,,,,,,,,,,,,,,,,,,,,,,,,,,,,,,,,,,,,,,,,,,,,,,,,,,,,,
KBUR,Burbank,,34.1808,-118.3089,2012-05-06 08:21:00,,OVC,3.0,,57,,,,52.0,,82,5.0,160.0,,29.14,,,,,,,,,,,,,,,,,,,,,,,,,,,,,,,,,,,,,,,,,,,,,,,,,,,,,,,,,,,,,,,,,,,,,
KBUR,Burbank,,34.1808,-118.3089,2012-05-06 08:53:00,,OVC,4.0,,58,,,,53.0,,84,,,,29.11,,,,,,,,,,,,,,,,,,,,,,,,,,,,,,,,,,,,,,,,,,,,,,,,,,,,,,,,,,,,,,,,,,,,,
KBUR,Burbank,,34.1808,-118.3089,2012-05-06 09:53:00,,BKN,5.0,,60,,,,53.0,,78,8.0,140.0,,29.11,,,,,,,,,,,,,,,,,,,,,,,,,,,,,,,,,,,,,,,,,,,,,,,,,,,,,,,,,,,,,,,,,,,,,
KBUR,Burbank,,34.1808,-118.3089,2012-05-06 10:21:00,,FEW,6.0,,63,,,,54.0,,72,7.0,120.0,,29.15,,,,,,,,,,,,,,,,,,,,,,,,,,,,,,,,,,,,,,,,,,,,,,,,,,,,,,,,,,,,,,,,,,,,,
KBUR,Burbank,,34.1808,-118.3089,2012-05-06 10:53:00,,CLR,6.0,,64,,,,53.0,,67,5.0,,,29.12,1.0,Rising Rapidly,,,,64.0,55.0,,,,,,,,,,,,,,,,,,,,,,,,,,,,,,,,,,,,,,,,,,,,,,,,,,,,,,,,,,,,,,
KBUR,Burbank,,34.1808,-118.3089,2012-05-06 11:53:00,,CLR,10.0,,68,,,,53.0,,59,7.0,190.0,,29.11,,,,,,,,,,,,,,,,,,,,,,,,,,,,,,,,,,,,,,,,,,,,,,,,,,,,,,,,,,,,,,,,,,,,,
KBUR,Burbank,,34.1808,-118.3089,2012-05-06 12:53:00,,CLR,10.0,,72,,,,53.0,,51,9.0,180.0,,29.09,,,,,,,,,,,,,,,,,,,,,,,,,,,,,,,,,,,,,,,,,,,,,,,,,,,,,,,,,,,,,,,,,,,,,
KBUR,Burbank,,34.1808,-118.3089,2012-05-06 13:53:00,,CLR,10.0,,72,,,,54.0,,53,9.0,200.0,,29.09,2.0,Falling,,,,,,,,,,,,,,,,,,,,,,,,,,,,,,,,,,,,,,,,,,,,,,,,,,,,,,,,,,,,,,,,,,,
KBUR,Burbank,,34.1808,-118.3089,2012-05-06 14:53:00,,CLR,10.0,,73,,,,53.0,,49,9.0,190.0,,29.09,,,,,,,,,,,,,,,,,,,,,,,,,,,,,,,,,,,,,,,,,,,,,,,,,,,,,,,,,,,,,,,,,,,,,
KBUR,Burbank,,34.1808,-118.3089,2012-05-06 15:53:00,,CLR,10.0,,72,,,,54.0,,53,10.0,190.0,,29.07,,,,,,,,,,,,,,,,,,,,,,,,,,,,,,,,,,,,,,,,,,,,,,,,,,,,,,,,,,,,,,,,,,,,,
KBUR,Burbank,,34.1808,-118.3089,2012-05-06 16:53:00,,CLR,10.0,,70,,,,54.0,,57,12.0,180.0,,29.07,2.0,Falling,,,,74.0,64.0,,,,,,,,,,,,,,,,,,,,,,,,,,,,,,,,,,,,,,,,,,,,,,,,,,,,,,,,,,,,,,
KBUR,Burbank,,34.1808,-118.3089,2012-05-06 17:53:00,,CLR,10.0,,68,,,,54.0,,61,13.0,180.0,,29.07,,,,,,,,,,,,,,,,,,,,,,,,,,,,,,,,,,,,,,,,,,,,,,,,,,,,,,,,,,,,,,,,,,,,,
KBUR,Burbank,,34.1808,-118.3089,2012-05-06 18:53:00,,CLR,10.0,,64,,,,55.0,,72,10.0,180.0,,29.08,,,,,,,,,,,,,,,,,,,,,,,,,,,,,,,,,,,,,,,,,,,,,,,,,,,,,,,,,,,,,,,,,,,,,
KBUR,Burbank,,34.1808,-118.3089,2012-05-06 19:53:00,,CLR,10.0,,60,,,,54.0,,80,8.0,180.0,,29.1,1.0,Rising Rapidly,,,,,,,,,,,,,,,,,,,,,,,,,,,,,,,,,,,,,,,,,,,,,,,,,,,,,,,,,,,,,,,,,,,
KBUR,Burbank,,34.1808,-118.3089,2012-05-06 20:53:00,,CLR,10.0,,60,,,,55.0,,83,6.0,150.0,,29.12,,,,,,,,,,,,,,,,,,,,,,,,,,,,,,,,,,,,,,,,,,,,,,,,,,,,,,,,,,,,,,,,,,,,,
KBUR,Burbank,,34.1808,-118.3089,2012-05-06 21:53:00,,CLR,10.0,,59,,,,54.0,,83,7.0,130.0,,29.14,,,,,,,,,,,,,,,,,,,,,,,,,,,,,,,,,,,,,,,,,,,,,,,,,,,,,,,,,,,,,,,,,,,,,
KBUR,Burbank,,34.1808,-118.3089,2012-05-06 22:28:00,,BKN,10.0,,59,,,,54.0,,82,5.0,130.0,,29.16,,,,,,,,,,,,,,,,,,,,,,,,,,,,,,,,,,,,,,,,,,,,,,,,,,,,,,,,,,,,,,,,,,,,,
KBUR,Burbank,,34.1808,-118.3089,2012-05-06 22:53:00,,SCT,10.0,,58,,,,54.0,,87,3.0,170.0,,29.13,0.0,Steady,,,,70.0,58.0,,,,,,,,,,,,,,,,,,,,,,,,,,,,,,,,,,,,,,,,,,,,,,,,,,,,,,,,,,,,,,
KBUR,Burbank,,34.1808,-118.3089,2012-05-06 23:37:00,,BKN,9.0,,57,,,,54.0,,88,3.0,150.0,,29.16,,,,,,,,,,,,,,,,,,,,,,,,,,,,,,,,,,,,,,,,,,,,,,,,,,,,,,,,,,,,,,,,,,,,,
KBUR,Burbank,,34.1808,-118.3089,2012-05-06 23:53:00,,OVC,9.0,,58,,,,54.0,,87,,,,29.13,,,,,,,,,,,,,,,,,,,,,,,,,,,,,,,,,,,,,,,,,,,,,,,,,,,,,,,,,,,,,,,,,,,,,
KBUR,Burbank,,34.1808,-118.3089,2012-05-07 00:53:00,,OVC,8.0,,59,,,,54.0,,83,3.0,170.0,,29.11,,,,,,74.0,55.0,,,,,,,,,,,,,,,,,,,,,,,,,,,,,,,,,,,,,,,,,,,,,,,,,,,,,,,,,,,,,,
KBUR,Burbank,,34.1808,-118.3089,2012-05-07 01:53:00,,SCT,9.0,,57,,,,53.0,,87,,,,29.1,2.0,Falling Rapidly,,,,,,,,,,,,,,,,,,,,,,,,,,,,,,,,,,,,,,,,,,,,,,,,,,,,,,,,,,,,,,,,,,,
KBUR,Burbank,,34.1808,-118.3089,2012-05-07 02:53:00,,OVC,5.0,,58,,,,54.0,,87,3.0,160.0,,29.1,,,,,,,,,,,,,,,,,,,,,,,,,,,,,,,,,,,,,,,,,,,,,,,,,,,,,,,,,,,,,,,,,,,,,
KBUR,Burbank,,34.1808,-118.3089,2012-05-07 03:53:00,,OVC,6.0,,58,,,,54.0,,87,3.0,50.0,,29.1,,,,,,,,,,,,,,,,,,,,,,,,,,,,,,,,,,,,,,,,,,,,,,,,,,,,,,,,,,,,,,,,,,,,,
KBUR,Burbank,,34.1808,-118.3089,2012-05-07 04:53:00,,OVC,6.0,,58,,,,54.0,,87,,,,29.09,2.0,Falling Rapidly,,,,59.0,56.0,,,,,,,,,,,,,,,,,,,,,,,,,,,,,,,,,,,,,,,,,,,,,,,,,,,,,,,,,,,,,,
KBUR,Burbank,,34.1808,-118.3089,2012-05-07 05:53:00,,OVC,5.0,,56,,,,53.0,,90,3.0,320.0,,29.09,,,,,,,,,,,,,,,,,,,,,,,,,,,,,,,,,,,,,,,,,,,,,,,,,,,,,,,,,,,,,,,,,,,,,
KBUR,Burbank,,34.1808,-118.3089,2012-05-07 06:53:00,,BKN,3.0,,56,,,,53.0,,90,,,,29.11,,,,,,,,,,,,,,,,,,,,,,,,,,,,,,,,,,,,,,,,,,,,,,,,,,,,,,,,,,,,,,,,,,,,,
KBUR,Burbank,,34.1808,-118.3089,2012-05-07 07:53:00,,BKN,3.0,,57,,,,53.0,,87,3.0,150.0,,29.12,1.0,Rising Rapidly,,,,,,,,,,,,,,,,,,,,,,,,,,,,,,,,,,,,,,,,,,,,,,,,,,,,,,,,,,,,,,,,,,,
KBUR,Burbank,,34.1808,-118.3089,2012-05-07 08:15:00,,FEW,5.0,,57,,,,54.0,,88,,,,29.15,,,,,,,,,,,,,,,,,,,,,,,,,,,,,,,,,,,,,,,,,,,,,,,,,,,,,,,,,,,,,,,,,,,,,
KBUR,Burbank,,34.1808,-118.3089,2012-05-07 08:53:00,,CLR,5.0,,60,,,,54.0,,80,6.0,,,29.12,,,,,,,,,,,,,,,,,,,,,,,,,,,,,,,,,,,,,,,,,,,,,,,,,,,,,,,,,,,,,,,,,,,,,
KBUR,Burbank,,34.1808,-118.3089,2012-05-07 09:53:00,,CLR,7.0,,65,,,,53.0,,65,,,,29.11,,,,,,,,,,,,,,,,,,,,,,,,,,,,,,,,,,,,,,,,,,,,,,,,,,,,,,,,,,,,,,,,,,,,,
KBUR,Burbank,,34.1808,-118.3089,2012-05-07 10:53:00,,CLR,9.0,,70,,,,54.0,,57,6.0,110.0,,29.1,2.0,Falling Rapidly,,,,70.0,55.0,,,,,,,,,,,,,,,,,,,,,,,,,,,,,,,,,,,,,,,,,,,,,,,,,,,,,,,,,,,,,,
KBUR,Burbank,,34.1808,-118.3089,2012-05-07 11:53:00,,CLR,10.0,,74,,,,54.0,,50,7.0,,,29.09,,,,,,,,,,,,,,,,,,,,,,,,,,,,,,,,,,,,,,,,,,,,,,,,,,,,,,,,,,,,,,,,,,,,,
KBUR,Burbank,,34.1808,-118.3089,2012-05-07 12:53:00,,CLR,10.0,,76,,,,54.0,,46,9.0,180.0,,29.07,,,,,,,,,,,,,,,,,,,,,,,,,,,,,,,,,,,,,,,,,,,,,,,,,,,,,,,,,,,,,,,,,,,,,
KBUR,Burbank,,34.1808,-118.3089,2012-05-07 13:53:00,,CLR,10.0,,78,,,,54.0,,43,8.0,170.0,,29.05,2.0,Falling Rapidly,,,,,,,,,,,,,,,,,,,,,,,,,,,,,,,,,,,,,,,,,,,,,,,,,,,,,,,,,,,,,,,,,,,
KBUR,Burbank,,34.1808,-118.3089,2012-05-07 14:53:00,,CLR,10.0,,77,,,,54.0,,45,13.0,180.0,,29.03,,,,,,,,,,,,,,,,,,,,,,,,,,,,,,,,,,,,,,,,,,,,,,,,,,,,,,,,,,,,,,,,,,,,,
KBUR,Burbank,,34.1808,-118.3089,2012-05-07 15:53:00,,CLR,10.0,,75,,,,54.0,,48,9.0,170.0,,29.03,,,,,,,,,,,,,,,,,,,,,,,,,,,,,,,,,,,,,,,,,,,,,,,,,,,,,,,,,,,,,,,,,,,,,
KBUR,Burbank,,34.1808,-118.3089,2012-05-07 16:53:00,,CLR,10.0,,75,,,,55.0,,50,8.0,110.0,,29.03,0.0,Steady,,,,79.0,70.0,,,,,,,,,,,,,,,,,,,,,,,,,,,,,,,,,,,,,,,,,,,,,,,,,,,,,,,,,,,,,,
KBUR,Burbank,,34.1808,-118.3089,2012-05-07 17:53:00,,CLR,10.0,,75,,,,54.0,,48,7.0,140.0,,29.02,,,,,,,,,,,,,,,,,,,,,,,,,,,,,,,,,,,,,,,,,,,,,,,,,,,,,,,,,,,,,,,,,,,,,
KBUR,Burbank,,34.1808,-118.3089,2012-05-07 18:53:00,,CLR,10.0,,74,,,,56.0,,53,5.0,,,29.02,,,,,,,,,,,,,,,,,,,,,,,,,,,,,,,,,,,,,,,,,,,,,,,,,,,,,,,,,,,,,,,,,,,,,
KBUR,Burbank,,34.1808,-118.3089,2012-05-07 19:53:00,,CLR,10.0,,72,,,,56.0,,57,8.0,120.0,,29.03,0.0,Steady,,,,,,,,,,,,,,,,,,,,,,,,,,,,,,,,,,,,,,,,,,,,,,,,,,,,,,,,,,,,,,,,,,,
KBUR,Burbank,,34.1808,-118.3089,2012-05-07 20:53:00,,CLR,10.0,,68,,,,56.0,,65,7.0,100.0,,29.03,,,,,,,,,,,,,,,,,,,,,,,,,,,,,,,,,,,,,,,,,,,,,,,,,,,,,,,,,,,,,,,,,,,,,
KBUR,Burbank,,34.1808,-118.3089,2012-05-07 21:53:00,,CLR,10.0,,64,,,,56.0,,75,5.0,120.0,,29.05,,,,,,,,,,,,,,,,,,,,,,,,,,,,,,,,,,,,,,,,,,,,,,,,,,,,,,,,,,,,,,,,,,,,,
KBUR,Burbank,,34.1808,-118.3089,2012-05-07 22:53:00,,CLR,10.0,,62,,,,55.0,,78,9.0,120.0,,29.05,1.0,Rising,,,,76.0,62.0,,,,,,,,,,,,,,,,,,,,,,,,,,,,,,,,,,,,,,,,,,,,,,,,,,,,,,,,,,,,,,
KBUR,Burbank,,34.1808,-118.3089,2012-05-07 23:53:00,,CLR,9.0,,60,,,,55.0,,83,9.0,120.0,,29.06,,,,,,,,,,,,,,,,,,,,,,,,,,,,,,,,,,,,,,,,,,,,,,,,,,,,,,,,,,,,,,,,,,,,,
KBUR,Burbank,,34.1808,-118.3089,2012-05-08 00:53:00,,CLR,8.0,,60,,,,55.0,,83,6.0,120.0,,29.07,,,,,,79.0,55.0,,,,,,,,,,,,,,,,,,,,,,,,,,,,,,,,,,,,,,,,,,,,,,,,,,,,,,,,,,,,,,
KBUR,Burbank,,34.1808,-118.3089,2012-05-08 01:53:00,,CLR,8.0,,59,,,,55.0,,87,,,,29.06,0.0,Steady,,,,,,,,,,,,,,,,,,,,,,,,,,,,,,,,,,,,,,,,,,,,,,,,,,,,,,,,,,,,,,,,,,,
KBUR,Burbank,,34.1808,-118.3089,2012-05-08 02:53:00,,CLR,10.0,,57,,,,49.0,,74,3.0,330.0,,29.04,,,,,,,,,,,,,,,,,,,,,,,,,,,,,,,,,,,,,,,,,,,,,,,,,,,,,,,,,,,,,,,,,,,,,
KBUR,Burbank,,34.1808,-118.3089,2012-05-08 03:53:00,,CLR,10.0,,57,,,,51.0,,81,,,,29.03,,,,,,,,,,,,,,,,,,,,,,,,,,,,,,,,,,,,,,,,,,,,,,,,,,,,,,,,,,,,,,,,,,,,,
KBUR,Burbank,,34.1808,-118.3089,2012-05-08 04:53:00,,CLR,10.0,,56,,,,51.0,,84,,,,29.03,2.0,Falling,,,,63.0,55.0,,,,,,,,,,,,,,,,,,,,,,,,,,,,,,,,,,,,,,,,,,,,,,,,,,,,,,,,,,,,,,
KBUR,Burbank,,34.1808,-118.3089,2012-05-08 05:53:00,,CLR,10.0,,54,,,,50.0,,86,,,,29.03,,,,,,,,,,,,,,,,,,,,,,,,,,,,,,,,,,,,,,,,,,,,,,,,,,,,,,,,,,,,,,,,,,,,,
KBUR,Burbank,,34.1808,-118.3089,2012-05-08 06:53:00,,CLR,10.0,,56,,,,52.0,,87,,,,29.04,,,,,,,,,,,,,,,,,,,,,,,,,,,,,,,,,,,,,,,,,,,,,,,,,,,,,,,,,,,,,,,,,,,,,
KBUR,Burbank,,34.1808,-118.3089,2012-05-08 07:53:00,,CLR,10.0,,63,,,,48.0,,58,3.0,,,29.04,1.0,Rising Rapidly,,,,,,,,,,,,,,,,,,,,,,,,,,,,,,,,,,,,,,,,,,,,,,,,,,,,,,,,,,,,,,,,,,,
KBUR,Burbank,,34.1808,-118.3089,2012-05-08 08:53:00,,CLR,9.0,,67,,,,53.0,,61,,,,29.04,,,,,,,,,,,,,,,,,,,,,,,,,,,,,,,,,,,,,,,,,,,,,,,,,,,,,,,,,,,,,,,,,,,,,
KBUR,Burbank,,34.1808,-118.3089,2012-05-08 09:53:00,,CLR,9.0,,71,,,,53.0,,53,5.0,130.0,,29.04,,,,,,,,,,,,,,,,,,,,,,,,,,,,,,,,,,,,,,,,,,,,,,,,,,,,,,,,,,,,,,,,,,,,,
KBUR,Burbank,,34.1808,-118.3089,2012-05-08 10:53:00,,CLR,10.0,,78,,,,51.0,,39,7.0,130.0,,29.03,2.0,Falling Rapidly,,,,81.0,54.0,,,,,,,,,,,,,,,,,,,,,,,,,,,,,,,,,,,,,,,,,,,,,,,,,,,,,,,,,,,,,,
KBUR,Burbank,,34.1808,-118.3089,2012-05-08 11:53:00,,CLR,10.0,,81,,,,53.0,,38,9.0,120.0,,29.02,,,,,,,,,,,,,,,,,,,,,,,,,,,,,,,,,,,,,,,,,,,,,,,,,,,,,,,,,,,,,,,,,,,,,
KBUR,Burbank,,34.1808,-118.3089,2012-05-08 12:53:00,,CLR,10.0,,80,,,,54.0,,40,8.0,110.0,,29.01,,,,,,,,,,,,,,,,,,,,,,,,,,,,,,,,,,,,,,,,,,,,,,,,,,,,,,,,,,,,,,,,,,,,,
KBUR,Burbank,,34.1808,-118.3089,2012-05-08 13:53:00,,CLR,10.0,,80,,,,53.0,,39,15.0,120.0,,28.99,2.0,Falling Rapidly,,,,,,,,,,,,,,,,,,,,,,,,,,,,,,,,,,,,,,,,,,,,,,,,,,,,,,,,,,,,,,,,,,,
KBUR,Burbank,,34.1808,-118.3089,2012-05-08 14:53:00,,CLR,10.0,,81,,,,54.0,,39,10.0,90.0,,28.98,,,,,,,,,,,,,,,,,,,,,,,,,,,,,,,,,,,,,,,,,,,,,,,,,,,,,,,,,,,,,,,,,,,,,
KBUR,Burbank,,34.1808,-118.3089,2012-05-08 15:53:00,,CLR,10.0,,82,,,,52.0,,35,7.0,110.0,,28.96,,,,,,,,,,,,,,,,,,,,,,,,,,,,,,,,,,,,,,,,,,,,,,,,,,,,,,,,,,,,,,,,,,,,,
KBUR,Burbank,,34.1808,-118.3089,2012-05-08 16:53:00,,CLR,10.0,,82,,,,54.0,,38,9.0,110.0,20.0,28.96,2.0,Falling,,,,86.0,78.0,,,,,,,,,,,,,,,,,,,,,,,,,,,,,,,,,,,,,,,,,,,,,,,,,,,,,,,,,,,,,,
KBUR,Burbank,,34.1808,-118.3089,2012-05-08 17:53:00,,CLR,10.0,,78,,,,55.0,,45,8.0,130.0,,28.97,,,,,,,,,,,,,,,,,,,,,,,,,,,,,,,,,,,,,,,,,,,,,,,,,,,,,,,,,,,,,,,,,,,,,
KBUR,Burbank,,34.1808,-118.3089,2012-05-08 18:53:00,,CLR,10.0,,77,,,,56.0,,48,6.0,130.0,,28.97,,,,,,,,,,,,,,,,,,,,,,,,,,,,,,,,,,,,,,,,,,,,,,,,,,,,,,,,,,,,,,,,,,,,,
KBUR,Burbank,,34.1808,-118.3089,2012-05-08 19:53:00,,CLR,10.0,,75,,,,56.0,,51,5.0,120.0,,28.98,1.0,Rising Rapidly,,,,,,,,,,,,,,,,,,,,,,,,,,,,,,,,,,,,,,,,,,,,,,,,,,,,,,,,,,,,,,,,,,,
KBUR,Burbank,,34.1808,-118.3089,2012-05-08 20:53:00,,CLR,10.0,,70,,,,56.0,,61,6.0,130.0,,29.0,,,,,,,,,,,,,,,,,,,,,,,,,,,,,,,,,,,,,,,,,,,,,,,,,,,,,,,,,,,,,,,,,,,,,
KBUR,Burbank,,34.1808,-118.3089,2012-05-08 21:53:00,,CLR,10.0,,66,,,,55.0,,68,8.0,100.0,,29.02,,,,,,,,,,,,,,,,,,,,,,,,,,,,,,,,,,,,,,,,,,,,,,,,,,,,,,,,,,,,,,,,,,,,,
KBUR,Burbank,,34.1808,-118.3089,2012-05-08 22:53:00,,CLR,10.0,,64,,,,54.0,,70,9.0,110.0,,29.03,1.0,Rising,,,,82.0,64.0,,,,,,,,,,,,,,,,,,,,,,,,,,,,,,,,,,,,,,,,,,,,,,,,,,,,,,,,,,,,,,
KBUR,Burbank,,34.1808,-118.3089,2012-05-08 23:53:00,,CLR,10.0,,64,,,,54.0,,70,5.0,110.0,,29.03,,,,,,,,,,,,,,,,,,,,,,,,,,,,,,,,,,,,,,,,,,,,,,,,,,,,,,,,,,,,,,,,,,,,,
KBUR,Burbank,,34.1808,-118.3089,2012-05-09 00:53:00,,CLR,10.0,,62,,,,54.0,,75,,,,29.03,,,,,,86.0,54.0,,,,,,,,,,,,,,,,,,,,,,,,,,,,,,,,,,,,,,,,,,,,,,,,,,,,,,,,,,,,,,
KBUR,Burbank,,34.1808,-118.3089,2012-05-09 01:53:00,,CLR,10.0,,61,,,,54.0,,78,,,,29.02,2.0,Falling Rapidly,,,,,,,,,,,,,,,,,,,,,,,,,,,,,,,,,,,,,,,,,,,,,,,,,,,,,,,,,,,,,,,,,,,
KBUR,Burbank,,34.1808,-118.3089,2012-05-09 02:53:00,,CLR,10.0,,61,,,,49.0,,64,3.0,320.0,,29.01,,,,,,,,,,,,,,,,,,,,,,,,,,,,,,,,,,,,,,,,,,,,,,,,,,,,,,,,,,,,,,,,,,,,,
KBUR,Burbank,,34.1808,-118.3089,2012-05-09 03:53:00,,CLR,10.0,,60,,,,50.0,,69,,,,29.0,,,,,,,,,,,,,,,,,,,,,,,,,,,,,,,,,,,,,,,,,,,,,,,,,,,,,,,,,,,,,,,,,,,,,
KBUR,Burbank,,34.1808,-118.3089,2012-05-09 04:53:00,,CLR,10.0,,59,,,,47.0,,64,,,,29.01,0.0,Steady,,,,64.0,59.0,,,,,,,,,,,,,,,,,,,,,,,,,,,,,,,,,,,,,,,,,,,,,,,,,,,,,,,,,,,,,,
KBUR,Burbank,,34.1808,-118.3089,2012-05-09 05:53:00,,CLR,10.0,,58,,,,45.0,,62,,,,29.01,,,,,,,,,,,,,,,,,,,,,,,,,,,,,,,,,,,,,,,,,,,,,,,,,,,,,,,,,,,,,,,,,,,,,
KBUR,Burbank,,34.1808,-118.3089,2012-05-09 06:53:00,,CLR,10.0,,60,,,,45.0,,57,,,,29.02,,,,,,,,,,,,,,,,,,,,,,,,,,,,,,,,,,,,,,,,,,,,,,,,,,,,,,,,,,,,,,,,,,,,,
KBUR,Burbank,,34.1808,-118.3089,2012-05-09 07:53:00,,CLR,10.0,,65,,,,51.0,,61,3.0,130.0,,29.03,1.0,Rising Rapidly,,,,,,,,,,,,,,,,,,,,,,,,,,,,,,,,,,,,,,,,,,,,,,,,,,,,,,,,,,,,,,,,,,,
KBUR,Burbank,,34.1808,-118.3089,2012-05-09 08:53:00,,CLR,10.0,,69,,,,53.0,,57,5.0,,,29.03,,,,,,,,,,,,,,,,,,,,,,,,,,,,,,,,,,,,,,,,,,,,,,,,,,,,,,,,,,,,,,,,,,,,,
KBUR,Burbank,,34.1808,-118.3089,2012-05-09 09:53:00,,CLR,10.0,,74,,,,50.0,,43,7.0,110.0,,29.03,,,,,,,,,,,,,,,,,,,,,,,,,,,,,,,,,,,,,,,,,,,,,,,,,,,,,,,,,,,,,,,,,,,,,
KBUR,Burbank,,34.1808,-118.3089,2012-05-09 10:53:00,,CLR,10.0,,80,,,,51.0,,36,5.0,140.0,,29.02,2.0,Falling Rapidly,,,,80.0,57.0,,,,,,,,,,,,,,,,,,,,,,,,,,,,,,,,,,,,,,,,,,,,,,,,,,,,,,,,,,,,,,
KBUR,Burbank,,34.1808,-118.3089,2012-05-09 11:53:00,,CLR,10.0,,83,,,,52.0,,34,8.0,100.0,,29.01,,,,,,,,,,,,,,,,,,,,,,,,,,,,,,,,,,,,,,,,,,,,,,,,,,,,,,,,,,,,,,,,,,,,,
KBUR,Burbank,,34.1808,-118.3089,2012-05-09 12:53:00,,CLR,10.0,,83,,,,53.0,,36,12.0,160.0,,28.99,,,,,,,,,,,,,,,,,,,,,,,,,,,,,,,,,,,,,,,,,,,,,,,,,,,,,,,,,,,,,,,,,,,,,
KBUR,Burbank,,34.1808,-118.3089,2012-05-09 13:53:00,,CLR,10.0,,83,,,,52.0,,34,12.0,170.0,,28.98,2.0,Falling Rapidly,,,,,,,,,,,,,,,,,,,,,,,,,,,,,,,,,,,,,,,,,,,,,,,,,,,,,,,,,,,,,,,,,,,
KBUR,Burbank,,34.1808,-118.3089,2012-05-09 14:53:00,,CLR,10.0,,80,,,,56.0,,43,10.0,180.0,,28.97,,,,,,,,,,,,,,,,,,,,,,,,,,,,,,,,,,,,,,,,,,,,,,,,,,,,,,,,,,,,,,,,,,,,,
KBUR,Burbank,,34.1808,-118.3089,2012-05-09 15:53:00,,CLR,10.0,,81,,,,57.0,,44,8.0,180.0,,28.96,,,,,,,,,,,,,,,,,,,,,,,,,,,,,,,,,,,,,,,,,,,,,,,,,,,,,,,,,,,,,,,,,,,,,
KBUR,Burbank,,34.1808,-118.3089,2012-05-09 16:53:00,,CLR,10.0,,83,,,,57.0,,41,8.0,140.0,,28.95,2.0,Falling Rapidly,,,,84.0,79.0,,,,,,,,,,,,,,,,,,,,,,,,,,,,,,,,,,,,,,,,,,,,,,,,,,,,,,,,,,,,,,
KBUR,Burbank,,34.1808,-118.3089,2012-05-09 17:53:00,,CLR,10.0,,82,,,,56.0,,41,8.0,120.0,,28.95,,,,,,,,,,,,,,,,,,,,,,,,,,,,,,,,,,,,,,,,,,,,,,,,,,,,,,,,,,,,,,,,,,,,,
KBUR,Burbank,,34.1808,-118.3089,2012-05-09 18:53:00,,CLR,10.0,,77,,,,56.0,,48,9.0,130.0,,28.95,,,,,,,,,,,,,,,,,,,,,,,,,,,,,,,,,,,,,,,,,,,,,,,,,,,,,,,,,,,,,,,,,,,,,
KBUR,Burbank,,34.1808,-118.3089,2012-05-09 19:53:00,,CLR,10.0,,71,,,,56.0,,59,8.0,120.0,,28.96,1.0,Rising Rapidly,,,,,,,,,,,,,,,,,,,,,,,,,,,,,,,,,,,,,,,,,,,,,,,,,,,,,,,,,,,,,,,,,,,
KBUR,Burbank,,34.1808,-118.3089,2012-05-09 20:53:00,,CLR,10.0,,66,,,,55.0,,68,10.0,120.0,,28.98,,,,,,,,,,,,,,,,,,,,,,,,,,,,,,,,,,,,,,,,,,,,,,,,,,,,,,,,,,,,,,,,,,,,,
KBUR,Burbank,,34.1808,-118.3089,2012-05-09 21:53:00,,CLR,10.0,,64,,,,55.0,,72,9.0,120.0,,29.0,,,,,,,,,,,,,,,,,,,,,,,,,,,,,,,,,,,,,,,,,,,,,,,,,,,,,,,,,,,,,,,,,,,,,
KBUR,Burbank,,34.1808,-118.3089,2012-05-09 22:53:00,,CLR,10.0,,62,,,,53.0,,72,12.0,120.0,,29.01,1.0,Rising,,,,83.0,62.0,,,,,,,,,,,,,,,,,,,,,,,,,,,,,,,,,,,,,,,,,,,,,,,,,,,,,,,,,,,,,,
KBUR,Burbank,,34.1808,-118.3089,2012-05-09 23:53:00,,CLR,10.0,,61,,,,56.0,,83,12.0,130.0,,29.02,,,,,,,,,,,,,,,,,,,,,,,,,,,,,,,,,,,,,,,,,,,,,,,,,,,,,,,,,,,,,,,,,,,,,
KBUR,Burbank,,34.1808,-118.3089,2012-05-10 00:19:00,,BKN,8.0,,61,,,,55.0,,82,7.0,130.0,,29.06,,,,,,,,,,,,,,,,,,,,,,,,,,,,,,,,,,,,,,,,,,,,,,,,,,,,,,,,,,,,,,,,,,,,,
KBUR,Burbank,,34.1808,-118.3089,2012-05-10 00:36:00,,BKN,8.0,,61,,,,55.0,,82,6.0,130.0,,29.06,,,,,,,,,,,,,,,,,,,,,,,,,,,,,,,,,,,,,,,,,,,,,,,,,,,,,,,,,,,,,,,,,,,,,
KBUR,Burbank,,34.1808,-118.3089,2012-05-10 00:53:00,,SCT,7.0,,60,,,,56.0,,86,7.0,130.0,,29.03,,,,,,84.0,57.0,,,,,,,,,,,,,,,,,,,,,,,,,,,,,,,,,,,,,,,,,,,,,,,,,,,,,,,,,,,,,,
KBUR,Burbank,,34.1808,-118.3089,2012-05-10 01:23:00,,BKN,8.0,,61,,,,55.0,,82,6.0,100.0,,29.05,,,,,,,,,,,,,,,,,,,,,,,,,,,,,,,,,,,,,,,,,,,,,,,,,,,,,,,,,,,,,,,,,,,,,
KBUR,Burbank,,34.1808,-118.3089,2012-05-10 01:53:00,,BKN,7.0,,60,,,,56.0,,86,5.0,90.0,,29.01,0.0,Steady,,,,,,,,,,,,,,,,,,,,,,,,,,,,,,,,,,,,,,,,,,,,,,,,,,,,,,,,,,,,,,,,,,,
KBUR,Burbank,,34.1808,-118.3089,2012-05-10 02:53:00,,OVC,7.0,,59,,,,56.0,,90,6.0,150.0,,29.02,,,,,,,,,,,,,,,,,,,,,,,,,,,,,,,,,,,,,,,,,,,,,,,,,,,,,,,,,,,,,,,,,,,,,
KBUR,Burbank,,34.1808,-118.3089,2012-05-10 03:53:00,,OVC,7.0,,59,,,,55.0,,87,7.0,150.0,,29.02,,,,,,,,,,,,,,,,,,,,,,,,,,,,,,,,,,,,,,,,,,,,,,,,,,,,,,,,,,,,,,,,,,,,,
KBUR,Burbank,,34.1808,-118.3089,2012-05-10 04:53:00,,OVC,7.0,,59,,,,55.0,,87,5.0,130.0,,29.02,0.0,Steady,,,,62.0,58.0,,,,,,,,,,,,,,,,,,,,,,,,,,,,,,,,,,,,,,,,,,,,,,,,,,,,,,,,,,,,,,
KBUR,Burbank,,34.1808,-118.3089,2012-05-10 05:53:00,,OVC,7.0,,59,,,,55.0,,87,5.0,100.0,,29.03,,,,,,,,,,,,,,,,,,,,,,,,,,,,,,,,,,,,,,,,,,,,,,,,,,,,,,,,,,,,,,,,,,,,,
KBUR,Burbank,,34.1808,-118.3089,2012-05-10 06:53:00,,OVC,5.0,,59,,,,55.0,,87,5.0,110.0,,29.04,,,,,,,,,,,,,,,,,,,,,,,,,,,,,,,,,,,,,,,,,,,,,,,,,,,,,,,,,,,,,,,,,,,,,
KBUR,Burbank,,34.1808,-118.3089,2012-05-10 07:36:00,,OVC,5.0,,59,,,,55.0,,88,5.0,150.0,,29.07,,,,,,,,,,,,,,,,,,,,,,,,,,,,,,,,,,,,,,,,,,,,,,,,,,,,,,,,,,,,,,,,,,,,,
KBUR,Burbank,,34.1808,-118.3089,2012-05-10 07:53:00,,OVC,5.0,,59,,,,55.0,,87,3.0,160.0,,29.04,0.0,Steady,,,,,,,,,,,,,,,,,,,,,,,,,,,,,,,,,,,,,,,,,,,,,,,,,,,,,,,,,,,,,,,,,,,
KBUR,Burbank,,34.1808,-118.3089,2012-05-10 08:53:00,,OVC,6.0,,62,,,,55.0,,78,7.0,160.0,,29.05,,,,,,,,,,,,,,,,,,,,,,,,,,,,,,,,,,,,,,,,,,,,,,,,,,,,,,,,,,,,,,,,,,,,,
KBUR,Burbank,,34.1808,-118.3089,2012-05-10 09:41:00,,OVC,6.0,,63,,,,55.0,,77,5.0,150.0,,29.08,,,,,,,,,,,,,,,,,,,,,,,,,,,,,,,,,,,,,,,,,,,,,,,,,,,,,,,,,,,,,,,,,,,,,
KBUR,Burbank,,34.1808,-118.3089,2012-05-10 09:53:00,,OVC,7.0,,64,,,,55.0,,72,6.0,230.0,,29.05,,,,,,,,,,,,,,,,,,,,,,,,,,,,,,,,,,,,,,,,,,,,,,,,,,,,,,,,,,,,,,,,,,,,,
KBUR,Burbank,,34.1808,-118.3089,2012-05-10 10:17:00,,SCT,7.0,,64,,,,55.0,,73,3.0,,,29.08,,,,,,,,,,,,,,,,,,,,,,,,,,,,,,,,,,,,,,,,,,,,,,,,,,,,,,,,,,,,,,,,,,,,,
KBUR,Burbank,,34.1808,-118.3089,2012-05-10 10:53:00,,CLR,6.0,,68,,,,55.0,,63,6.0,140.0,,29.05,0.0,Steady,,,,69.0,58.0,,,,,,,,,,,,,,,,,,,,,,,,,,,,,,,,,,,,,,,,,,,,,,,,,,,,,,,,,,,,,,
KBUR,Burbank,,34.1808,-118.3089,2012-05-10 11:53:00,,CLR,6.0,,72,,,,55.0,,55,10.0,130.0,17.0,29.04,,,,,,,,,,,,,,,,,,,,,,,,,,,,,,,,,,,,,,,,,,,,,,,,,,,,,,,,,,,,,,,,,,,,,
KBUR,Burbank,,34.1808,-118.3089,2012-05-10 12:53:00,,CLR,7.0,,73,,,,55.0,,53,12.0,150.0,17.0,29.02,,,,,,,,,,,,,,,,,,,,,,,,,,,,,,,,,,,,,,,,,,,,,,,,,,,,,,,,,,,,,,,,,,,,,
KBUR,Burbank,,34.1808,-118.3089,2012-05-10 13:53:00,,CLR,10.0,,75,,,,56.0,,51,12.0,180.0,,29.01,2.0,Falling Rapidly,,,,,,,,,,,,,,,,,,,,,,,,,,,,,,,,,,,,,,,,,,,,,,,,,,,,,,,,,,,,,,,,,,,
KBUR,Burbank,,34.1808,-118.3089,2012-05-10 14:53:00,,CLR,7.0,,73,,,,55.0,,53,13.0,170.0,16.0,29.01,,,,,,,,,,,,,,,,,,,,,,,,,,,,,,,,,,,,,,,,,,,,,,,,,,,,,,,,,,,,,,,,,,,,,
KBUR,Burbank,,34.1808,-118.3089,2012-05-10 15:53:00,,CLR,8.0,,73,,,,55.0,,53,10.0,190.0,,29.0,,,,,,,,,,,,,,,,,,,,,,,,,,,,,,,,,,,,,,,,,,,,,,,,,,,,,,,,,,,,,,,,,,,,,
KBUR,Burbank,,34.1808,-118.3089,2012-05-10 16:53:00,,CLR,10.0,,71,,,,54.0,,55,10.0,180.0,,29.0,2.0,Falling,,,,75.0,68.0,,,,,,,,,,,,,,,,,,,,,,,,,,,,,,,,,,,,,,,,,,,,,,,,,,,,,,,,,,,,,,
KBUR,Burbank,,34.1808,-118.3089,2012-05-10 17:53:00,,CLR,10.0,,68,,,,54.0,,61,9.0,170.0,,29.0,,,,,,,,,,,,,,,,,,,,,,,,,,,,,,,,,,,,,,,,,,,,,,,,,,,,,,,,,,,,,,,,,,,,,
KBUR,Burbank,,34.1808,-118.3089,2012-05-10 18:53:00,,CLR,10.0,,65,,,,54.0,,68,8.0,190.0,,29.01,,,,,,,,,,,,,,,,,,,,,,,,,,,,,,,,,,,,,,,,,,,,,,,,,,,,,,,,,,,,,,,,,,,,,
KBUR,Burbank,,34.1808,-118.3089,2012-05-10 19:53:00,,CLR,10.0,,63,,,,54.0,,72,6.0,180.0,,29.03,1.0,Rising Rapidly,,,,,,,,,,,,,,,,,,,,,,,,,,,,,,,,,,,,,,,,,,,,,,,,,,,,,,,,,,,,,,,,,,,
KBUR,Burbank,,34.1808,-118.3089,2012-05-10 20:53:00,,CLR,10.0,,61,,,,54.0,,78,7.0,170.0,,29.04,,,,,,,,,,,,,,,,,,,,,,,,,,,,,,,,,,,,,,,,,,,,,,,,,,,,,,,,,,,,,,,,,,,,,
KBUR,Burbank,,34.1808,-118.3089,2012-05-10 21:53:00,,SCT,9.0,,59,,,,54.0,,83,7.0,140.0,,29.05,,,,,,,,,,,,,,,,,,,,,,,,,,,,,,,,,,,,,,,,,,,,,,,,,,,,,,,,,,,,,,,,,,,,,
KBUR,Burbank,,34.1808,-118.3089,2012-05-10 22:53:00,,SCT,9.0,,60,,,,53.0,,78,6.0,140.0,,29.06,1.0,Rising,,,,71.0,59.0,,,,,,,,,,,,,,,,,,,,,,,,,,,,,,,,,,,,,,,,,,,,,,,,,,,,,,,,,,,,,,
KBUR,Burbank,,34.1808,-118.3089,2012-05-10 23:00:00,,OVC,9.0,,61,,,,54.0,,77,6.0,140.0,,29.09,,,,,,,,,,,,,,,,,,,,,,,,,,,,,,,,,,,,,,,,,,,,,,,,,,,,,,,,,,,,,,,,,,,,,
KBUR,Burbank,,34.1808,-118.3089,2012-05-10 23:53:00,,OVC,8.0,,59,,,,53.0,,81,7.0,140.0,,29.06,,,,,,,,,,,,,,,,,,,,,,,,,,,,,,,,,,,,,,,,,,,,,,,,,,,,,,,,,,,,,,,,,,,,,
KBUR,Burbank,,34.1808,-118.3089,2012-05-11 00:53:00,,OVC,9.0,,58,,,,52.0,,81,6.0,170.0,,29.06,,,,,,75.0,58.0,,,,,,,,,,,,,,,,,,,,,,,,,,,,,,,,,,,,,,,,,,,,,,,,,,,,,,,,,,,,,,
KBUR,Burbank,,34.1808,-118.3089,2012-05-11 01:09:00,,OVC,9.0,,59,,,,52.0,,77,,,,29.09,,,,,,,,,,,,,,,,,,,,,,,,,,,,,,,,,,,,,,,,,,,,,,,,,,,,,,,,,,,,,,,,,,,,,
KBUR,Burbank,,34.1808,-118.3089,2012-05-11 01:53:00,,OVC,10.0,,58,,,,52.0,,81,5.0,190.0,,29.05,2.0,Falling Rapidly,,,,,,,,,,,,,,,,,,,,,,,,,,,,,,,,,,,,,,,,,,,,,,,,,,,,,,,,,,,,,,,,,,,
KBUR,Burbank,,34.1808,-118.3089,2012-05-11 02:53:00,,OVC,10.0,,58,,,,51.0,,78,6.0,170.0,,29.04,,,,,,,,,,,,,,,,,,,,,,,,,,,,,,,,,,,,,,,,,,,,,,,,,,,,,,,,,,,,,,,,,,,,,
KBUR,Burbank,,34.1808,-118.3089,2012-05-11 03:53:00,,OVC,10.0,,57,,,,51.0,,81,6.0,170.0,,29.04,,,,,,,,,,,,,,,,,,,,,,,,,,,,,,,,,,,,,,,,,,,,,,,,,,,,,,,,,,,,,,,,,,,,,
KBUR,Burbank,,34.1808,-118.3089,2012-05-11 04:53:00,,OVC,10.0,,57,,,,50.0,,77,6.0,160.0,,29.04,2.0,Falling,,,,60.0,57.0,,,,,,,,,,,,,,,,,,,,,,,,,,,,,,,,,,,,,,,,,,,,,,,,,,,,,,,,,,,,,,
KBUR,Burbank,,34.1808,-118.3089,2012-05-11 05:53:00,,OVC,10.0,,57,,,,50.0,,77,3.0,170.0,,29.05,,,,,,,,,,,,,,,,,,,,,,,,,,,,,,,,,,,,,,,,,,,,,,,,,,,,,,,,,,,,,,,,,,,,,
KBUR,Burbank,,34.1808,-118.3089,2012-05-11 06:53:00,,OVC,7.0,,57,,,,50.0,,77,6.0,180.0,,29.07,,,,,,,,,,,,,,,,,,,,,,,,,,,,,,,,,,,,,,,,,,,,,,,,,,,,,,,,,,,,,,,,,,,,,
KBUR,Burbank,,34.1808,-118.3089,2012-05-11 07:53:00,,OVC,7.0,,57,,,,50.0,,77,5.0,170.0,,29.09,1.0,Rising Rapidly,,,,,,,,,,,,,,,,,,,,,,,,,,,,,,,,,,,,,,,,,,,,,,,,,,,,,,,,,,,,,,,,,,,
KBUR,Burbank,,34.1808,-118.3089,2012-05-11 08:53:00,,OVC,7.0,,58,,,,50.0,,75,6.0,160.0,,29.1,,,,,,,,,,,,,,,,,,,,,,,,,,,,,,,,,,,,,,,,,,,,,,,,,,,,,,,,,,,,,,,,,,,,,
KBUR,Burbank,,34.1808,-118.3089,2012-05-11 09:53:00,,OVC,8.0,,59,,,,50.0,,72,3.0,220.0,,29.11,,,,,,,,,,,,,,,,,,,,,,,,,,,,,,,,,,,,,,,,,,,,,,,,,,,,,,,,,,,,,,,,,,,,,
KBUR,Burbank,,34.1808,-118.3089,2012-05-11 10:53:00,,BKN,10.0,,62,,,,50.0,,65,7.0,180.0,,29.11,1.0,Rising,,,,63.0,57.0,,,,,,,,,,,,,,,,,,,,,,,,,,,,,,,,,,,,,,,,,,,,,,,,,,,,,,,,,,,,,,
KBUR,Burbank,,34.1808,-118.3089,2012-05-11 11:04:00,,FEW,6.0,,63,,,,50.0,,63,5.0,,,29.14,,,,,,,,,,,,,,,,,,,,,,,,,,,,,,,,,,,,,,,,,,,,,,,,,,,,,,,,,,,,,,,,,,,,,
KBUR,Burbank,,34.1808,-118.3089,2012-05-11 11:53:00,,FEW,6.0,,66,,,,50.0,,56,3.0,,,29.11,,,,,,,,,,,,,,,,,,,,,,,,,,,,,,,,,,,,,,,,,,,,,,,,,,,,,,,,,,,,,,,,,,,,,
KBUR,Burbank,,34.1808,-118.3089,2012-05-11 12:53:00,,CLR,10.0,,70,,,,50.0,,49,7.0,,,29.09,,,,,,,,,,,,,,,,,,,,,,,,,,,,,,,,,,,,,,,,,,,,,,,,,,,,,,,,,,,,,,,,,,,,,
KBUR,Burbank,,34.1808,-118.3089,2012-05-11 13:53:00,,CLR,10.0,,73,,,,50.0,,44,8.0,150.0,,29.08,2.0,Falling Rapidly,,,,,,,,,,,,,,,,,,,,,,,,,,,,,,,,,,,,,,,,,,,,,,,,,,,,,,,,,,,,,,,,,,,
KBUR,Burbank,,34.1808,-118.3089,2012-05-11 14:53:00,,CLR,10.0,,72,,,,51.0,,48,7.0,,,29.08,,,,,,,,,,,,,,,,,,,,,,,,,,,,,,,,,,,,,,,,,,,,,,,,,,,,,,,,,,,,,,,,,,,,,
KBUR,Burbank,,34.1808,-118.3089,2012-05-11 15:53:00,,CLR,10.0,,73,,,,51.0,,46,12.0,180.0,,29.06,,,,,,,,,,,,,,,,,,,,,,,,,,,,,,,,,,,,,,,,,,,,,,,,,,,,,,,,,,,,,,,,,,,,,
KBUR,Burbank,,34.1808,-118.3089,2012-05-11 16:53:00,,CLR,10.0,,71,,,,51.0,,49,10.0,180.0,,29.07,0.0,Steady,,,,73.0,62.0,,,,,,,,,,,,,,,,,,,,,,,,,,,,,,,,,,,,,,,,,,,,,,,,,,,,,,,,,,,,,,
KBUR,Burbank,,34.1808,-118.3089,2012-05-11 17:53:00,,CLR,10.0,,69,,,,52.0,,54,10.0,200.0,,29.07,,,,,,,,,,,,,,,,,,,,,,,,,,,,,,,,,,,,,,,,,,,,,,,,,,,,,,,,,,,,,,,,,,,,,
KBUR,Burbank,,34.1808,-118.3089,2012-05-11 18:53:00,,CLR,10.0,,66,,,,51.0,,59,9.0,190.0,,29.08,,,,,,,,,,,,,,,,,,,,,,,,,,,,,,,,,,,,,,,,,,,,,,,,,,,,,,,,,,,,,,,,,,,,,
KBUR,Burbank,,34.1808,-118.3089,2012-05-11 19:53:00,,CLR,10.0,,62,,,,53.0,,72,8.0,180.0,,29.1,1.0,Rising Rapidly,,,,,,,,,,,,,,,,,,,,,,,,,,,,,,,,,,,,,,,,,,,,,,,,,,,,,,,,,,,,,,,,,,,
KBUR,Burbank,,34.1808,-118.3089,2012-05-11 20:53:00,,CLR,10.0,,59,,,,53.0,,81,6.0,170.0,,29.13,,,,,,,,,,,,,,,,,,,,,,,,,,,,,,,,,,,,,,,,,,,,,,,,,,,,,,,,,,,,,,,,,,,,,
KBUR,Burbank,,34.1808,-118.3089,2012-05-11 21:53:00,,CLR,10.0,,58,,,,53.0,,84,5.0,180.0,,29.15,,,,,,,,,,,,,,,,,,,,,,,,,,,,,,,,,,,,,,,,,,,,,,,,,,,,,,,,,,,,,,,,,,,,,
KBUR,Burbank,,34.1808,-118.3089,2012-05-11 22:53:00,,CLR,10.0,,57,,,,53.0,,87,3.0,180.0,,29.16,1.0,Rising,,,,71.0,57.0,,,,,,,,,,,,,,,,,,,,,,,,,,,,,,,,,,,,,,,,,,,,,,,,,,,,,,,,,,,,,,
KBUR,Burbank,,34.1808,-118.3089,2012-05-11 23:53:00,,CLR,10.0,,57,,,,53.0,,87,3.0,170.0,,29.16,,,,,,,,,,,,,,,,,,,,,,,,,,,,,,,,,,,,,,,,,,,,,,,,,,,,,,,,,,,,,,,,,,,,,
KBUR,Burbank,,34.1808,-118.3089,2012-05-12 00:53:00,,BKN,8.0,,56,,,,53.0,,90,5.0,180.0,,29.17,,,,,,73.0,56.0,,,,,,,,,,,,,,,,,,,,,,,,,,,,,,,,,,,,,,,,,,,,,,,,,,,,,,,,,,,,,,
KBUR,Burbank,,34.1808,-118.3089,2012-05-12 01:00:00,,BKN,8.0,,55,,,,54.0,,94,5.0,180.0,,29.2,,,,,,,,,,,,,,,,,,,,,,,,,,,,,,,,,,,,,,,,,,,,,,,,,,,,,,,,,,,,,,,,,,,,,
KBUR,Burbank,,34.1808,-118.3089,2012-05-12 01:53:00,,OVC,8.0,,57,,,,53.0,,87,5.0,180.0,,29.15,2.0,Falling Rapidly,,,,,,,,,,,,,,,,,,,,,,,,,,,,,,,,,,,,,,,,,,,,,,,,,,,,,,,,,,,,,,,,,,,
KBUR,Burbank,,34.1808,-118.3089,2012-05-12 02:20:00,,OVC,8.0,,57,,,,54.0,,88,,,,29.18,,,,,,,,,,,,,,,,,,,,,,,,,,,,,,,,,,,,,,,,,,,,,,,,,,,,,,,,,,,,,,,,,,,,,
KBUR,Burbank,,34.1808,-118.3089,2012-05-12 02:53:00,,OVC,8.0,,57,,,,53.0,,87,,,,29.14,,,,,,,,,,,,,,,,,,,,,,,,,,,,,,,,,,,,,,,,,,,,,,,,,,,,,,,,,,,,,,,,,,,,,
KBUR,Burbank,,34.1808,-118.3089,2012-05-12 03:53:00,,OVC,5.0,,57,,,,53.0,,87,,,,29.14,,,,,,,,,,,,,,,,,,,,,,,,,,,,,,,,,,,,,,,,,,,,,,,,,,,,,,,,,,,,,,,,,,,,,
KBUR,Burbank,,34.1808,-118.3089,2012-05-12 04:53:00,,OVC,5.0,,57,,,,52.0,,83,,,,29.14,0.0,Steady,,,,58.0,56.0,,,,,,,,,,,,,,,,,,,,,,,,,,,,,,,,,,,,,,,,,,,,,,,,,,,,,,,,,,,,,,
KBUR,Burbank,,34.1808,-118.3089,2012-05-12 05:53:00,,OVC,5.0,,57,,,,52.0,,83,3.0,320.0,,29.15,,,,,,,,,,,,,,,,,,,,,,,,,,,,,,,,,,,,,,,,,,,,,,,,,,,,,,,,,,,,,,,,,,,,,
KBUR,Burbank,,34.1808,-118.3089,2012-05-12 06:53:00,,OVC,5.0,,56,,,,52.0,,87,6.0,360.0,,29.17,,,,,,,,,,,,,,,,,,,,,,,,,,,,,,,,,,,,,,,,,,,,,,,,,,,,,,,,,,,,,,,,,,,,,
KBUR,Burbank,,34.1808,-118.3089,2012-05-12 07:53:00,,BKN,5.0,,57,,,,53.0,,87,,,,29.18,1.0,Rising,,,,,,,,,,,,,,,,,,,,,,,,,,,,,,,,,,,,,,,,,,,,,,,,,,,,,,,,,,,,,,,,,,,
KBUR,Burbank,,34.1808,-118.3089,2012-05-12 08:18:00,,FEW,5.0,,57,,,,54.0,,88,,,,29.21,,,,,,,,,,,,,,,,,,,,,,,,,,,,,,,,,,,,,,,,,,,,,,,,,,,,,,,,,,,,,,,,,,,,,
KBUR,Burbank,,34.1808,-118.3089,2012-05-12 08:53:00,,FEW,6.0,,60,,,,53.0,,78,,,,29.19,,,,,,,,,,,,,,,,,,,,,,,,,,,,,,,,,,,,,,,,,,,,,,,,,,,,,,,,,,,,,,,,,,,,,
KBUR,Burbank,,34.1808,-118.3089,2012-05-12 09:53:00,,CLR,6.0,,64,,,,54.0,,70,,,,29.19,,,,,,,,,,,,,,,,,,,,,,,,,,,,,,,,,,,,,,,,,,,,,,,,,,,,,,,,,,,,,,,,,,,,,
KBUR,Burbank,,34.1808,-118.3089,2012-05-12 10:53:00,,CLR,7.0,,68,,,,54.0,,61,3.0,190.0,,29.19,0.0,Steady,,,,68.0,56.0,,,,,,,,,,,,,,,,,,,,,,,,,,,,,,,,,,,,,,,,,,,,,,,,,,,,,,,,,,,,,,
KBUR,Burbank,,34.1808,-118.3089,2012-05-12 11:53:00,,CLR,7.0,,71,,,,55.0,,57,5.0,,,29.18,,,,,,,,,,,,,,,,,,,,,,,,,,,,,,,,,,,,,,,,,,,,,,,,,,,,,,,,,,,,,,,,,,,,,
KBUR,Burbank,,34.1808,-118.3089,2012-05-12 12:53:00,,CLR,10.0,,74,,,,54.0,,50,10.0,180.0,,29.16,,,,,,,,,,,,,,,,,,,,,,,,,,,,,,,,,,,,,,,,,,,,,,,,,,,,,,,,,,,,,,,,,,,,,
KBUR,Burbank,,34.1808,-118.3089,2012-05-12 13:53:00,,CLR,10.0,,74,,,,54.0,,50,12.0,190.0,,29.16,2.0,Falling,,,,,,,,,,,,,,,,,,,,,,,,,,,,,,,,,,,,,,,,,,,,,,,,,,,,,,,,,,,,,,,,,,,
KBUR,Burbank,,34.1808,-118.3089,2012-05-12 14:53:00,,CLR,10.0,,73,,,,54.0,,51,12.0,180.0,,29.15,,,,,,,,,,,,,,,,,,,,,,,,,,,,,,,,,,,,,,,,,,,,,,,,,,,,,,,,,,,,,,,,,,,,,
KBUR,Burbank,,34.1808,-118.3089,2012-05-12 15:53:00,,CLR,10.0,,71,,,,54.0,,55,10.0,180.0,,29.15,,,,,,,,,,,,,,,,,,,,,,,,,,,,,,,,,,,,,,,,,,,,,,,,,,,,,,,,,,,,,,,,,,,,,
KBUR,Burbank,,34.1808,-118.3089,2012-05-12 16:53:00,,CLR,10.0,,70,,,,55.0,,59,12.0,170.0,,29.15,2.0,Falling Rapidly,,,,75.0,68.0,,,,,,,,,,,,,,,,,,,,,,,,,,,,,,,,,,,,,,,,,,,,,,,,,,,,,,,,,,,,,,
KBUR,Burbank,,34.1808,-118.3089,2012-05-12 17:53:00,,CLR,10.0,,68,,,,54.0,,61,8.0,180.0,,29.15,,,,,,,,,,,,,,,,,,,,,,,,,,,,,,,,,,,,,,,,,,,,,,,,,,,,,,,,,,,,,,,,,,,,,
KBUR,Burbank,,34.1808,-118.3089,2012-05-12 18:53:00,,CLR,10.0,,66,,,,53.0,,63,9.0,170.0,,29.16,,,,,,,,,,,,,,,,,,,,,,,,,,,,,,,,,,,,,,,,,,,,,,,,,,,,,,,,,,,,,,,,,,,,,
KBUR,Burbank,,34.1808,-118.3089,2012-05-12 19:53:00,,CLR,10.0,,62,,,,53.0,,72,6.0,160.0,,29.17,1.0,Rising Rapidly,,,,,,,,,,,,,,,,,,,,,,,,,,,,,,,,,,,,,,,,,,,,,,,,,,,,,,,,,,,,,,,,,,,
KBUR,Burbank,,34.1808,-118.3089,2012-05-12 20:53:00,,CLR,10.0,,61,,,,53.0,,75,9.0,130.0,,29.19,,,,,,,,,,,,,,,,,,,,,,,,,,,,,,,,,,,,,,,,,,,,,,,,,,,,,,,,,,,,,,,,,,,,,
KBUR,Burbank,,34.1808,-118.3089,2012-05-12 21:53:00,,CLR,10.0,,58,,,,53.0,,84,6.0,180.0,,29.21,,,,,,,,,,,,,,,,,,,,,,,,,,,,,,,,,,,,,,,,,,,,,,,,,,,,,,,,,,,,,,,,,,,,,
KBUR,Burbank,,34.1808,-118.3089,2012-05-12 22:53:00,,CLR,10.0,,57,,,,53.0,,87,6.0,130.0,,29.22,1.0,Rising,,,,70.0,57.0,,,,,,,,,,,,,,,,,,,,,,,,,,,,,,,,,,,,,,,,,,,,,,,,,,,,,,,,,,,,,,
KBUR,Burbank,,34.1808,-118.3089,2012-05-12 23:53:00,,CLR,8.0,,56,,,,53.0,,90,5.0,180.0,,29.23,,,,,,,,,,,,,,,,,,,,,,,,,,,,,,,,,,,,,,,,,,,,,,,,,,,,,,,,,,,,,,,,,,,,,
KBUR,Burbank,,34.1808,-118.3089,2012-05-13 00:53:00,,CLR,8.0,,56,,,,53.0,,90,5.0,100.0,,29.21,,,,,,75.0,56.0,,,,,,,,,,,,,,,,,,,,,,,,,,,,,,,,,,,,,,,,,,,,,,,,,,,,,,,,,,,,,,
KBUR,Burbank,,34.1808,-118.3089,2012-05-13 01:27:00,,SCT,7.0,,55,,,,54.0,,94,3.0,100.0,,29.23,,,,,,,,,,,,,,,,,,,,,,,,,,,,,,,,,,,,,,,,,,,,,,,,,,,,,,,,,,,,,,,,,,,,,
KBUR,Burbank,,34.1808,-118.3089,2012-05-13 01:53:00,,FEW,7.0,,56,,,,53.0,,90,,,,29.19,2.0,Falling Rapidly,,,,,,,,,,,,,,,,,,,,,,,,,,,,,,,,,,,,,,,,,,,,,,,,,,,,,,,,,,,,,,,,,,,
KBUR,Burbank,,34.1808,-118.3089,2012-05-13 02:53:00,,CLR,7.0,,56,,,,53.0,,90,,,,29.19,,,,,,,,,,,,,,,,,,,,,,,,,,,,,,,,,,,,,,,,,,,,,,,,,,,,,,,,,,,,,,,,,,,,,
KBUR,Burbank,,34.1808,-118.3089,2012-05-13 03:38:00,,FEW,6.0,,55,,,,54.0,,94,,,,29.22,,,,,,,,,,,,,,,,,,,,,,,,,,,,,,,,,,,,,,,,,,,,,,,,,,,,,,,,,,,,,,,,,,,,,
KBUR,Burbank,,34.1808,-118.3089,2012-05-13 03:53:00,,SCT,6.0,,55,,,,53.0,,93,3.0,180.0,,29.19,,,,,,,,,,,,,,,,,,,,,,,,,,,,,,,,,,,,,,,,,,,,,,,,,,,,,,,,,,,,,,,,,,,,,
KBUR,Burbank,,34.1808,-118.3089,2012-05-13 04:00:00,,BKN,6.0,,55,,,,54.0,,94,3.0,160.0,,29.22,,,,,,,,,,,,,,,,,,,,,,,,,,,,,,,,,,,,,,,,,,,,,,,,,,,,,,,,,,,,,,,,,,,,,
KBUR,Burbank,,34.1808,-118.3089,2012-05-13 04:09:00,,SCT,6.0,,55,,,,54.0,,94,,,,29.22,,,,,,,,,,,,,,,,,,,,,,,,,,,,,,,,,,,,,,,,,,,,,,,,,,,,,,,,,,,,,,,,,,,,,
KBUR,Burbank,,34.1808,-118.3089,2012-05-13 04:30:00,,BKN,5.0,,55,,,,54.0,,94,3.0,200.0,,29.22,,,,,,,,,,,,,,,,,,,,,,,,,,,,,,,,,,,,,,,,,,,,,,,,,,,,,,,,,,,,,,,,,,,,,
KBUR,Burbank,,34.1808,-118.3089,2012-05-13 04:53:00,,OVC,5.0,,55,,,,53.0,,93,,,,29.19,2.0,Falling Rapidly,,,,57.0,55.0,,,,,,,,,,,,,,,,,,,,,,,,,,,,,,,,,,,,,,,,,,,,,,,,,,,,,,,,,,,,,,
KBUR,Burbank,,34.1808,-118.3089,2012-05-13 05:16:00,,OVC,4.0,,54,,,,54.0,,100,,,,29.21,,,,,,,,,,,,,,,,,,,,,,,,,,,,,,,,,,,,,,,,,,,,,,,,,,,,,,,,,,,,,,,,,,,,,
KBUR,Burbank,,34.1808,-118.3089,2012-05-13 05:25:00,,OVC,4.0,,54,,,,54.0,,100,,,,29.21,,,,,,,,,,,,,,,,,,,,,,,,,,,,,,,,,,,,,,,,,,,,,,,,,,,,,,,,,,,,,,,,,,,,,
KBUR,Burbank,,34.1808,-118.3089,2012-05-13 05:53:00,,OVC,4.0,,54,,,,53.0,,97,,,,29.19,,,,,,,,,,,,,,,,,,,,,,,,,,,,,,,,,,,,,,,,,,,,,,,,,,,,,,,,,,,,,,,,,,,,,
KBUR,Burbank,,34.1808,-118.3089,2012-05-13 06:53:00,,OVC,3.0,,55,,,,53.0,,93,,,,29.2,,,,,,,,,,,,,,,,,,,,,,,,,,,,,,,,,,,,,,,,,,,,,,,,,,,,,,,,,,,,,,,,,,,,,
KBUR,Burbank,,34.1808,-118.3089,2012-05-13 07:53:00,,OVC,2.0,,55,,,,53.0,,93,,,,29.21,1.0,Rising Rapidly,,,,,,,,,,,,,,,,,,,,,,,,,,,,,,,,,,,,,,,,,,,,,,,,,,,,,,,,,,,,,,,,,,,
KBUR,Burbank,,34.1808,-118.3089,2012-05-13 08:53:00,,BKN,3.0,,58,,,,53.0,,84,5.0,,,29.22,,,,,,,,,,,,,,,,,,,,,,,,,,,,,,,,,,,,,,,,,,,,,,,,,,,,,,,,,,,,,,,,,,,,,
KBUR,Burbank,,34.1808,-118.3089,2012-05-13 09:13:00,,SCT,4.0,,59,,,,54.0,,82,,,,29.24,,,,,,,,,,,,,,,,,,,,,,,,,,,,,,,,,,,,,,,,,,,,,,,,,,,,,,,,,,,,,,,,,,,,,
KBUR,Burbank,,34.1808,-118.3089,2012-05-13 09:53:00,,CLR,5.0,,62,,,,53.0,,72,6.0,180.0,,29.2,,,,,,,,,,,,,,,,,,,,,,,,,,,,,,,,,,,,,,,,,,,,,,,,,,,,,,,,,,,,,,,,,,,,,
KBUR,Burbank,,34.1808,-118.3089,2012-05-13 10:53:00,,CLR,5.0,,67,,,,54.0,,63,6.0,120.0,,29.2,2.0,Falling Rapidly,,,,67.0,54.0,,,,,,,,,,,,,,,,,,,,,,,,,,,,,,,,,,,,,,,,,,,,,,,,,,,,,,,,,,,,,,
KBUR,Burbank,,34.1808,-118.3089,2012-05-13 11:53:00,,CLR,10.0,,71,,,,54.0,,55,5.0,,,29.19,,,,,,,,,,,,,,,,,,,,,,,,,,,,,,,,,,,,,,,,,,,,,,,,,,,,,,,,,,,,,,,,,,,,,
KBUR,Burbank,,34.1808,-118.3089,2012-05-13 12:53:00,,CLR,10.0,,71,,,,54.0,,55,8.0,180.0,,29.17,,,,,,,,,,,,,,,,,,,,,,,,,,,,,,,,,,,,,,,,,,,,,,,,,,,,,,,,,,,,,,,,,,,,,
KBUR,Burbank,,34.1808,-118.3089,2012-05-13 13:53:00,,CLR,10.0,,75,,,,55.0,,50,9.0,160.0,,29.15,2.0,Falling Rapidly,,,,,,,,,,,,,,,,,,,,,,,,,,,,,,,,,,,,,,,,,,,,,,,,,,,,,,,,,,,,,,,,,,,
KBUR,Burbank,,34.1808,-118.3089,2012-05-13 14:53:00,,CLR,10.0,,73,,,,55.0,,53,12.0,180.0,,29.14,,,,,,,,,,,,,,,,,,,,,,,,,,,,,,,,,,,,,,,,,,,,,,,,,,,,,,,,,,,,,,,,,,,,,
KBUR,Burbank,,34.1808,-118.3089,2012-05-13 15:53:00,,CLR,10.0,,71,,,,54.0,,55,13.0,180.0,,29.13,,,,,,,,,,,,,,,,,,,,,,,,,,,,,,,,,,,,,,,,,,,,,,,,,,,,,,,,,,,,,,,,,,,,,
KBUR,Burbank,,34.1808,-118.3089,2012-05-13 16:53:00,,CLR,10.0,,72,,,,54.0,,53,9.0,160.0,,29.13,2.0,Falling,,,,77.0,67.0,,,,,,,,,,,,,,,,,,,,,,,,,,,,,,,,,,,,,,,,,,,,,,,,,,,,,,,,,,,,,,
KBUR,Burbank,,34.1808,-118.3089,2012-05-13 17:53:00,,CLR,10.0,,70,,,,54.0,,57,8.0,160.0,,29.13,,,,,,,,,,,,,,,,,,,,,,,,,,,,,,,,,,,,,,,,,,,,,,,,,,,,,,,,,,,,,,,,,,,,,
KBUR,Burbank,,34.1808,-118.3089,2012-05-13 18:53:00,,CLR,10.0,,68,,,,54.0,,61,6.0,170.0,,29.13,,,,,,,,,,,,,,,,,,,,,,,,,,,,,,,,,,,,,,,,,,,,,,,,,,,,,,,,,,,,,,,,,,,,,
KBUR,Burbank,,34.1808,-118.3089,2012-05-13 19:53:00,,CLR,10.0,,65,,,,54.0,,68,10.0,130.0,,29.14,1.0,Rising Rapidly,,,,,,,,,,,,,,,,,,,,,,,,,,,,,,,,,,,,,,,,,,,,,,,,,,,,,,,,,,,,,,,,,,,
KBUR,Burbank,,34.1808,-118.3089,2012-05-13 20:53:00,,CLR,10.0,,63,,,,53.0,,70,8.0,110.0,,29.15,,,,,,,,,,,,,,,,,,,,,,,,,,,,,,,,,,,,,,,,,,,,,,,,,,,,,,,,,,,,,,,,,,,,,
KBUR,Burbank,,34.1808,-118.3089,2012-05-13 21:53:00,,CLR,10.0,,61,,,,53.0,,75,7.0,130.0,,29.16,,,,,,,,,,,,,,,,,,,,,,,,,,,,,,,,,,,,,,,,,,,,,,,,,,,,,,,,,,,,,,,,,,,,,
KBUR,Burbank,,34.1808,-118.3089,2012-05-13 22:53:00,,CLR,10.0,,60,,,,53.0,,78,7.0,100.0,,29.17,1.0,Rising Rapidly,,,,73.0,60.0,,,,,,,,,,,,,,,,,,,,,,,,,,,,,,,,,,,,,,,,,,,,,,,,,,,,,,,,,,,,,,
KBUR,Burbank,,34.1808,-118.3089,2012-05-13 23:53:00,,CLR,10.0,,59,,,,52.0,,78,6.0,110.0,,29.17,,,,,,,,,,,,,,,,,,,,,,,,,,,,,,,,,,,,,,,,,,,,,,,,,,,,,,,,,,,,,,,,,,,,,
KBUR,Burbank,,34.1808,-118.3089,2012-05-14 00:53:00,,CLR,10.0,,58,,,,52.0,,81,5.0,140.0,,29.17,,,,,,77.0,54.0,,,,,,,,,,,,,,,,,,,,,,,,,,,,,,,,,,,,,,,,,,,,,,,,,,,,,,,,,,,,,,
KBUR,Burbank,,34.1808,-118.3089,2012-05-14 01:53:00,,CLR,10.0,,57,,,,52.0,,83,,,,29.17,2.0,Falling,,,,,,,,,,,,,,,,,,,,,,,,,,,,,,,,,,,,,,,,,,,,,,,,,,,,,,,,,,,,,,,,,,,
KBUR,Burbank,,34.1808,-118.3089,2012-05-14 02:53:00,,CLR,10.0,,57,,,,52.0,,83,,,,29.16,,,,,,,,,,,,,,,,,,,,,,,,,,,,,,,,,,,,,,,,,,,,,,,,,,,,,,,,,,,,,,,,,,,,,
KBUR,Burbank,,34.1808,-118.3089,2012-05-14 03:53:00,,CLR,10.0,,56,,,,51.0,,84,,,,29.16,,,,,,,,,,,,,,,,,,,,,,,,,,,,,,,,,,,,,,,,,,,,,,,,,,,,,,,,,,,,,,,,,,,,,
KBUR,Burbank,,34.1808,-118.3089,2012-05-14 04:53:00,,CLR,10.0,,55,,,,51.0,,86,,,,29.16,0.0,Steady,,,,60.0,55.0,,,,,,,,,,,,,,,,,,,,,,,,,,,,,,,,,,,,,,,,,,,,,,,,,,,,,,,,,,,,,,
KBUR,Burbank,,34.1808,-118.3089,2012-05-14 05:53:00,,CLR,10.0,,54,,,,50.0,,86,,,,29.17,,,,,,,,,,,,,,,,,,,,,,,,,,,,,,,,,,,,,,,,,,,,,,,,,,,,,,,,,,,,,,,,,,,,,
KBUR,Burbank,,34.1808,-118.3089,2012-05-14 06:53:00,,CLR,10.0,,56,,,,50.0,,80,,,,29.18,,,,,,,,,,,,,,,,,,,,,,,,,,,,,,,,,,,,,,,,,,,,,,,,,,,,,,,,,,,,,,,,,,,,,
KBUR,Burbank,,34.1808,-118.3089,2012-05-14 07:53:00,,CLR,9.0,,58,,,,52.0,,81,,,,29.18,1.0,Rising Rapidly,,,,,,,,,,,,,,,,,,,,,,,,,,,,,,,,,,,,,,,,,,,,,,,,,,,,,,,,,,,,,,,,,,,
KBUR,Burbank,,34.1808,-118.3089,2012-05-14 08:53:00,,CLR,7.0,,63,,,,52.0,,67,,,,29.18,,,,,,,,,,,,,,,,,,,,,,,,,,,,,,,,,,,,,,,,,,,,,,,,,,,,,,,,,,,,,,,,,,,,,
KBUR,Burbank,,34.1808,-118.3089,2012-05-14 09:53:00,,CLR,7.0,,69,,,,54.0,,58,5.0,160.0,,29.16,,,,,,,,,,,,,,,,,,,,,,,,,,,,,,,,,,,,,,,,,,,,,,,,,,,,,,,,,,,,,,,,,,,,,
KBUR,Burbank,,34.1808,-118.3089,2012-05-14 10:53:00,,CLR,10.0,,72,,,,51.0,,48,3.0,180.0,,29.16,2.0,Falling Rapidly,,,,72.0,54.0,,,,,,,,,,,,,,,,,,,,,,,,,,,,,,,,,,,,,,,,,,,,,,,,,,,,,,,,,,,,,,
KBUR,Burbank,,34.1808,-118.3089,2012-05-14 11:53:00,,CLR,10.0,,75,,,,53.0,,46,5.0,,,29.14,,,,,,,,,,,,,,,,,,,,,,,,,,,,,,,,,,,,,,,,,,,,,,,,,,,,,,,,,,,,,,,,,,,,,
KBUR,Burbank,,34.1808,-118.3089,2012-05-14 12:53:00,,CLR,10.0,,77,,,,53.0,,43,13.0,160.0,,29.12,,,,,,,,,,,,,,,,,,,,,,,,,,,,,,,,,,,,,,,,,,,,,,,,,,,,,,,,,,,,,,,,,,,,,
KBUR,Burbank,,34.1808,-118.3089,2012-05-14 13:53:00,,CLR,10.0,,77,,,,53.0,,43,10.0,190.0,,29.11,2.0,Falling,,,,,,,,,,,,,,,,,,,,,,,,,,,,,,,,,,,,,,,,,,,,,,,,,,,,,,,,,,,,,,,,,,,
KBUR,Burbank,,34.1808,-118.3089,2012-05-14 14:53:00,,CLR,10.0,,78,,,,49.0,,36,12.0,190.0,,29.1,,,,,,,,,,,,,,,,,,,,,,,,,,,,,,,,,,,,,,,,,,,,,,,,,,,,,,,,,,,,,,,,,,,,,
KBUR,Burbank,,34.1808,-118.3089,2012-05-14 15:53:00,,CLR,10.0,,78,,,,49.0,,36,12.0,170.0,,29.08,,,,,,,,,,,,,,,,,,,,,,,,,,,,,,,,,,,,,,,,,,,,,,,,,,,,,,,,,,,,,,,,,,,,,
KBUR,Burbank,,34.1808,-118.3089,2012-05-14 16:53:00,,CLR,10.0,,76,,,,47.0,,36,12.0,180.0,,29.08,2.0,Falling,,,,79.0,72.0,,,,,,,,,,,,,,,,,,,,,,,,,,,,,,,,,,,,,,,,,,,,,,,,,,,,,,,,,,,,,,
KBUR,Burbank,,34.1808,-118.3089,2012-05-14 17:53:00,,CLR,10.0,,74,,,,45.0,,35,8.0,170.0,29.0,29.07,,,,,,,,,,,,,,,,,,,,,,,,,,,,,,,,,,,,,,,,,,,,,,,,,,,,,,,,,,,,,,,,,,,,,
KBUR,Burbank,,34.1808,-118.3089,2012-05-14 18:29:00,,CLR,10.0,,73,,,,45.0,,36,8.0,180.0,,29.1,,,,,,,,,,,,,,,,,,,,,,,,,,,,,,,,,,,,,,,,,,,,,,,,,,,,,,,,,,,,,,,,,,,,,
KBUR,Burbank,,34.1808,-118.3089,2012-05-14 18:53:00,,CLR,10.0,,72,,,,45.0,,38,8.0,170.0,,29.08,,,,,,,,,,,,,,,,,,,,,,,,,,,,,,,,,,,,,,,,,,,,,,,,,,,,,,,,,,,,,,,,,,,,,
KBUR,Burbank,,34.1808,-118.3089,2012-05-14 19:53:00,,CLR,10.0,,69,,,,47.0,,45,8.0,130.0,21.0,29.08,1.0,Rising Rapidly,,,,,,,,,,,,,,,,,,,,,,,,,,,,,,,,,,,,,,,,,,,,,,,,,,,,,,,,,,,,,,,,,,,
KBUR,Burbank,,34.1808,-118.3089,2012-05-14 20:53:00,,CLR,10.0,,65,,,,50.0,,58,3.0,150.0,,29.09,,,,,,,,,,,,,,,,,,,,,,,,,,,,,,,,,,,,,,,,,,,,,,,,,,,,,,,,,,,,,,,,,,,,,
KBUR,Burbank,,34.1808,-118.3089,2012-05-14 21:53:00,,CLR,10.0,,63,,,,51.0,,65,6.0,140.0,,29.1,,,,,,,,,,,,,,,,,,,,,,,,,,,,,,,,,,,,,,,,,,,,,,,,,,,,,,,,,,,,,,,,,,,,,
KBUR,Burbank,,34.1808,-118.3089,2012-05-14 22:53:00,,CLR,10.0,,61,,,,51.0,,70,5.0,140.0,,29.1,1.0,Rising,,,,76.0,61.0,,,,,,,,,,,,,,,,,,,,,,,,,,,,,,,,,,,,,,,,,,,,,,,,,,,,,,,,,,,,,,
KBUR,Burbank,,34.1808,-118.3089,2012-05-14 23:53:00,,CLR,10.0,,60,,,,51.0,,72,6.0,130.0,,29.09,,,,,,,,,,,,,,,,,,,,,,,,,,,,,,,,,,,,,,,,,,,,,,,,,,,,,,,,,,,,,,,,,,,,,
KBUR,Burbank,,34.1808,-118.3089,2012-05-15 00:53:00,,CLR,10.0,,59,,,,51.0,,75,3.0,120.0,,29.1,,,,,,79.0,54.0,,,,,,,,,,,,,,,,,,,,,,,,,,,,,,,,,,,,,,,,,,,,,,,,,,,,,,,,,,,,,,
KBUR,Burbank,,34.1808,-118.3089,2012-05-15 01:53:00,,CLR,10.0,,58,,,,50.0,,75,,,,29.08,2.0,Falling Rapidly,,,,,,,,,,,,,,,,,,,,,,,,,,,,,,,,,,,,,,,,,,,,,,,,,,,,,,,,,,,,,,,,,,,
KBUR,Burbank,,34.1808,-118.3089,2012-05-15 02:53:00,,CLR,10.0,,57,,,,49.0,,74,,,,29.07,,,,,,,,,,,,,,,,,,,,,,,,,,,,,,,,,,,,,,,,,,,,,,,,,,,,,,,,,,,,,,,,,,,,,
KBUR,Burbank,,34.1808,-118.3089,2012-05-15 03:53:00,,CLR,10.0,,56,,,,48.0,,75,,,,29.07,,,,,,,,,,,,,,,,,,,,,,,,,,,,,,,,,,,,,,,,,,,,,,,,,,,,,,,,,,,,,,,,,,,,,
KBUR,Burbank,,34.1808,-118.3089,2012-05-15 04:53:00,,CLR,10.0,,54,,,,45.0,,72,,,,29.07,0.0,Steady,,,,62.0,54.0,,,,,,,,,,,,,,,,,,,,,,,,,,,,,,,,,,,,,,,,,,,,,,,,,,,,,,,,,,,,,,
KBUR,Burbank,,34.1808,-118.3089,2012-05-15 05:53:00,,CLR,10.0,,53,,,,45.0,,74,,,,29.08,,,,,,,,,,,,,,,,,,,,,,,,,,,,,,,,,,,,,,,,,,,,,,,,,,,,,,,,,,,,,,,,,,,,,
KBUR,Burbank,,34.1808,-118.3089,2012-05-15 06:53:00,,CLR,10.0,,56,,,,47.0,,72,,,,29.08,,,,,,,,,,,,,,,,,,,,,,,,,,,,,,,,,,,,,,,,,,,,,,,,,,,,,,,,,,,,,,,,,,,,,
KBUR,Burbank,,34.1808,-118.3089,2012-05-15 07:53:00,,CLR,10.0,,59,,,,48.0,,67,,,,29.09,1.0,Rising Rapidly,,,,,,,,,,,,,,,,,,,,,,,,,,,,,,,,,,,,,,,,,,,,,,,,,,,,,,,,,,,,,,,,,,,
KBUR,Burbank,,34.1808,-118.3089,2012-05-15 08:53:00,,CLR,10.0,,63,,,,48.0,,58,5.0,,,29.09,,,,,,,,,,,,,,,,,,,,,,,,,,,,,,,,,,,,,,,,,,,,,,,,,,,,,,,,,,,,,,,,,,,,,
KBUR,Burbank,,34.1808,-118.3089,2012-05-15 09:53:00,,CLR,10.0,,66,,,,48.0,,52,6.0,,,29.08,,,,,,,,,,,,,,,,,,,,,,,,,,,,,,,,,,,,,,,,,,,,,,,,,,,,,,,,,,,,,,,,,,,,,
KBUR,Burbank,,34.1808,-118.3089,2012-05-15 10:53:00,,CLR,10.0,,69,,,,50.0,,51,8.0,180.0,,29.07,2.0,Falling Rapidly,,,,70.0,53.0,,,,,,,,,,,,,,,,,,,,,,,,,,,,,,,,,,,,,,,,,,,,,,,,,,,,,,,,,,,,,,
KBUR,Burbank,,34.1808,-118.3089,2012-05-15 11:53:00,,CLR,10.0,,71,,,,48.0,,44,7.0,170.0,,29.06,,,,,,,,,,,,,,,,,,,,,,,,,,,,,,,,,,,,,,,,,,,,,,,,,,,,,,,,,,,,,,,,,,,,,
KBUR,Burbank,,34.1808,-118.3089,2012-05-15 12:53:00,,CLR,10.0,,74,,,,49.0,,41,3.0,140.0,,29.05,,,,,,,,,,,,,,,,,,,,,,,,,,,,,,,,,,,,,,,,,,,,,,,,,,,,,,,,,,,,,,,,,,,,,
KBUR,Burbank,,34.1808,-118.3089,2012-05-15 13:53:00,,CLR,10.0,,77,,,,51.0,,40,12.0,160.0,,29.04,2.0,Falling,,,,,,,,,,,,,,,,,,,,,,,,,,,,,,,,,,,,,,,,,,,,,,,,,,,,,,,,,,,,,,,,,,,
KBUR,Burbank,,34.1808,-118.3089,2012-05-15 14:53:00,,CLR,10.0,,76,,,,52.0,,43,9.0,170.0,,29.02,,,,,,,,,,,,,,,,,,,,,,,,,,,,,,,,,,,,,,,,,,,,,,,,,,,,,,,,,,,,,,,,,,,,,
KBUR,Burbank,,34.1808,-118.3089,2012-05-15 15:53:00,,CLR,10.0,,77,,,,51.0,,40,10.0,180.0,,29.01,,,,,,,,,,,,,,,,,,,,,,,,,,,,,,,,,,,,,,,,,,,,,,,,,,,,,,,,,,,,,,,,,,,,,
KBUR,Burbank,,34.1808,-118.3089,2012-05-15 16:53:00,,CLR,10.0,,75,,,,50.0,,41,10.0,170.0,,29.0,2.0,Falling,,,,77.0,69.0,,,,,,,,,,,,,,,,,,,,,,,,,,,,,,,,,,,,,,,,,,,,,,,,,,,,,,,,,,,,,,
KBUR,Burbank,,34.1808,-118.3089,2012-05-15 17:53:00,,CLR,10.0,,73,,,,48.0,,41,9.0,170.0,,29.0,,,,,,,,,,,,,,,,,,,,,,,,,,,,,,,,,,,,,,,,,,,,,,,,,,,,,,,,,,,,,,,,,,,,,
KBUR,Burbank,,34.1808,-118.3089,2012-05-15 18:53:00,,CLR,10.0,,70,,,,47.0,,44,9.0,170.0,,29.0,,,,,,,,,,,,,,,,,,,,,,,,,,,,,,,,,,,,,,,,,,,,,,,,,,,,,,,,,,,,,,,,,,,,,
KBUR,Burbank,,34.1808,-118.3089,2012-05-15 19:53:00,,CLR,10.0,,68,,,,47.0,,47,8.0,130.0,,29.02,1.0,Rising Rapidly,,,,,,,,,,,,,,,,,,,,,,,,,,,,,,,,,,,,,,,,,,,,,,,,,,,,,,,,,,,,,,,,,,,
KBUR,Burbank,,34.1808,-118.3089,2012-05-15 20:53:00,,CLR,10.0,,65,,,,50.0,,58,7.0,140.0,,29.03,,,,,,,,,,,,,,,,,,,,,,,,,,,,,,,,,,,,,,,,,,,,,,,,,,,,,,,,,,,,,,,,,,,,,
KBUR,Burbank,,34.1808,-118.3089,2012-05-15 21:53:00,,CLR,10.0,,64,,,,51.0,,63,7.0,110.0,,29.04,,,,,,,,,,,,,,,,,,,,,,,,,,,,,,,,,,,,,,,,,,,,,,,,,,,,,,,,,,,,,,,,,,,,,
KBUR,Burbank,,34.1808,-118.3089,2012-05-15 22:53:00,,CLR,10.0,,63,,,,51.0,,65,9.0,110.0,,29.04,1.0,Rising,,,,75.0,63.0,,,,,,,,,,,,,,,,,,,,,,,,,,,,,,,,,,,,,,,,,,,,,,,,,,,,,,,,,,,,,,
KBUR,Burbank,,34.1808,-118.3089,2012-05-15 23:53:00,,CLR,10.0,,62,,,,51.0,,67,5.0,80.0,,29.04,,,,,,,,,,,,,,,,,,,,,,,,,,,,,,,,,,,,,,,,,,,,,,,,,,,,,,,,,,,,,,,,,,,,,
KBUR,Burbank,,34.1808,-118.3089,2012-05-16 00:53:00,,CLR,10.0,,63,,,,49.0,,60,3.0,130.0,,29.04,,,,,,77.0,53.0,,,,,,,,,,,,,,,,,,,,,,,,,,,,,,,,,,,,,,,,,,,,,,,,,,,,,,,,,,,,,,
KBUR,Burbank,,34.1808,-118.3089,2012-05-16 01:53:00,,CLR,10.0,,62,,,,50.0,,65,,,,29.03,2.0,Falling Rapidly,,,,,,,,,,,,,,,,,,,,,,,,,,,,,,,,,,,,,,,,,,,,,,,,,,,,,,,,,,,,,,,,,,,
KBUR,Burbank,,34.1808,-118.3089,2012-05-16 02:53:00,,CLR,10.0,,59,,,,48.0,,67,3.0,340.0,,29.03,,,,,,,,,,,,,,,,,,,,,,,,,,,,,,,,,,,,,,,,,,,,,,,,,,,,,,,,,,,,,,,,,,,,,
KBUR,Burbank,,34.1808,-118.3089,2012-05-16 03:53:00,,CLR,10.0,,58,,,,47.0,,67,,,,29.02,,,,,,,,,,,,,,,,,,,,,,,,,,,,,,,,,,,,,,,,,,,,,,,,,,,,,,,,,,,,,,,,,,,,,
KBUR,Burbank,,34.1808,-118.3089,2012-05-16 04:53:00,,CLR,10.0,,58,,,,47.0,,67,,,,29.01,2.0,Falling Rapidly,,,,63.0,57.0,,,,,,,,,,,,,,,,,,,,,,,,,,,,,,,,,,,,,,,,,,,,,,,,,,,,,,,,,,,,,,
KBUR,Burbank,,34.1808,-118.3089,2012-05-16 05:53:00,,CLR,10.0,,58,,,,49.0,,72,,,,29.03,,,,,,,,,,,,,,,,,,,,,,,,,,,,,,,,,,,,,,,,,,,,,,,,,,,,,,,,,,,,,,,,,,,,,
KBUR,Burbank,,34.1808,-118.3089,2012-05-16 06:53:00,,CLR,10.0,,60,,,,50.0,,69,,,,29.04,,,,,,,,,,,,,,,,,,,,,,,,,,,,,,,,,,,,,,,,,,,,,,,,,,,,,,,,,,,,,,,,,,,,,
KBUR,Burbank,,34.1808,-118.3089,2012-05-16 07:53:00,,CLR,10.0,,62,,,,51.0,,67,,,,29.04,1.0,Rising,,,,,,,,,,,,,,,,,,,,,,,,,,,,,,,,,,,,,,,,,,,,,,,,,,,,,,,,,,,,,,,,,,,
KBUR,Burbank,,34.1808,-118.3089,2012-05-16 08:53:00,,CLR,10.0,,66,,,,49.0,,54,,,,29.05,,,,,,,,,,,,,,,,,,,,,,,,,,,,,,,,,,,,,,,,,,,,,,,,,,,,,,,,,,,,,,,,,,,,,
KBUR,Burbank,,34.1808,-118.3089,2012-05-16 09:53:00,,CLR,10.0,,71,,,,50.0,,47,3.0,200.0,,29.05,,,,,,,,,,,,,,,,,,,,,,,,,,,,,,,,,,,,,,,,,,,,,,,,,,,,,,,,,,,,,,,,,,,,,
KBUR,Burbank,,34.1808,-118.3089,2012-05-16 10:53:00,,CLR,10.0,,76,,,,49.0,,38,5.0,200.0,,29.03,2.0,Falling Rapidly,,,,76.0,57.0,,,,,,,,,,,,,,,,,,,,,,,,,,,,,,,,,,,,,,,,,,,,,,,,,,,,,,,,,,,,,,
KBUR,Burbank,,34.1808,-118.3089,2012-05-16 11:53:00,,CLR,10.0,,79,,,,50.0,,36,5.0,,,29.01,,,,,,,,,,,,,,,,,,,,,,,,,,,,,,,,,,,,,,,,,,,,,,,,,,,,,,,,,,,,,,,,,,,,,
KBUR,Burbank,,34.1808,-118.3089,2012-05-16 12:53:00,,CLR,10.0,,83,,,,52.0,,34,6.0,,,28.99,,,,,,,,,,,,,,,,,,,,,,,,,,,,,,,,,,,,,,,,,,,,,,,,,,,,,,,,,,,,,,,,,,,,,
KBUR,Burbank,,34.1808,-118.3089,2012-05-16 13:53:00,,CLR,10.0,,84,,,,55.0,,37,7.0,200.0,,28.97,2.0,Falling Rapidly,,,,,,,,,,,,,,,,,,,,,,,,,,,,,,,,,,,,,,,,,,,,,,,,,,,,,,,,,,,,,,,,,,,
KBUR,Burbank,,34.1808,-118.3089,2012-05-16 14:53:00,,CLR,10.0,,84,,,,54.0,,35,7.0,190.0,,28.96,,,,,,,,,,,,,,,,,,,,,,,,,,,,,,,,,,,,,,,,,,,,,,,,,,,,,,,,,,,,,,,,,,,,,
KBUR,Burbank,,34.1808,-118.3089,2012-05-16 15:53:00,,CLR,10.0,,83,,,,53.0,,36,8.0,170.0,,28.94,,,,,,,,,,,,,,,,,,,,,,,,,,,,,,,,,,,,,,,,,,,,,,,,,,,,,,,,,,,,,,,,,,,,,
KBUR,Burbank,,34.1808,-118.3089,2012-05-16 16:53:00,,CLR,10.0,,83,,,,53.0,,36,9.0,120.0,,28.93,2.0,Falling,,,,85.0,76.0,,,,,,,,,,,,,,,,,,,,,,,,,,,,,,,,,,,,,,,,,,,,,,,,,,,,,,,,,,,,,,
KBUR,Burbank,,34.1808,-118.3089,2012-05-16 17:53:00,,CLR,10.0,,79,,,,52.0,,39,12.0,180.0,,28.93,,,,,,,,,,,,,,,,,,,,,,,,,,,,,,,,,,,,,,,,,,,,,,,,,,,,,,,,,,,,,,,,,,,,,
KBUR,Burbank,,34.1808,-118.3089,2012-05-16 18:53:00,,CLR,10.0,,75,,,,50.0,,41,6.0,190.0,,28.93,,,,,,,,,,,,,,,,,,,,,,,,,,,,,,,,,,,,,,,,,,,,,,,,,,,,,,,,,,,,,,,,,,,,,
KBUR,Burbank,,34.1808,-118.3089,2012-05-16 19:53:00,,CLR,10.0,,73,,,,51.0,,46,9.0,120.0,,28.95,1.0,Rising Rapidly,,,,,,,,,,,,,,,,,,,,,,,,,,,,,,,,,,,,,,,,,,,,,,,,,,,,,,,,,,,,,,,,,,,
KBUR,Burbank,,34.1808,-118.3089,2012-05-16 20:53:00,,CLR,10.0,,70,,,,51.0,,51,8.0,110.0,,28.95,,,,,,,,,,,,,,,,,,,,,,,,,,,,,,,,,,,,,,,,,,,,,,,,,,,,,,,,,,,,,,,,,,,,,
KBUR,Burbank,,34.1808,-118.3089,2012-05-16 21:53:00,,CLR,10.0,,69,,,,53.0,,57,8.0,110.0,,28.97,,,,,,,,,,,,,,,,,,,,,,,,,,,,,,,,,,,,,,,,,,,,,,,,,,,,,,,,,,,,,,,,,,,,,
KBUR,Burbank,,34.1808,-118.3089,2012-05-16 22:53:00,,CLR,10.0,,66,,,,53.0,,63,8.0,110.0,,28.98,1.0,Rising Rapidly,,,,83.0,66.0,,,,,,,,,,,,,,,,,,,,,,,,,,,,,,,,,,,,,,,,,,,,,,,,,,,,,,,,,,,,,,
KBUR,Burbank,,34.1808,-118.3089,2012-05-16 23:53:00,,CLR,10.0,,65,,,,53.0,,65,6.0,130.0,,28.98,,,,,,,,,,,,,,,,,,,,,,,,,,,,,,,,,,,,,,,,,,,,,,,,,,,,,,,,,,,,,,,,,,,,,
KBUR,Burbank,,34.1808,-118.3089,2012-05-17 00:53:00,,CLR,10.0,,64,,,,53.0,,67,3.0,,,28.98,,,,,,85.0,57.0,,,,,,,,,,,,,,,,,,,,,,,,,,,,,,,,,,,,,,,,,,,,,,,,,,,,,,,,,,,,,,
KBUR,Burbank,,34.1808,-118.3089,2012-05-17 01:53:00,,CLR,10.0,,62,,,,53.0,,72,5.0,70.0,,28.98,2.0,Falling Rapidly,,,,,,,,,,,,,,,,,,,,,,,,,,,,,,,,,,,,,,,,,,,,,,,,,,,,,,,,,,,,,,,,,,,
KBUR,Burbank,,34.1808,-118.3089,2012-05-17 02:53:00,,CLR,10.0,,62,,,,53.0,,72,3.0,80.0,,28.97,,,,,,,,,,,,,,,,,,,,,,,,,,,,,,,,,,,,,,,,,,,,,,,,,,,,,,,,,,,,,,,,,,,,,
KBUR,Burbank,,34.1808,-118.3089,2012-05-17 03:53:00,,CLR,10.0,,61,,,,53.0,,75,,,,28.96,,,,,,,,,,,,,,,,,,,,,,,,,,,,,,,,,,,,,,,,,,,,,,,,,,,,,,,,,,,,,,,,,,,,,
KBUR,Burbank,,34.1808,-118.3089,2012-05-17 04:53:00,,CLR,10.0,,61,,,,53.0,,75,3.0,140.0,,28.96,2.0,Falling Rapidly,,,,66.0,61.0,,,,,,,,,,,,,,,,,,,,,,,,,,,,,,,,,,,,,,,,,,,,,,,,,,,,,,,,,,,,,,
KBUR,Burbank,,34.1808,-118.3089,2012-05-17 05:53:00,,CLR,9.0,,59,,,,54.0,,83,,,,28.98,,,,,,,,,,,,,,,,,,,,,,,,,,,,,,,,,,,,,,,,,,,,,,,,,,,,,,,,,,,,,,,,,,,,,
KBUR,Burbank,,34.1808,-118.3089,2012-05-17 06:53:00,,CLR,9.0,,60,,,,54.0,,80,3.0,130.0,,28.98,,,,,,,,,,,,,,,,,,,,,,,,,,,,,,,,,,,,,,,,,,,,,,,,,,,,,,,,,,,,,,,,,,,,,
KBUR,Burbank,,34.1808,-118.3089,2012-05-17 07:53:00,,CLR,7.0,,62,,,,55.0,,78,,,,28.99,1.0,Rising,,,,,,,,,,,,,,,,,,,,,,,,,,,,,,,,,,,,,,,,,,,,,,,,,,,,,,,,,,,,,,,,,,,
KBUR,Burbank,,34.1808,-118.3089,2012-05-17 08:00:00,,CLR,7.0,,63,,,,55.0,,77,3.0,120.0,,29.02,,,,,,,,,,,,,,,,,,,,,,,,,,,,,,,,,,,,,,,,,,,,,,,,,,,,,,,,,,,,,,,,,,,,,
KBUR,Burbank,,34.1808,-118.3089,2012-05-17 08:53:00,,CLR,8.0,,65,,,,56.0,,73,3.0,160.0,,28.99,,,,,,,,,,,,,,,,,,,,,,,,,,,,,,,,,,,,,,,,,,,,,,,,,,,,,,,,,,,,,,,,,,,,,
KBUR,Burbank,,34.1808,-118.3089,2012-05-17 09:53:00,,CLR,8.0,,69,,,,56.0,,63,3.0,100.0,,29.0,,,,,,,,,,,,,,,,,,,,,,,,,,,,,,,,,,,,,,,,,,,,,,,,,,,,,,,,,,,,,,,,,,,,,
KBUR,Burbank,,34.1808,-118.3089,2012-05-17 10:53:00,,CLR,10.0,,73,,,,55.0,,53,8.0,100.0,,28.99,2.0,Falling Rapidly,,,,74.0,59.0,,,,,,,,,,,,,,,,,,,,,,,,,,,,,,,,,,,,,,,,,,,,,,,,,,,,,,,,,,,,,,
KBUR,Burbank,,34.1808,-118.3089,2012-05-17 11:53:00,,CLR,10.0,,76,,,,57.0,,52,8.0,180.0,,28.97,,,,,,,,,,,,,,,,,,,,,,,,,,,,,,,,,,,,,,,,,,,,,,,,,,,,,,,,,,,,,,,,,,,,,
KBUR,Burbank,,34.1808,-118.3089,2012-05-17 12:53:00,,CLR,10.0,,77,,,,57.0,,50,9.0,170.0,,28.97,,,,,,,,,,,,,,,,,,,,,,,,,,,,,,,,,,,,,,,,,,,,,,,,,,,,,,,,,,,,,,,,,,,,,
KBUR,Burbank,,34.1808,-118.3089,2012-05-17 13:53:00,,CLR,10.0,,79,,,,57.0,,47,12.0,170.0,18.0,28.95,2.0,Falling Rapidly,,,,,,,,,,,,,,,,,,,,,,,,,,,,,,,,,,,,,,,,,,,,,,,,,,,,,,,,,,,,,,,,,,,
KBUR,Burbank,,34.1808,-118.3089,2012-05-17 14:53:00,,CLR,10.0,,77,,,,57.0,,50,13.0,160.0,,28.95,,,,,,,,,,,,,,,,,,,,,,,,,,,,,,,,,,,,,,,,,,,,,,,,,,,,,,,,,,,,,,,,,,,,,
KBUR,Burbank,,34.1808,-118.3089,2012-05-17 15:53:00,,CLR,10.0,,76,,,,57.0,,52,12.0,170.0,,28.94,,,,,,,,,,,,,,,,,,,,,,,,,,,,,,,,,,,,,,,,,,,,,,,,,,,,,,,,,,,,,,,,,,,,,
KBUR,Burbank,,34.1808,-118.3089,2012-05-17 16:53:00,,CLR,10.0,,74,,,,57.0,,55,13.0,180.0,,28.94,0.0,Steady,,,,79.0,73.0,,,,,,,,,,,,,,,,,,,,,,,,,,,,,,,,,,,,,,,,,,,,,,,,,,,,,,,,,,,,,,
KBUR,Burbank,,34.1808,-118.3089,2012-05-17 17:53:00,,CLR,10.0,,71,,,,57.0,,61,10.0,180.0,,28.95,,,,,,,,,,,,,,,,,,,,,,,,,,,,,,,,,,,,,,,,,,,,,,,,,,,,,,,,,,,,,,,,,,,,,
KBUR,Burbank,,34.1808,-118.3089,2012-05-17 18:53:00,,CLR,9.0,,67,,,,56.0,,68,12.0,170.0,,28.94,,,,,,,,,,,,,,,,,,,,,,,,,,,,,,,,,,,,,,,,,,,,,,,,,,,,,,,,,,,,,,,,,,,,,
KBUR,Burbank,,34.1808,-118.3089,2012-05-17 19:53:00,,CLR,8.0,,64,,,,56.0,,75,10.0,130.0,,28.96,1.0,Rising Rapidly,,,,,,,,,,,,,,,,,,,,,,,,,,,,,,,,,,,,,,,,,,,,,,,,,,,,,,,,,,,,,,,,,,,
KBUR,Burbank,,34.1808,-118.3089,2012-05-17 20:53:00,,CLR,10.0,,61,,,,53.0,,75,10.0,180.0,,28.98,,,,,,,,,,,,,,,,,,,,,,,,,,,,,,,,,,,,,,,,,,,,,,,,,,,,,,,,,,,,,,,,,,,,,
KBUR,Burbank,,34.1808,-118.3089,2012-05-17 21:53:00,,SCT,10.0,,59,,,,50.0,,72,10.0,160.0,,28.99,,,,,,,,,,,,,,,,,,,,,,,,,,,,,,,,,,,,,,,,,,,,,,,,,,,,,,,,,,,,,,,,,,,,,
KBUR,Burbank,,34.1808,-118.3089,2012-05-17 22:53:00,,SCT,10.0,,59,,,,49.0,,69,6.0,160.0,,29.02,1.0,Rising Rapidly,,,,74.0,58.0,,,,,,,,,,,,,,,,,,,,,,,,,,,,,,,,,,,,,,,,,,,,,,,,,,,,,,,,,,,,,,
KBUR,Burbank,,34.1808,-118.3089,2012-05-17 23:00:00,,OVC,10.0,,59,,,,48.0,,67,7.0,140.0,,29.04,,,,,,,,,,,,,,,,,,,,,,,,,,,,,,,,,,,,,,,,,,,,,,,,,,,,,,,,,,,,,,,,,,,,,
KBUR,Burbank,,34.1808,-118.3089,2012-05-17 23:53:00,,OVC,10.0,,59,,,,50.0,,72,3.0,180.0,,29.01,,,,,,,,,,,,,,,,,,,,,,,,,,,,,,,,,,,,,,,,,,,,,,,,,,,,,,,,,,,,,,,,,,,,,
KBUR,Burbank,,34.1808,-118.3089,2012-05-18 00:53:00,,OVC,10.0,,58,,,,53.0,,84,3.0,170.0,,29.0,,,,,,79.0,58.0,,,,,,,,,,,,,,,,,,,,,,,,,,,,,,,,,,,,,,,,,,,,,,,,,,,,,,,,,,,,,,
KBUR,Burbank,,34.1808,-118.3089,2012-05-18 01:53:00,,OVC,10.0,,58,,,,53.0,,84,5.0,180.0,,28.99,2.0,Falling Rapidly,,,,,,,,,,,,,,,,,,,,,,,,,,,,,,,,,,,,,,,,,,,,,,,,,,,,,,,,,,,,,,,,,,,
KBUR,Burbank,,34.1808,-118.3089,2012-05-18 02:53:00,,OVC,8.0,,58,,,,53.0,,84,5.0,200.0,,28.99,,,,,,,,,,,,,,,,,,,,,,,,,,,,,,,,,,,,,,,,,,,,,,,,,,,,,,,,,,,,,,,,,,,,,
KBUR,Burbank,,34.1808,-118.3089,2012-05-18 03:30:00,,OVC,8.0,,57,,,,54.0,,88,3.0,220.0,,29.01,,,,,,,,,,,,,,,,,,,,,,,,,,,,,,,,,,,,,,,,,,,,,,,,,,,,,,,,,,,,,,,,,,,,,
KBUR,Burbank,,34.1808,-118.3089,2012-05-18 03:39:00,,OVC,8.0,,57,,,,54.0,,88,7.0,200.0,,29.01,,,,,,,,,,,,,,,,,,,,,,,,,,,,,,,,,,,,,,,,,,,,,,,,,,,,,,,,,,,,,,,,,,,,,
KBUR,Burbank,,34.1808,-118.3089,2012-05-18 03:53:00,,OVC,9.0,,58,,,,52.0,,81,5.0,220.0,,28.98,,,,,,,,,,,,,,,,,,,,,,,,,,,,,,,,,,,,,,,,,,,,,,,,,,,,,,,,,,,,,,,,,,,,,
KBUR,Burbank,,34.1808,-118.3089,2012-05-18 04:42:00,,OVC,9.0,,57,,,,54.0,,88,7.0,200.0,,29.01,,,,,,,,,,,,,,,,,,,,,,,,,,,,,,,,,,,,,,,,,,,,,,,,,,,,,,,,,,,,,,,,,,,,,
KBUR,Burbank,,34.1808,-118.3089,2012-05-18 04:53:00,,OVC,9.0,,58,,,,53.0,,84,5.0,190.0,,28.98,2.0,Falling Rapidly,,,,60.0,57.0,,,,,,,,,,,,,,,,,,,,,,,,,,,,,,,,,,,,,,,,,,,,,,,,,,,,,,,,,,,,,,
KBUR,Burbank,,34.1808,-118.3089,2012-05-18 05:53:00,,OVC,8.0,,57,,,,53.0,,87,5.0,190.0,,28.99,,,,,,,,,,,,,,,,,,,,,,,,,,,,,,,,,,,,,,,,,,,,,,,,,,,,,,,,,,,,,,,,,,,,,
KBUR,Burbank,,34.1808,-118.3089,2012-05-18 06:21:00,,OVC,8.0,,57,,,,52.0,,82,5.0,230.0,,29.03,,,,,,,,,,,,,,,,,,,,,,,,,,,,,,,,,,,,,,,,,,,,,,,,,,,,,,,,,,,,,,,,,,,,,
KBUR,Burbank,,34.1808,-118.3089,2012-05-18 06:42:00,,OVC,8.0,,57,,,,52.0,,82,5.0,260.0,,29.03,,,,,,,,,,,,,,,,,,,,,,,,,,,,,,,,,,,,,,,,,,,,,,,,,,,,,,,,,,,,,,,,,,,,,
KBUR,Burbank,,34.1808,-118.3089,2012-05-18 06:53:00,,OVC,6.0,,57,,,,53.0,,87,3.0,250.0,,29.01,,,,,,,,,,,,,,,,,,,,,,,,,,,,,,,,,,,,,,,,,,,,,,,,,,,,,,,,,,,,,,,,,,,,,
KBUR,Burbank,,34.1808,-118.3089,2012-05-18 07:53:00,,BKN,6.0,,58,,,,52.0,,81,,,,29.02,1.0,Rising,,,,,,,,,,,,,,,,,,,,,,,,,,,,,,,,,,,,,,,,,,,,,,,,,,,,,,,,,,,,,,,,,,,
KBUR,Burbank,,34.1808,-118.3089,2012-05-18 08:53:00,,SCT,10.0,,62,,,,52.0,,70,,,,29.01,,,,,,,,,,,,,,,,,,,,,,,,,,,,,,,,,,,,,,,,,,,,,,,,,,,,,,,,,,,,,,,,,,,,,
KBUR,Burbank,,34.1808,-118.3089,2012-05-18 09:53:00,,CLR,10.0,,64,,,,51.0,,63,3.0,80.0,,29.02,,,,,,,,,,,,,,,,,,,,,,,,,,,,,,,,,,,,,,,,,,,,,,,,,,,,,,,,,,,,,,,,,,,,,
KBUR,Burbank,,34.1808,-118.3089,2012-05-18 10:53:00,,CLR,10.0,,67,,,,51.0,,57,8.0,120.0,,29.02,2.0,Falling,,,,67.0,57.0,,,,,,,,,,,,,,,,,,,,,,,,,,,,,,,,,,,,,,,,,,,,,,,,,,,,,,,,,,,,,,
KBUR,Burbank,,34.1808,-118.3089,2012-05-18 11:53:00,,CLR,10.0,,68,,,,51.0,,55,8.0,200.0,16.0,29.02,,,,,,,,,,,,,,,,,,,,,,,,,,,,,,,,,,,,,,,,,,,,,,,,,,,,,,,,,,,,,,,,,,,,,
KBUR,Burbank,,34.1808,-118.3089,2012-05-18 12:53:00,,CLR,10.0,,70,,,,51.0,,51,12.0,160.0,,29.01,,,,,,,,,,,,,,,,,,,,,,,,,,,,,,,,,,,,,,,,,,,,,,,,,,,,,,,,,,,,,,,,,,,,,
KBUR,Burbank,,34.1808,-118.3089,2012-05-18 13:53:00,,CLR,10.0,,70,,,,51.0,,51,8.0,140.0,17.0,29.01,2.0,Falling Rapidly,,,,,,,,,,,,,,,,,,,,,,,,,,,,,,,,,,,,,,,,,,,,,,,,,,,,,,,,,,,,,,,,,,,
KBUR,Burbank,,34.1808,-118.3089,2012-05-18 14:53:00,,CLR,10.0,,71,,,,51.0,,49,8.0,150.0,,29.0,,,,,,,,,,,,,,,,,,,,,,,,,,,,,,,,,,,,,,,,,,,,,,,,,,,,,,,,,,,,,,,,,,,,,
KBUR,Burbank,,34.1808,-118.3089,2012-05-18 15:53:00,,CLR,10.0,,70,,,,51.0,,51,7.0,,,28.99,,,,,,,,,,,,,,,,,,,,,,,,,,,,,,,,,,,,,,,,,,,,,,,,,,,,,,,,,,,,,,,,,,,,,
KBUR,Burbank,,34.1808,-118.3089,2012-05-18 16:53:00,,CLR,10.0,,71,,,,50.0,,47,8.0,170.0,,28.98,2.0,Falling,,,,72.0,67.0,,,,,,,,,,,,,,,,,,,,,,,,,,,,,,,,,,,,,,,,,,,,,,,,,,,,,,,,,,,,,,
KBUR,Burbank,,34.1808,-118.3089,2012-05-18 17:53:00,,CLR,10.0,,68,,,,50.0,,52,12.0,180.0,,28.98,,,,,,,,,,,,,,,,,,,,,,,,,,,,,,,,,,,,,,,,,,,,,,,,,,,,,,,,,,,,,,,,,,,,,
KBUR,Burbank,,34.1808,-118.3089,2012-05-18 18:53:00,,CLR,10.0,,65,,,,49.0,,56,12.0,180.0,,28.99,,,,,,,,,,,,,,,,,,,,,,,,,,,,,,,,,,,,,,,,,,,,,,,,,,,,,,,,,,,,,,,,,,,,,
KBUR,Burbank,,34.1808,-118.3089,2012-05-18 19:53:00,,CLR,10.0,,62,,,,48.0,,60,9.0,170.0,,29.01,1.0,Rising Rapidly,,,,,,,,,,,,,,,,,,,,,,,,,,,,,,,,,,,,,,,,,,,,,,,,,,,,,,,,,,,,,,,,,,,
KBUR,Burbank,,34.1808,-118.3089,2012-05-18 20:53:00,,CLR,10.0,,61,,,,48.0,,62,6.0,150.0,,29.03,,,,,,,,,,,,,,,,,,,,,,,,,,,,,,,,,,,,,,,,,,,,,,,,,,,,,,,,,,,,,,,,,,,,,
KBUR,Burbank,,34.1808,-118.3089,2012-05-18 21:53:00,,CLR,10.0,,60,,,,48.0,,64,3.0,180.0,,29.05,,,,,,,,,,,,,,,,,,,,,,,,,,,,,,,,,,,,,,,,,,,,,,,,,,,,,,,,,,,,,,,,,,,,,
KBUR,Burbank,,34.1808,-118.3089,2012-05-18 22:53:00,,CLR,10.0,,60,,,,48.0,,64,,,,29.05,1.0,Rising,,,,71.0,60.0,,,,,,,,,,,,,,,,,,,,,,,,,,,,,,,,,,,,,,,,,,,,,,,,,,,,,,,,,,,,,,
KBUR,Burbank,,34.1808,-118.3089,2012-05-18 23:53:00,,CLR,10.0,,60,,,,48.0,,64,,,,29.05,,,,,,,,,,,,,,,,,,,,,,,,,,,,,,,,,,,,,,,,,,,,,,,,,,,,,,,,,,,,,,,,,,,,,
KBUR,Burbank,,34.1808,-118.3089,2012-05-19 00:53:00,,CLR,10.0,,59,,,,49.0,,69,3.0,140.0,,29.05,,,,,,72.0,57.0,,,,,,,,,,,,,,,,,,,,,,,,,,,,,,,,,,,,,,,,,,,,,,,,,,,,,,,,,,,,,,
KBUR,Burbank,,34.1808,-118.3089,2012-05-19 01:53:00,,CLR,10.0,,59,,,,50.0,,72,5.0,90.0,,29.04,2.0,Falling Rapidly,,,,,,,,,,,,,,,,,,,,,,,,,,,,,,,,,,,,,,,,,,,,,,,,,,,,,,,,,,,,,,,,,,,
KBUR,Burbank,,34.1808,-118.3089,2012-05-19 02:53:00,,CLR,10.0,,57,,,,50.0,,77,,,,29.03,,,,,,,,,,,,,,,,,,,,,,,,,,,,,,,,,,,,,,,,,,,,,,,,,,,,,,,,,,,,,,,,,,,,,
KBUR,Burbank,,34.1808,-118.3089,2012-05-19 03:53:00,,CLR,10.0,,57,,,,52.0,,83,,,,29.03,,,,,,,,,,,,,,,,,,,,,,,,,,,,,,,,,,,,,,,,,,,,,,,,,,,,,,,,,,,,,,,,,,,,,
KBUR,Burbank,,34.1808,-118.3089,2012-05-19 04:53:00,,FEW,10.0,,55,,,,50.0,,83,,,,29.04,0.0,Steady,,,,61.0,55.0,,,,,,,,,,,,,,,,,,,,,,,,,,,,,,,,,,,,,,,,,,,,,,,,,,,,,,,,,,,,,,
KBUR,Burbank,,34.1808,-118.3089,2012-05-19 05:40:00,,OVC,10.0,,55,,,,48.0,,77,,,,29.07,,,,,,,,,,,,,,,,,,,,,,,,,,,,,,,,,,,,,,,,,,,,,,,,,,,,,,,,,,,,,,,,,,,,,
KBUR,Burbank,,34.1808,-118.3089,2012-05-19 05:53:00,,OVC,10.0,,56,,,,49.0,,77,,,,29.05,,,,,,,,,,,,,,,,,,,,,,,,,,,,,,,,,,,,,,,,,,,,,,,,,,,,,,,,,,,,,,,,,,,,,
KBUR,Burbank,,34.1808,-118.3089,2012-05-19 06:14:00,,BKN,10.0,,54,,,,48.0,,82,3.0,310.0,,29.08,,,,,,,,,,,,,,,,,,,,,,,,,,,,,,,,,,,,,,,,,,,,,,,,,,,,,,,,,,,,,,,,,,,,,
KBUR,Burbank,,34.1808,-118.3089,2012-05-19 06:53:00,,SCT,10.0,,55,,,,49.0,,80,,,,29.06,,,,,,,,,,,,,,,,,,,,,,,,,,,,,,,,,,,,,,,,,,,,,,,,,,,,,,,,,,,,,,,,,,,,,
KBUR,Burbank,,34.1808,-118.3089,2012-05-19 07:53:00,,FEW,6.0,,58,,,,51.0,,78,,,,29.07,1.0,Rising,,,,,,,,,,,,,,,,,,,,,,,,,,,,,,,,,,,,,,,,,,,,,,,,,,,,,,,,,,,,,,,,,,,
KBUR,Burbank,,34.1808,-118.3089,2012-05-19 08:53:00,,FEW,7.0,,61,,,,52.0,,72,,,,29.08,,,,,,,,,,,,,,,,,,,,,,,,,,,,,,,,,,,,,,,,,,,,,,,,,,,,,,,,,,,,,,,,,,,,,
KBUR,Burbank,,34.1808,-118.3089,2012-05-19 09:53:00,,CLR,8.0,,64,,,,53.0,,67,3.0,,,29.08,,,,,,,,,,,,,,,,,,,,,,,,,,,,,,,,,,,,,,,,,,,,,,,,,,,,,,,,,,,,,,,,,,,,,
KBUR,Burbank,,34.1808,-118.3089,2012-05-19 10:53:00,,CLR,8.0,,68,,,,54.0,,61,,,,29.07,0.0,Steady,,,,68.0,54.0,,,,,,,,,,,,,,,,,,,,,,,,,,,,,,,,,,,,,,,,,,,,,,,,,,,,,,,,,,,,,,
KBUR,Burbank,,34.1808,-118.3089,2012-05-19 11:53:00,,CLR,8.0,,71,,,,54.0,,55,5.0,,,29.07,,,,,,,,,,,,,,,,,,,,,,,,,,,,,,,,,,,,,,,,,,,,,,,,,,,,,,,,,,,,,,,,,,,,,
KBUR,Burbank,,34.1808,-118.3089,2012-05-19 12:53:00,,CLR,10.0,,74,,,,54.0,,50,3.0,,,29.05,,,,,,,,,,,,,,,,,,,,,,,,,,,,,,,,,,,,,,,,,,,,,,,,,,,,,,,,,,,,,,,,,,,,,
KBUR,Burbank,,34.1808,-118.3089,2012-05-19 13:53:00,,CLR,10.0,,77,,,,55.0,,46,6.0,,,29.03,2.0,Falling Rapidly,,,,,,,,,,,,,,,,,,,,,,,,,,,,,,,,,,,,,,,,,,,,,,,,,,,,,,,,,,,,,,,,,,,
KBUR,Burbank,,34.1808,-118.3089,2012-05-19 14:53:00,,CLR,10.0,,78,,,,55.0,,45,8.0,170.0,,29.01,,,,,,,,,,,,,,,,,,,,,,,,,,,,,,,,,,,,,,,,,,,,,,,,,,,,,,,,,,,,,,,,,,,,,
KBUR,Burbank,,34.1808,-118.3089,2012-05-19 15:53:00,,CLR,10.0,,79,,,,55.0,,44,6.0,170.0,,29.0,,,,,,,,,,,,,,,,,,,,,,,,,,,,,,,,,,,,,,,,,,,,,,,,,,,,,,,,,,,,,,,,,,,,,
KBUR,Burbank,,34.1808,-118.3089,2012-05-19 16:53:00,,CLR,10.0,,75,,,,54.0,,48,12.0,180.0,,29.0,2.0,Falling,,,,80.0,68.0,,,,,,,,,,,,,,,,,,,,,,,,,,,,,,,,,,,,,,,,,,,,,,,,,,,,,,,,,,,,,,
KBUR,Burbank,,34.1808,-118.3089,2012-05-19 17:53:00,,CLR,10.0,,72,,,,54.0,,53,10.0,180.0,,29.0,,,,,,,,,,,,,,,,,,,,,,,,,,,,,,,,,,,,,,,,,,,,,,,,,,,,,,,,,,,,,,,,,,,,,
KBUR,Burbank,,34.1808,-118.3089,2012-05-19 18:53:00,,CLR,10.0,,69,,,,54.0,,58,8.0,180.0,,29.01,,,,,,,,,,,,,,,,,,,,,,,,,,,,,,,,,,,,,,,,,,,,,,,,,,,,,,,,,,,,,,,,,,,,,
KBUR,Burbank,,34.1808,-118.3089,2012-05-19 19:53:00,,CLR,10.0,,66,,,,55.0,,68,10.0,120.0,,29.03,1.0,Rising Rapidly,,,,,,,,,,,,,,,,,,,,,,,,,,,,,,,,,,,,,,,,,,,,,,,,,,,,,,,,,,,,,,,,,,,
KBUR,Burbank,,34.1808,-118.3089,2012-05-19 20:53:00,,CLR,10.0,,64,,,,55.0,,72,8.0,120.0,,29.05,,,,,,,,,,,,,,,,,,,,,,,,,,,,,,,,,,,,,,,,,,,,,,,,,,,,,,,,,,,,,,,,,,,,,
KBUR,Burbank,,34.1808,-118.3089,2012-05-19 21:53:00,,CLR,10.0,,62,,,,55.0,,78,5.0,160.0,,29.06,,,,,,,,,,,,,,,,,,,,,,,,,,,,,,,,,,,,,,,,,,,,,,,,,,,,,,,,,,,,,,,,,,,,,
KBUR,Burbank,,34.1808,-118.3089,2012-05-19 22:53:00,,CLR,10.0,,61,,,,55.0,,81,3.0,180.0,,29.07,1.0,Rising,,,,75.0,61.0,,,,,,,,,,,,,,,,,,,,,,,,,,,,,,,,,,,,,,,,,,,,,,,,,,,,,,,,,,,,,,
KBUR,Burbank,,34.1808,-118.3089,2012-05-19 23:53:00,,CLR,10.0,,62,,,,55.0,,78,7.0,100.0,,29.08,,,,,,,,,,,,,,,,,,,,,,,,,,,,,,,,,,,,,,,,,,,,,,,,,,,,,,,,,,,,,,,,,,,,,
KBUR,Burbank,,34.1808,-118.3089,2012-05-20 00:53:00,,CLR,9.0,,61,,,,54.0,,78,3.0,100.0,,29.07,,,,,,80.0,54.0,,,,,,,,,,,,,,,,,,,,,,,,,,,,,,,,,,,,,,,,,,,,,,,,,,,,,,,,,,,,,,
KBUR,Burbank,,34.1808,-118.3089,2012-05-20 01:53:00,,CLR,9.0,,60,,,,54.0,,80,,,,29.05,2.0,Falling Rapidly,,,,,,,,,,,,,,,,,,,,,,,,,,,,,,,,,,,,,,,,,,,,,,,,,,,,,,,,,,,,,,,,,,,
KBUR,Burbank,,34.1808,-118.3089,2012-05-20 02:53:00,,CLR,9.0,,59,,,,54.0,,83,3.0,150.0,,29.04,,,,,,,,,,,,,,,,,,,,,,,,,,,,,,,,,,,,,,,,,,,,,,,,,,,,,,,,,,,,,,,,,,,,,
KBUR,Burbank,,34.1808,-118.3089,2012-05-20 03:53:00,,CLR,8.0,,59,,,,54.0,,83,,,,29.03,,,,,,,,,,,,,,,,,,,,,,,,,,,,,,,,,,,,,,,,,,,,,,,,,,,,,,,,,,,,,,,,,,,,,
KBUR,Burbank,,34.1808,-118.3089,2012-05-20 04:53:00,,CLR,9.0,,58,,,,52.0,,81,3.0,150.0,,29.03,2.0,Falling,,,,62.0,58.0,,,,,,,,,,,,,,,,,,,,,,,,,,,,,,,,,,,,,,,,,,,,,,,,,,,,,,,,,,,,,,
KBUR,Burbank,,34.1808,-118.3089,2012-05-20 05:53:00,,CLR,7.0,,58,,,,54.0,,87,,,,29.04,,,,,,,,,,,,,,,,,,,,,,,,,,,,,,,,,,,,,,,,,,,,,,,,,,,,,,,,,,,,,,,,,,,,,
KBUR,Burbank,,34.1808,-118.3089,2012-05-20 06:53:00,,CLR,6.0,,58,,,,54.0,,87,,,,29.05,,,,,,,,,,,,,,,,,,,,,,,,,,,,,,,,,,,,,,,,,,,,,,,,,,,,,,,,,,,,,,,,,,,,,
KBUR,Burbank,,34.1808,-118.3089,2012-05-20 07:53:00,,CLR,6.0,,62,,,,55.0,,78,,,,29.06,1.0,Rising,,,,,,,,,,,,,,,,,,,,,,,,,,,,,,,,,,,,,,,,,,,,,,,,,,,,,,,,,,,,,,,,,,,
KBUR,Burbank,,34.1808,-118.3089,2012-05-20 08:53:00,,CLR,7.0,,64,,,,55.0,,72,,,,29.06,,,,,,,,,,,,,,,,,,,,,,,,,,,,,,,,,,,,,,,,,,,,,,,,,,,,,,,,,,,,,,,,,,,,,
KBUR,Burbank,,34.1808,-118.3089,2012-05-20 09:53:00,,CLR,10.0,,70,,,,55.0,,59,,,,29.06,,,,,,,,,,,,,,,,,,,,,,,,,,,,,,,,,,,,,,,,,,,,,,,,,,,,,,,,,,,,,,,,,,,,,
KBUR,Burbank,,34.1808,-118.3089,2012-05-20 10:53:00,,CLR,10.0,,75,,,,56.0,,51,,,,29.06,0.0,Steady,,,,75.0,57.0,,,,,,,,,,,,,,,,,,,,,,,,,,,,,,,,,,,,,,,,,,,,,,,,,,,,,,,,,,,,,,
KBUR,Burbank,,34.1808,-118.3089,2012-05-20 11:53:00,,CLR,10.0,,79,,,,57.0,,47,7.0,100.0,,29.05,,,,,,,,,,,,,,,,,,,,,,,,,,,,,,,,,,,,,,,,,,,,,,,,,,,,,,,,,,,,,,,,,,,,,
KBUR,Burbank,,34.1808,-118.3089,2012-05-20 12:53:00,,CLR,10.0,,83,,,,56.0,,39,6.0,,,29.03,,,,,,,,,,,,,,,,,,,,,,,,,,,,,,,,,,,,,,,,,,,,,,,,,,,,,,,,,,,,,,,,,,,,,
KBUR,Burbank,,34.1808,-118.3089,2012-05-20 13:53:00,,CLR,10.0,,86,,,,57.0,,37,7.0,190.0,,29.02,2.0,Falling Rapidly,,,,,,,,,,,,,,,,,,,,,,,,,,,,,,,,,,,,,,,,,,,,,,,,,,,,,,,,,,,,,,,,,,,
KBUR,Burbank,,34.1808,-118.3089,2012-05-20 14:53:00,,CLR,10.0,,90,,,,54.0,,29,7.0,150.0,,29.0,,,,,,,,,,,,,,,,,,,,,,,,,,,,,,,,,,,,,,,,,,,,,,,,,,,,,,,,,,,,,,,,,,,,,
KBUR,Burbank,,34.1808,-118.3089,2012-05-20 15:53:00,,CLR,10.0,,91,,,,54.0,,28,7.0,140.0,,28.98,,,,,,,,,,,,,,,,,,,,,,,,,,,,,,,,,,,,,,,,,,,,,,,,,,,,,,,,,,,,,,,,,,,,,
KBUR,Burbank,,34.1808,-118.3089,2012-05-20 16:53:00,,CLR,10.0,,89,,,,57.0,,34,9.0,100.0,,28.98,2.0,Falling,,,,92.0,75.0,,,,,,,,,,,,,,,,,,,,,,,,,,,,,,,,,,,,,,,,,,,,,,,,,,,,,,,,,,,,,,
KBUR,Burbank,,34.1808,-118.3089,2012-05-20 17:53:00,,CLR,10.0,,85,,,,57.0,,38,10.0,120.0,,28.98,,,,,,,,,,,,,,,,,,,,,,,,,,,,,,,,,,,,,,,,,,,,,,,,,,,,,,,,,,,,,,,,,,,,,
KBUR,Burbank,,34.1808,-118.3089,2012-05-20 18:53:00,,CLR,10.0,,74,,,,58.0,,57,9.0,120.0,,29.0,,,,,,,,,,,,,,,,,,,,,,,,,,,,,,,,,,,,,,,,,,,,,,,,,,,,,,,,,,,,,,,,,,,,,
KBUR,Burbank,,34.1808,-118.3089,2012-05-20 19:53:00,,CLR,10.0,,68,,,,57.0,,68,12.0,120.0,,29.02,1.0,Rising Rapidly,,,,,,,,,,,,,,,,,,,,,,,,,,,,,,,,,,,,,,,,,,,,,,,,,,,,,,,,,,,,,,,,,,,
KBUR,Burbank,,34.1808,-118.3089,2012-05-20 20:53:00,,CLR,10.0,,65,,,,56.0,,73,9.0,100.0,,29.04,,,,,,,,,,,,,,,,,,,,,,,,,,,,,,,,,,,,,,,,,,,,,,,,,,,,,,,,,,,,,,,,,,,,,
KBUR,Burbank,,34.1808,-118.3089,2012-05-20 21:53:00,,CLR,10.0,,64,,,,56.0,,75,8.0,110.0,,29.06,,,,,,,,,,,,,,,,,,,,,,,,,,,,,,,,,,,,,,,,,,,,,,,,,,,,,,,,,,,,,,,,,,,,,
KBUR,Burbank,,34.1808,-118.3089,2012-05-20 22:53:00,,CLR,10.0,,63,,,,56.0,,78,7.0,100.0,,29.07,1.0,Rising,,,,89.0,63.0,,,,,,,,,,,,,,,,,,,,,,,,,,,,,,,,,,,,,,,,,,,,,,,,,,,,,,,,,,,,,,
KBUR,Burbank,,34.1808,-118.3089,2012-05-20 23:53:00,,CLR,9.0,,63,,,,56.0,,78,6.0,120.0,,29.08,,,,,,,,,,,,,,,,,,,,,,,,,,,,,,,,,,,,,,,,,,,,,,,,,,,,,,,,,,,,,,,,,,,,,
KBUR,Burbank,,34.1808,-118.3089,2012-05-21 00:53:00,,CLR,8.0,,62,,,,56.0,,80,6.0,100.0,,29.08,,,,,,92.0,57.0,,,,,,,,,,,,,,,,,,,,,,,,,,,,,,,,,,,,,,,,,,,,,,,,,,,,,,,,,,,,,,
KBUR,Burbank,,34.1808,-118.3089,2012-05-21 01:53:00,,CLR,8.0,,61,,,,56.0,,83,,,,29.06,2.0,Falling Rapidly,,,,,,,,,,,,,,,,,,,,,,,,,,,,,,,,,,,,,,,,,,,,,,,,,,,,,,,,,,,,,,,,,,,
KBUR,Burbank,,34.1808,-118.3089,2012-05-21 02:53:00,,CLR,8.0,,60,,,,55.0,,83,,,,29.05,,,,,,,,,,,,,,,,,,,,,,,,,,,,,,,,,,,,,,,,,,,,,,,,,,,,,,,,,,,,,,,,,,,,,
KBUR,Burbank,,34.1808,-118.3089,2012-05-21 03:53:00,,CLR,8.0,,60,,,,55.0,,83,,,,29.04,,,,,,,,,,,,,,,,,,,,,,,,,,,,,,,,,,,,,,,,,,,,,,,,,,,,,,,,,,,,,,,,,,,,,
KBUR,Burbank,,34.1808,-118.3089,2012-05-21 04:53:00,,CLR,10.0,,59,,,,53.0,,81,,,,29.05,2.0,Falling,,,,64.0,59.0,,,,,,,,,,,,,,,,,,,,,,,,,,,,,,,,,,,,,,,,,,,,,,,,,,,,,,,,,,,,,,
KBUR,Burbank,,34.1808,-118.3089,2012-05-21 05:53:00,,CLR,10.0,,58,,,,51.0,,78,,,,29.05,,,,,,,,,,,,,,,,,,,,,,,,,,,,,,,,,,,,,,,,,,,,,,,,,,,,,,,,,,,,,,,,,,,,,
KBUR,Burbank,,34.1808,-118.3089,2012-05-21 06:53:00,,CLR,8.0,,60,,,,55.0,,83,,,,29.07,,,,,,,,,,,,,,,,,,,,,,,,,,,,,,,,,,,,,,,,,,,,,,,,,,,,,,,,,,,,,,,,,,,,,
KBUR,Burbank,,34.1808,-118.3089,2012-05-21 07:53:00,,CLR,7.0,,63,,,,55.0,,75,,,,29.08,1.0,Rising Rapidly,,,,,,,,,,,,,,,,,,,,,,,,,,,,,,,,,,,,,,,,,,,,,,,,,,,,,,,,,,,,,,,,,,,
KBUR,Burbank,,34.1808,-118.3089,2012-05-21 08:53:00,,CLR,7.0,,67,,,,56.0,,68,,,,29.08,,,,,,,,,,,,,,,,,,,,,,,,,,,,,,,,,,,,,,,,,,,,,,,,,,,,,,,,,,,,,,,,,,,,,
KBUR,Burbank,,34.1808,-118.3089,2012-05-21 09:53:00,,CLR,9.0,,73,,,,56.0,,55,,,,29.08,,,,,,,,,,,,,,,,,,,,,,,,,,,,,,,,,,,,,,,,,,,,,,,,,,,,,,,,,,,,,,,,,,,,,
KBUR,Burbank,,34.1808,-118.3089,2012-05-21 10:53:00,,CLR,8.0,,77,,,,56.0,,48,6.0,150.0,,29.08,0.0,Steady,,,,77.0,58.0,,,,,,,,,,,,,,,,,,,,,,,,,,,,,,,,,,,,,,,,,,,,,,,,,,,,,,,,,,,,,,
KBUR,Burbank,,34.1808,-118.3089,2012-05-21 11:53:00,,CLR,10.0,,81,,,,54.0,,39,6.0,,,29.07,,,,,,,,,,,,,,,,,,,,,,,,,,,,,,,,,,,,,,,,,,,,,,,,,,,,,,,,,,,,,,,,,,,,,
KBUR,Burbank,,34.1808,-118.3089,2012-05-21 12:53:00,,CLR,10.0,,86,,,,57.0,,37,7.0,90.0,,29.07,,,,,,,,,,,,,,,,,,,,,,,,,,,,,,,,,,,,,,,,,,,,,,,,,,,,,,,,,,,,,,,,,,,,,
KBUR,Burbank,,34.1808,-118.3089,2012-05-21 13:53:00,,CLR,10.0,,84,,,,56.0,,38,10.0,180.0,,29.06,2.0,Falling Rapidly,,,,,,,,,,,,,,,,,,,,,,,,,,,,,,,,,,,,,,,,,,,,,,,,,,,,,,,,,,,,,,,,,,,
KBUR,Burbank,,34.1808,-118.3089,2012-05-21 14:53:00,,CLR,10.0,,85,,,,52.0,,32,8.0,190.0,,29.05,,,,,,,,,,,,,,,,,,,,,,,,,,,,,,,,,,,,,,,,,,,,,,,,,,,,,,,,,,,,,,,,,,,,,
KBUR,Burbank,,34.1808,-118.3089,2012-05-21 15:53:00,,CLR,10.0,,85,,,,51.0,,31,9.0,170.0,,29.04,,,,,,,,,,,,,,,,,,,,,,,,,,,,,,,,,,,,,,,,,,,,,,,,,,,,,,,,,,,,,,,,,,,,,
KBUR,Burbank,,34.1808,-118.3089,2012-05-21 16:53:00,,CLR,10.0,,84,,,,49.0,,29,9.0,170.0,,29.03,2.0,Falling Rapidly,,,,87.0,77.0,,,,,,,,,,,,,,,,,,,,,,,,,,,,,,,,,,,,,,,,,,,,,,,,,,,,,,,,,,,,,,
KBUR,Burbank,,34.1808,-118.3089,2012-05-21 17:53:00,,CLR,10.0,,82,,,,50.0,,33,9.0,160.0,,29.02,,,,,,,,,,,,,,,,,,,,,,,,,,,,,,,,,,,,,,,,,,,,,,,,,,,,,,,,,,,,,,,,,,,,,
KBUR,Burbank,,34.1808,-118.3089,2012-05-21 18:53:00,,CLR,10.0,,79,,,,53.0,,40,12.0,120.0,,29.03,,,,,,,,,,,,,,,,,,,,,,,,,,,,,,,,,,,,,,,,,,,,,,,,,,,,,,,,,,,,,,,,,,,,,
KBUR,Burbank,,34.1808,-118.3089,2012-05-21 19:53:00,,CLR,10.0,,73,,,,55.0,,53,10.0,120.0,,29.04,1.0,Rising Rapidly,,,,,,,,,,,,,,,,,,,,,,,,,,,,,,,,,,,,,,,,,,,,,,,,,,,,,,,,,,,,,,,,,,,
KBUR,Burbank,,34.1808,-118.3089,2012-05-21 20:35:00,,CLR,10.0,,70,,,,55.0,,60,8.0,120.0,,29.07,,,,,,,,,,,,,,,,,,,,,,,,,,,,,,,,,,,,,,,,,,,,,,,,,,,,,,,,,,,,,,,,,,,,,
KBUR,Burbank,,34.1808,-118.3089,2012-05-21 20:53:00,,CLR,10.0,,69,,,,55.0,,61,7.0,110.0,,29.05,,,,,,,,,,,,,,,,,,,,,,,,,,,,,,,,,,,,,,,,,,,,,,,,,,,,,,,,,,,,,,,,,,,,,
KBUR,Burbank,,34.1808,-118.3089,2012-05-21 21:53:00,,CLR,10.0,,67,,,,55.0,,66,7.0,130.0,,29.07,,,,,,,,,,,,,,,,,,,,,,,,,,,,,,,,,,,,,,,,,,,,,,,,,,,,,,,,,,,,,,,,,,,,,
KBUR,Burbank,,34.1808,-118.3089,2012-05-21 22:53:00,,CLR,10.0,,65,,,,54.0,,68,9.0,110.0,,29.07,1.0,Rising,,,,85.0,65.0,,,,,,,,,,,,,,,,,,,,,,,,,,,,,,,,,,,,,,,,,,,,,,,,,,,,,,,,,,,,,,
KBUR,Burbank,,34.1808,-118.3089,2012-05-21 23:53:00,,CLR,10.0,,64,,,,54.0,,70,9.0,110.0,,29.06,,,,,,,,,,,,,,,,,,,,,,,,,,,,,,,,,,,,,,,,,,,,,,,,,,,,,,,,,,,,,,,,,,,,,
KBUR,Burbank,,34.1808,-118.3089,2012-05-22 00:53:00,,CLR,10.0,,63,,,,54.0,,72,8.0,110.0,,29.05,,,,,,87.0,58.0,,,,,,,,,,,,,,,,,,,,,,,,,,,,,,,,,,,,,,,,,,,,,,,,,,,,,,,,,,,,,,
KBUR,Burbank,,34.1808,-118.3089,2012-05-22 01:53:00,,CLR,10.0,,62,,,,54.0,,75,8.0,100.0,,29.05,2.0,Falling,,,,,,,,,,,,,,,,,,,,,,,,,,,,,,,,,,,,,,,,,,,,,,,,,,,,,,,,,,,,,,,,,,,
KBUR,Burbank,,34.1808,-118.3089,2012-05-22 02:53:00,,CLR,10.0,,61,,,,54.0,,78,6.0,90.0,,29.04,,,,,,,,,,,,,,,,,,,,,,,,,,,,,,,,,,,,,,,,,,,,,,,,,,,,,,,,,,,,,,,,,,,,,
KBUR,Burbank,,34.1808,-118.3089,2012-05-22 03:53:00,,CLR,10.0,,61,,,,53.0,,75,3.0,90.0,,29.04,,,,,,,,,,,,,,,,,,,,,,,,,,,,,,,,,,,,,,,,,,,,,,,,,,,,,,,,,,,,,,,,,,,,,
KBUR,Burbank,,34.1808,-118.3089,2012-05-22 04:53:00,,CLR,10.0,,61,,,,54.0,,78,5.0,110.0,,29.03,2.0,Falling,,,,65.0,60.0,,,,,,,,,,,,,,,,,,,,,,,,,,,,,,,,,,,,,,,,,,,,,,,,,,,,,,,,,,,,,,
KBUR,Burbank,,34.1808,-118.3089,2012-05-22 05:53:00,,CLR,10.0,,60,,,,54.0,,80,5.0,110.0,,29.03,,,,,,,,,,,,,,,,,,,,,,,,,,,,,,,,,,,,,,,,,,,,,,,,,,,,,,,,,,,,,,,,,,,,,
KBUR,Burbank,,34.1808,-118.3089,2012-05-22 06:53:00,,CLR,10.0,,61,,,,54.0,,78,7.0,100.0,,29.04,,,,,,,,,,,,,,,,,,,,,,,,,,,,,,,,,,,,,,,,,,,,,,,,,,,,,,,,,,,,,,,,,,,,,
KBUR,Burbank,,34.1808,-118.3089,2012-05-22 07:53:00,,CLR,10.0,,64,,,,55.0,,72,8.0,120.0,,29.05,1.0,Rising Rapidly,,,,,,,,,,,,,,,,,,,,,,,,,,,,,,,,,,,,,,,,,,,,,,,,,,,,,,,,,,,,,,,,,,,
KBUR,Burbank,,34.1808,-118.3089,2012-05-22 08:53:00,,CLR,10.0,,67,,,,55.0,,66,7.0,130.0,,29.05,,,,,,,,,,,,,,,,,,,,,,,,,,,,,,,,,,,,,,,,,,,,,,,,,,,,,,,,,,,,,,,,,,,,,
KBUR,Burbank,,34.1808,-118.3089,2012-05-22 09:53:00,,CLR,10.0,,70,,,,55.0,,59,14.0,120.0,,29.05,,,,,,,,,,,,,,,,,,,,,,,,,,,,,,,,,,,,,,,,,,,,,,,,,,,,,,,,,,,,,,,,,,,,,
KBUR,Burbank,,34.1808,-118.3089,2012-05-22 10:53:00,,CLR,10.0,,74,,,,55.0,,52,9.0,110.0,,29.04,2.0,Falling Rapidly,,,,74.0,60.0,,,,,,,,,,,,,,,,,,,,,,,,,,,,,,,,,,,,,,,,,,,,,,,,,,,,,,,,,,,,,,
KBUR,Burbank,,34.1808,-118.3089,2012-05-22 11:53:00,,CLR,10.0,,77,,,,56.0,,48,14.0,110.0,,29.03,,,,,,,,,,,,,,,,,,,,,,,,,,,,,,,,,,,,,,,,,,,,,,,,,,,,,,,,,,,,,,,,,,,,,
KBUR,Burbank,,34.1808,-118.3089,2012-05-22 12:53:00,,CLR,10.0,,80,,,,56.0,,43,13.0,170.0,20.0,29.01,,,,,,,,,,,,,,,,,,,,,,,,,,,,,,,,,,,,,,,,,,,,,,,,,,,,,,,,,,,,,,,,,,,,,
KBUR,Burbank,,34.1808,-118.3089,2012-05-22 13:53:00,,CLR,10.0,,81,,,,54.0,,39,13.0,180.0,,29.0,2.0,Falling,,,,,,,,,,,,,,,,,,,,,,,,,,,,,,,,,,,,,,,,,,,,,,,,,,,,,,,,,,,,,,,,,,,
KBUR,Burbank,,34.1808,-118.3089,2012-05-22 14:53:00,,CLR,10.0,,82,,,,53.0,,37,10.0,170.0,,28.99,,,,,,,,,,,,,,,,,,,,,,,,,,,,,,,,,,,,,,,,,,,,,,,,,,,,,,,,,,,,,,,,,,,,,
KBUR,Burbank,,34.1808,-118.3089,2012-05-22 15:53:00,,CLR,10.0,,81,,,,50.0,,34,13.0,180.0,,28.97,,,,,,,,,,,,,,,,,,,,,,,,,,,,,,,,,,,,,,,,,,,,,,,,,,,,,,,,,,,,,,,,,,,,,
KBUR,Burbank,,34.1808,-118.3089,2012-05-22 16:53:00,,CLR,10.0,,80,,,,52.0,,38,10.0,180.0,,28.95,2.0,Falling Rapidly,,,,83.0,74.0,,,,,,,,,,,,,,,,,,,,,,,,,,,,,,,,,,,,,,,,,,,,,,,,,,,,,,,,,,,,,,
KBUR,Burbank,,34.1808,-118.3089,2012-05-22 17:53:00,,CLR,10.0,,77,,,,53.0,,43,9.0,190.0,,28.95,,,,,,,,,,,,,,,,,,,,,,,,,,,,,,,,,,,,,,,,,,,,,,,,,,,,,,,,,,,,,,,,,,,,,
KBUR,Burbank,,34.1808,-118.3089,2012-05-22 18:53:00,,CLR,9.0,,74,,,,55.0,,52,9.0,170.0,,28.95,,,,,,,,,,,,,,,,,,,,,,,,,,,,,,,,,,,,,,,,,,,,,,,,,,,,,,,,,,,,,,,,,,,,,
KBUR,Burbank,,34.1808,-118.3089,2012-05-22 19:53:00,,CLR,10.0,,71,,,,56.0,,59,3.0,,,28.97,1.0,Rising Rapidly,,,,,,,,,,,,,,,,,,,,,,,,,,,,,,,,,,,,,,,,,,,,,,,,,,,,,,,,,,,,,,,,,,,
KBUR,Burbank,,34.1808,-118.3089,2012-05-22 20:53:00,,CLR,10.0,,70,,,,58.0,,65,13.0,120.0,,28.96,,,,,,,,,,,,,,,,,,,,,,,,,,,,,,,,,,,,,,,,,,,,,,,,,,,,,,,,,,,,,,,,,,,,,
KBUR,Burbank,,34.1808,-118.3089,2012-05-22 21:53:00,,CLR,10.0,,68,,,,58.0,,70,9.0,120.0,,28.97,,,,,,,,,,,,,,,,,,,,,,,,,,,,,,,,,,,,,,,,,,,,,,,,,,,,,,,,,,,,,,,,,,,,,
KBUR,Burbank,,34.1808,-118.3089,2012-05-22 22:53:00,,CLR,10.0,,66,,,,58.0,,75,10.0,90.0,,28.97,1.0,Rising Rapidly,,,,80.0,66.0,,,,,,,,,,,,,,,,,,,,,,,,,,,,,,,,,,,,,,,,,,,,,,,,,,,,,,,,,,,,,,
KBUR,Burbank,,34.1808,-118.3089,2012-05-22 23:53:00,,CLR,10.0,,64,,,,58.0,,80,12.0,110.0,,28.95,,,,,,,,,,,,,,,,,,,,,,,,,,,,,,,,,,,,,,,,,,,,,,,,,,,,,,,,,,,,,,,,,,,,,
KBUR,Burbank,,34.1808,-118.3089,2012-05-23 00:53:00,,CLR,10.0,,63,,,,57.0,,82,13.0,100.0,,28.98,,,,,,,,,,,,,,,,,,,,,,,,,,,,,,,,,,,,,,,,,,,,,,,,,,,,,,,,,,,,,,,,,,,,,
KBUR,Burbank,,34.1808,-118.3089,2012-05-23 01:53:00,,CLR,6.0,,61,,,,58.0,,90,10.0,120.0,,28.94,2.0,Falling,,,,,,,,,,,,,,,,,,,,,,,,,,,,,,,,,,,,,,,,,,,,,,,,,,,,,,,,,,,,,,,,,,,
KBUR,Burbank,,34.1808,-118.3089,2012-05-23 02:53:00,,CLR,5.0,,61,,,,57.0,,87,12.0,110.0,,28.92,,,,,,,,,,,,,,,,,,,,,,,,,,,,,,,,,,,,,,,,,,,,,,,,,,,,,,,,,,,,,,,,,,,,,
KBUR,Burbank,,34.1808,-118.3089,2012-05-23 03:53:00,,FEW,6.0,,60,,,,57.0,,90,12.0,110.0,,28.91,,,,,,,,,,,,,,,,,,,,,,,,,,,,,,,,,,,,,,,,,,,,,,,,,,,,,,,,,,,,,,,,,,,,,
KBUR,Burbank,,34.1808,-118.3089,2012-05-23 04:53:00,,CLR,7.0,,60,,,,56.0,,86,8.0,110.0,,28.93,0.0,Steady,,,,66.0,60.0,,,,,,,,,,,,,,,,,,,,,,,,,,,,,,,,,,,,,,,,,,,,,,,,,,,,,,,,,,,,,,
KBUR,Burbank,,34.1808,-118.3089,2012-05-23 05:34:00,,FEW,7.0,,61,,,,55.0,,82,7.0,120.0,,28.97,,,,,,,,,,,,,,,,,,,,,,,,,,,,,,,,,,,,,,,,,,,,,,,,,,,,,,,,,,,,,,,,,,,,,
KBUR,Burbank,,34.1808,-118.3089,2012-05-23 05:53:00,,FEW,5.0,,60,,,,56.0,,86,6.0,140.0,,28.93,,,,,,,,,,,,,,,,,,,,,,,,,,,,,,,,,,,,,,,,,,,,,,,,,,,,,,,,,,,,,,,,,,,,,
KBUR,Burbank,,34.1808,-118.3089,2012-05-23 06:53:00,,FEW,6.0,,60,,,,55.0,,83,5.0,120.0,,28.94,,,,,,,,,,,,,,,,,,,,,,,,,,,,,,,,,,,,,,,,,,,,,,,,,,,,,,,,,,,,,,,,,,,,,
KBUR,Burbank,,34.1808,-118.3089,2012-05-23 07:53:00,,CLR,9.0,,63,,,,55.0,,75,10.0,110.0,17.0,28.93,0.0,Steady,,,,,,,,,,,,,,,,,,,,,,,,,,,,,,,,,,,,,,,,,,,,,,,,,,,,,,,,,,,,,,,,,,,
KBUR,Burbank,,34.1808,-118.3089,2012-05-23 08:53:00,,CLR,10.0,,67,,,,55.0,,66,9.0,100.0,,28.94,,,,,,,,,,,,,,,,,,,,,,,,,,,,,,,,,,,,,,,,,,,,,,,,,,,,,,,,,,,,,,,,,,,,,
KBUR,Burbank,,34.1808,-118.3089,2012-05-23 09:53:00,,CLR,10.0,,70,,,,55.0,,59,8.0,120.0,,28.93,,,,,,,,,,,,,,,,,,,,,,,,,,,,,,,,,,,,,,,,,,,,,,,,,,,,,,,,,,,,,,,,,,,,,
KBUR,Burbank,,34.1808,-118.3089,2012-05-23 10:53:00,,CLR,10.0,,74,,,,55.0,,52,14.0,120.0,,28.93,2.0,Falling Rapidly,,,,76.0,59.0,,,,,,,,,,,,,,,,,,,,,,,,,,,,,,,,,,,,,,,,,,,,,,,,,,,,,,,,,,,,,,
KBUR,Burbank,,34.1808,-118.3089,2012-05-23 11:53:00,,CLR,10.0,,74,,,,56.0,,53,10.0,180.0,,28.92,,,,,,,,,,,,,,,,,,,,,,,,,,,,,,,,,,,,,,,,,,,,,,,,,,,,,,,,,,,,,,,,,,,,,
KBUR,Burbank,,34.1808,-118.3089,2012-05-23 12:53:00,,CLR,10.0,,74,,,,55.0,,52,10.0,180.0,,28.9,,,,,,,,,,,,,,,,,,,,,,,,,,,,,,,,,,,,,,,,,,,,,,,,,,,,,,,,,,,,,,,,,,,,,
KBUR,Burbank,,34.1808,-118.3089,2012-05-23 13:53:00,,CLR,10.0,,74,,,,53.0,,48,12.0,190.0,,28.88,2.0,Falling Rapidly,,,,,,,,,,,,,,,,,,,,,,,,,,,,,,,,,,,,,,,,,,,,,,,,,,,,,,,,,,,,,,,,,,,
KBUR,Burbank,,34.1808,-118.3089,2012-05-23 14:53:00,,CLR,10.0,,77,,,,54.0,,45,9.0,160.0,,28.87,,,,,,,,,,,,,,,,,,,,,,,,,,,,,,,,,,,,,,,,,,,,,,,,,,,,,,,,,,,,,,,,,,,,,
KBUR,Burbank,,34.1808,-118.3089,2012-05-23 15:53:00,,CLR,10.0,,76,,,,54.0,,46,9.0,170.0,,28.85,,,,,,,,,,,,,,,,,,,,,,,,,,,,,,,,,,,,,,,,,,,,,,,,,,,,,,,,,,,,,,,,,,,,,
KBUR,Burbank,,34.1808,-118.3089,2012-05-23 16:53:00,,CLR,10.0,,75,,,,55.0,,50,12.0,150.0,,28.83,2.0,Falling,,,,78.0,73.0,,,,,,,,,,,,,,,,,,,,,,,,,,,,,,,,,,,,,,,,,,,,,,,,,,,,,,,,,,,,,,
KBUR,Burbank,,34.1808,-118.3089,2012-05-23 17:53:00,,CLR,10.0,,72,,,,54.0,,53,13.0,170.0,,28.83,,,,,,,,,,,,,,,,,,,,,,,,,,,,,,,,,,,,,,,,,,,,,,,,,,,,,,,,,,,,,,,,,,,,,
KBUR,Burbank,,34.1808,-118.3089,2012-05-23 18:53:00,,CLR,10.0,,69,,,,48.0,,47,10.0,140.0,,28.84,,,,,,,,,,,,,,,,,,,,,,,,,,,,,,,,,,,,,,,,,,,,,,,,,,,,,,,,,,,,,,,,,,,,,
KBUR,Burbank,,34.1808,-118.3089,2012-05-23 19:53:00,,CLR,10.0,,64,,,,49.0,,58,9.0,160.0,,28.84,1.0,Rising Rapidly,,,,,,,,,,,,,,,,,,,,,,,,,,,,,,,,,,,,,,,,,,,,,,,,,,,,,,,,,,,,,,,,,,,
KBUR,Burbank,,34.1808,-118.3089,2012-05-23 20:53:00,,CLR,10.0,,65,,,,52.0,,63,8.0,130.0,,28.84,,,,,,,,,,,,,,,,,,,,,,,,,,,,,,,,,,,,,,,,,,,,,,,,,,,,,,,,,,,,,,,,,,,,,
KBUR,Burbank,,34.1808,-118.3089,2012-05-23 21:53:00,,CLR,10.0,,64,,,,53.0,,67,12.0,130.0,,28.85,,,,,,,,,,,,,,,,,,,,,,,,,,,,,,,,,,,,,,,,,,,,,,,,,,,,,,,,,,,,,,,,,,,,,
KBUR,Burbank,,34.1808,-118.3089,2012-05-23 22:53:00,,CLR,10.0,,62,,,,55.0,,78,10.0,130.0,,28.86,1.0,Rising,,,,75.0,62.0,,,,,,,,,,,,,,,,,,,,,,,,,,,,,,,,,,,,,,,,,,,,,,,,,,,,,,,,,,,,,,
KBUR,Burbank,,34.1808,-118.3089,2012-05-23 23:53:00,,CLR,10.0,,61,,,,54.0,,78,14.0,130.0,,28.86,,,,,,,,,,,,,,,,,,,,,,,,,,,,,,,,,,,,,,,,,,,,,,,,,,,,,,,,,,,,,,,,,,,,,
KBUR,Burbank,,34.1808,-118.3089,2012-05-24 00:53:00,,FEW,10.0,,60,,,,55.0,,83,5.0,150.0,,28.86,,,,,,78.0,59.0,,,,,,,,,,,,,,,,,,,,,,,,,,,,,,,,,,,,,,,,,,,,,,,,,,,,,,,,,,,,,,
KBUR,Burbank,,34.1808,-118.3089,2012-05-24 01:53:00,,FEW,10.0,,60,,,,54.0,,80,8.0,120.0,,28.85,2.0,Falling Rapidly,,,,,,,,,,,,,,,,,,,,,,,,,,,,,,,,,,,,,,,,,,,,,,,,,,,,,,,,,,,,,,,,,,,
KBUR,Burbank,,34.1808,-118.3089,2012-05-24 02:53:00,,FEW,10.0,,60,,,,55.0,,83,7.0,130.0,,28.84,,,,,,,,,,,,,,,,,,,,,,,,,,,,,,,,,,,,,,,,,,,,,,,,,,,,,,,,,,,,,,,,,,,,,
KBUR,Burbank,,34.1808,-118.3089,2012-05-24 03:53:00,,FEW,10.0,,59,,,,54.0,,83,3.0,160.0,,28.84,,,,,,,,,,,,,,,,,,,,,,,,,,,,,,,,,,,,,,,,,,,,,,,,,,,,,,,,,,,,,,,,,,,,,
KBUR,Burbank,,34.1808,-118.3089,2012-05-24 04:53:00,,CLR,9.0,,58,,,,54.0,,87,5.0,180.0,,28.84,0.0,Steady,,,,62.0,58.0,,,,,,,,,,,,,,,,,,,,,,,,,,,,,,,,,,,,,,,,,,,,,,,,,,,,,,,,,,,,,,
KBUR,Burbank,,34.1808,-118.3089,2012-05-24 05:53:00,,SCT,10.0,,58,,,,53.0,,84,3.0,160.0,,28.85,,,,,,,,,,,,,,,,,,,,,,,,,,,,,,,,,,,,,,,,,,,,,,,,,,,,,,,,,,,,,,,,,,,,,
KBUR,Burbank,,34.1808,-118.3089,2012-05-24 06:53:00,,SCT,10.0,,58,,,,54.0,,87,3.0,170.0,,28.86,,,,,,,,,,,,,,,,,,,,,,,,,,,,,,,,,,,,,,,,,,,,,,,,,,,,,,,,,,,,,,,,,,,,,
KBUR,Burbank,,34.1808,-118.3089,2012-05-24 07:53:00,,BKN,9.0,,60,,,,54.0,,80,3.0,190.0,,28.88,1.0,Rising Rapidly,,,,,,,,,,,,,,,,,,,,,,,,,,,,,,,,,,,,,,,,,,,,,,,,,,,,,,,,,,,,,,,,,,,
KBUR,Burbank,,34.1808,-118.3089,2012-05-24 08:10:00,,SCT,10.0,,61,,,,54.0,,77,3.0,160.0,,28.92,,,,,,,,,,,,,,,,,,,,,,,,,,,,,,,,,,,,,,,,,,,,,,,,,,,,,,,,,,,,,,,,,,,,,
KBUR,Burbank,,34.1808,-118.3089,2012-05-24 08:19:00,,BKN,10.0,,61,,,,54.0,,77,6.0,180.0,,28.92,,,,,,,,,,,,,,,,,,,,,,,,,,,,,,,,,,,,,,,,,,,,,,,,,,,,,,,,,,,,,,,,,,,,,
KBUR,Burbank,,34.1808,-118.3089,2012-05-24 08:53:00,,BKN,10.0,,61,,,,53.0,,75,6.0,140.0,,28.89,,,,,,,,,,,,,,,,,,,,,,,,,,,,,,,,,,,,,,,,,,,,,,,,,,,,,,,,,,,,,,,,,,,,,
KBUR,Burbank,,34.1808,-118.3089,2012-05-24 09:53:00,,SCT,10.0,,65,,,,52.0,,63,,,,28.88,,,,,,,,,,,,,,,,,,,,,,,,,,,,,,,,,,,,,,,,,,,,,,,,,,,,,,,,,,,,,,,,,,,,,
KBUR,Burbank,,34.1808,-118.3089,2012-05-24 10:53:00,,CLR,10.0,,68,,,,52.0,,56,8.0,200.0,,28.87,2.0,Falling Rapidly,,,,68.0,58.0,,,,,,,,,,,,,,,,,,,,,,,,,,,,,,,,,,,,,,,,,,,,,,,,,,,,,,,,,,,,,,
KBUR,Burbank,,34.1808,-118.3089,2012-05-24 11:53:00,,CLR,10.0,,70,,,,53.0,,55,10.0,160.0,,28.86,,,,,,,,,,,,,,,,,,,,,,,,,,,,,,,,,,,,,,,,,,,,,,,,,,,,,,,,,,,,,,,,,,,,,
KBUR,Burbank,,34.1808,-118.3089,2012-05-24 12:53:00,,CLR,10.0,,70,,,,54.0,,57,9.0,160.0,,28.85,,,,,,,,,,,,,,,,,,,,,,,,,,,,,,,,,,,,,,,,,,,,,,,,,,,,,,,,,,,,,,,,,,,,,
KBUR,Burbank,,34.1808,-118.3089,2012-05-24 13:53:00,,CLR,10.0,,70,,,,53.0,,55,12.0,180.0,,28.84,2.0,Falling,,,,,,,,,,,,,,,,,,,,,,,,,,,,,,,,,,,,,,,,,,,,,,,,,,,,,,,,,,,,,,,,,,,
KBUR,Burbank,,34.1808,-118.3089,2012-05-24 14:53:00,,CLR,10.0,,71,,,,53.0,,53,10.0,210.0,,28.83,,,,,,,,,,,,,,,,,,,,,,,,,,,,,,,,,,,,,,,,,,,,,,,,,,,,,,,,,,,,,,,,,,,,,
KBUR,Burbank,,34.1808,-118.3089,2012-05-24 15:53:00,,CLR,10.0,,71,,,,53.0,,53,10.0,180.0,,28.82,,,,,,,,,,,,,,,,,,,,,,,,,,,,,,,,,,,,,,,,,,,,,,,,,,,,,,,,,,,,,,,,,,,,,
KBUR,Burbank,,34.1808,-118.3089,2012-05-24 16:53:00,,CLR,10.0,,70,,,,54.0,,57,9.0,180.0,,28.8,2.0,Falling Rapidly,,,,72.0,67.0,,,,,,,,,,,,,,,,,,,,,,,,,,,,,,,,,,,,,,,,,,,,,,,,,,,,,,,,,,,,,,
KBUR,Burbank,,34.1808,-118.3089,2012-05-24 17:53:00,,CLR,10.0,,69,,,,53.0,,57,9.0,170.0,,28.8,,,,,,,,,,,,,,,,,,,,,,,,,,,,,,,,,,,,,,,,,,,,,,,,,,,,,,,,,,,,,,,,,,,,,
KBUR,Burbank,,34.1808,-118.3089,2012-05-24 18:53:00,,CLR,10.0,,65,,,,53.0,,65,12.0,160.0,,28.81,,,,,,,,,,,,,,,,,,,,,,,,,,,,,,,,,,,,,,,,,,,,,,,,,,,,,,,,,,,,,,,,,,,,,
KBUR,Burbank,,34.1808,-118.3089,2012-05-24 19:53:00,,BKN,10.0,,63,,,,54.0,,72,8.0,190.0,,28.83,1.0,Rising Rapidly,,,,,,,,,,,,,,,,,,,,,,,,,,,,,,,,,,,,,,,,,,,,,,,,,,,,,,,,,,,,,,,,,,,
KBUR,Burbank,,34.1808,-118.3089,2012-05-24 20:53:00,,OVC,10.0,,62,,,,55.0,,78,8.0,180.0,,28.83,,,,,,,,,,,,,,,,,,,,,,,,,,,,,,,,,,,,,,,,,,,,,,,,,,,,,,,,,,,,,,,,,,,,,
KBUR,Burbank,,34.1808,-118.3089,2012-05-24 21:53:00,,OVC,10.0,,62,,,,55.0,,78,7.0,170.0,,28.84,,,,,,,,,,,,,,,,,,,,,,,,,,,,,,,,,,,,,,,,,,,,,,,,,,,,,,,,,,,,,,,,,,,,,
KBUR,Burbank,,34.1808,-118.3089,2012-05-24 22:53:00,,OVC,10.0,,61,,,,54.0,,78,8.0,160.0,,28.86,1.0,Rising Rapidly,,,,70.0,61.0,,,,,,,,,,,,,,,,,,,,,,,,,,,,,,,,,,,,,,,,,,,,,,,,,,,,,,,,,,,,,,
KBUR,Burbank,,34.1808,-118.3089,2012-05-24 23:53:00,,OVC,9.0,,60,,,,54.0,,80,8.0,140.0,,28.86,,,,,,,,,,,,,,,,,,,,,,,,,,,,,,,,,,,,,,,,,,,,,,,,,,,,,,,,,,,,,,,,,,,,,
KBUR,Burbank,,34.1808,-118.3089,2012-05-25 00:53:00,,OVC,10.0,,60,,,,54.0,,80,7.0,170.0,,28.85,,,,,,72.0,58.0,,,,,,,,,,,,,,,,,,,,,,,,,,,,,,,,,,,,,,,,,,,,,,,,,,,,,,,,,,,,,,
KBUR,Burbank,,34.1808,-118.3089,2012-05-25 01:49:00,,OVC,5.0,,57,,,,55.0,,94,6.0,160.0,,28.88,,,,0.0,,,,,,,,,,,,,,,,,,,,,,,,,,,,,,,,,,,,,,,,,,,,,,,,,,,,,,,,,,,,,,,,,
KBUR,Burbank,,34.1808,-118.3089,2012-05-25 01:53:00,,OVC,5.0,,58,,,,56.0,,93,7.0,170.0,,28.84,2.0,Falling Rapidly,,0.0,,,,,,,,,,,,,,,,,,,,,,,,,,,,,,,,,,,,,,,,,,,,,,,,,,,,,,,,,,,,,,,,,
KBUR,Burbank,,34.1808,-118.3089,2012-05-25 02:04:00,,OVC,5.0,,57,,,,55.0,,94,7.0,130.0,,28.88,,,,0.0,,,,,,,,,,,,,,,,,,,,,,,,,,,,,,,,,,,,,,,,,,,,,,,,,,,,,,,,,,,,,,,,,
KBUR,Burbank,,34.1808,-118.3089,2012-05-25 02:24:00,,OVC,7.0,,57,,,,55.0,,94,8.0,110.0,,28.88,,,,0.0,,,,,,,,,,,,,,,,,,,,,,,,,,,,,,,,,,,,,,,,,,,,,,,,,,,,,,,,,,,,,,,,,
KBUR,Burbank,,34.1808,-118.3089,2012-05-25 02:46:00,,OVC,9.0,,57,,,,55.0,,94,8.0,140.0,,28.88,,,,0.0,,,,,,,,,,,,,,,,,,,,,,,,,,,,,,,,,,,,,,,,,,,,,,,,,,,,,,,,,,,,,,,,,
KBUR,Burbank,,34.1808,-118.3089,2012-05-25 02:53:00,,OVC,10.0,,58,,,,55.0,,90,7.0,130.0,,28.85,,,,0.0,,,,,,,,,,,,,,,,,,,,,,,,,,,,,,,,,,,,,,,,,,,,,,,,,,,,,,,,,,,,,,,,,
KBUR,Burbank,,34.1808,-118.3089,2012-05-25 03:17:00,,OVC,10.0,,59,,,,54.0,,82,7.0,140.0,,28.88,,,,,,,,,,,,,,,,,,,,,,,,,,,,,,,,,,,,,,,,,,,,,,,,,,,,,,,,,,,,,,,,,,,,,
KBUR,Burbank,,34.1808,-118.3089,2012-05-25 03:53:00,,OVC,10.0,,59,,,,53.0,,81,8.0,120.0,,28.86,,,,,,,,,,,,,,,,,,,,,,,,,,,,,,,,,,,,,,,,,,,,,,,,,,,,,,,,,,,,,,,,,,,,,
KBUR,Burbank,,34.1808,-118.3089,2012-05-25 04:53:00,,OVC,10.0,,59,,,,52.0,,78,9.0,140.0,,28.85,0.0,Steady,,0.0,,62.0,58.0,,,,,,,,,,,,,,,,,,,,,,,,,,,,,,,,,,,,,,,,,,,,,,,,,,,,,,,,,,,,,,
KBUR,Burbank,,34.1808,-118.3089,2012-05-25 05:53:00,,OVC,10.0,,60,,,,51.0,,72,8.0,140.0,,28.85,,,,,,,,,,,,,,,,,,,,,,,,,,,,,,,,,,,,,,,,,,,,,,,,,,,,,,,,,,,,,,,,,,,,,
KBUR,Burbank,,34.1808,-118.3089,2012-05-25 06:53:00,,OVC,10.0,,60,,,,52.0,,75,8.0,150.0,,28.87,,,,,,,,,,,,,,,,,,,,,,,,,,,,,,,,,,,,,,,,,,,,,,,,,,,,,,,,,,,,,,,,,,,,,
KBUR,Burbank,,34.1808,-118.3089,2012-05-25 07:53:00,,BKN,10.0,,59,,,,54.0,,83,8.0,160.0,,28.88,1.0,Rising Rapidly,,0.0,,,,,,,,,,,,,,,,,,,,,,,,,,,,,,,,,,,,,,,,,,,,,,,,,,,,,,,,,,,,,,,,,
KBUR,Burbank,,34.1808,-118.3089,2012-05-25 08:22:00,,BKN,10.0,,61,,,,54.0,,77,10.0,170.0,,28.91,,,,,,,,,,,,,,,,,,,,,,,,,,,,,,,,,,,,,,,,,,,,,,,,,,,,,,,,,,,,,,,,,,,,,
KBUR,Burbank,,34.1808,-118.3089,2012-05-25 08:53:00,,OVC,10.0,,61,,,,53.0,,75,13.0,140.0,,28.88,,,,,,,,,,,,,,,,,,,,,,,,,,,,,,,,,,,,,,,,,,,,,,,,,,,,,,,,,,,,,,,,,,,,,
KBUR,Burbank,,34.1808,-118.3089,2012-05-25 09:06:00,,OVC,10.0,,61,,,,54.0,,77,12.0,140.0,25.0,28.92,,,,,,,,,,,,,,,,,,,,,,,,,,,,,,,,,,,,,,,,,,,,,,,,,,,,,,,,,,,,,,,,,,,,,
KBUR,Burbank,,34.1808,-118.3089,2012-05-25 09:53:00,,OVC,10.0,,61,,,,53.0,,75,12.0,170.0,,28.88,,,,0.0,,,,,,,,,,,,,,,,,,,,,,,,,,,,,,,,,,,,,,,,,,,,,,,,,,,,,,,,,,,,,,,,,
KBUR,Burbank,,34.1808,-118.3089,2012-05-25 10:53:00,,BKN,10.0,,63,,,,53.0,,70,14.0,160.0,,28.89,1.0,Rising,,0.0,,63.0,59.0,,,,,,,,,,,,,,,,,,,,,,,,,,,,,,,,,,,,,,,,,,,,,,,,,,,,,,,,,,,,,,
KBUR,Burbank,,34.1808,-118.3089,2012-05-25 11:00:00,,BKN,10.0,,64,,,,54.0,,68,15.0,160.0,21.0,28.92,,,,,,,,,,,,,,,,,,,,,,,,,,,,,,,,,,,,,,,,,,,,,,,,,,,,,,,,,,,,,,,,,,,,,
KBUR,Burbank,,34.1808,-118.3089,2012-05-25 11:53:00,,BKN,10.0,,65,,,,51.0,,61,15.0,190.0,,28.9,,,,,,,,,,,,,,,,,,,,,,,,,,,,,,,,,,,,,,,,,,,,,,,,,,,,,,,,,,,,,,,,,,,,,
KBUR,Burbank,,34.1808,-118.3089,2012-05-25 12:53:00,,BKN,10.0,,65,,,,49.0,,56,16.0,180.0,25.0,28.89,,,,,,,,,,,,,,,,,,,,,,,,,,,,,,,,,,,,,,,,,,,,,,,,,,,,,,,,,,,,,,,,,,,,,
KBUR,Burbank,,34.1808,-118.3089,2012-05-25 13:03:00,,BKN,10.0,,64,,,,48.0,,56,14.0,190.0,24.0,28.92,,,,,,,,,,,,,,,,,,,,,,,,,,,,,,,,,,,,,,,,,,,,,,,,,,,,,,,,,,,,,,,,,,,,,
KBUR,Burbank,,34.1808,-118.3089,2012-05-25 13:53:00,,SCT,10.0,,66,,,,49.0,,54,15.0,170.0,23.0,28.89,0.0,Steady,,,,,,,,,,,,,,,,,,,,,,,,,,,,,,,,,,,,,,,,,,,,,,,,,,,,,,,,,,,,,,,,,,,
KBUR,Burbank,,34.1808,-118.3089,2012-05-25 14:53:00,,SCT,10.0,,64,,,,46.0,,52,13.0,180.0,,28.88,,,,,,,,,,,,,,,,,,,,,,,,,,,,,,,,,,,,,,,,,,,,,,,,,,,,,,,,,,,,,,,,,,,,,
KBUR,Burbank,,34.1808,-118.3089,2012-05-25 15:53:00,,BKN,10.0,,63,,,,42.0,,46,13.0,170.0,22.0,28.89,,,,,,,,,,,,,,,,,,,,,,,,,,,,,,,,,,,,,,,,,,,,,,,,,,,,,,,,,,,,,,,,,,,,,
KBUR,Burbank,,34.1808,-118.3089,2012-05-25 16:53:00,,FEW,10.0,,63,,,,39.0,,41,13.0,170.0,,28.88,2.0,Falling,,,,66.0,62.0,,,,,,,,,,,,,,,,,,,,,,,,,,,,,,,,,,,,,,,,,,,,,,,,,,,,,,,,,,,,,,
KBUR,Burbank,,34.1808,-118.3089,2012-05-25 17:53:00,,FEW,10.0,,61,,,,40.0,,46,14.0,130.0,18.0,28.89,,,,,,,,,,,,,,,,,,,,,,,,,,,,,,,,,,,,,,,,,,,,,,,,,,,,,,,,,,,,,,,,,,,,,
KBUR,Burbank,,34.1808,-118.3089,2012-05-25 18:53:00,,SCT,10.0,,60,,,,42.0,,51,10.0,110.0,,28.89,,,,,,,,,,,,,,,,,,,,,,,,,,,,,,,,,,,,,,,,,,,,,,,,,,,,,,,,,,,,,,,,,,,,,
KBUR,Burbank,,34.1808,-118.3089,2012-05-25 19:53:00,,SCT,10.0,,59,,,,43.0,,55,10.0,110.0,,28.9,1.0,Rising Rapidly,,,,,,,,,,,,,,,,,,,,,,,,,,,,,,,,,,,,,,,,,,,,,,,,,,,,,,,,,,,,,,,,,,,
KBUR,Burbank,,34.1808,-118.3089,2012-05-25 20:53:00,,SCT,10.0,,57,,,,44.0,,62,9.0,110.0,,28.92,,,,,,,,,,,,,,,,,,,,,,,,,,,,,,,,,,,,,,,,,,,,,,,,,,,,,,,,,,,,,,,,,,,,,
KBUR,Burbank,,34.1808,-118.3089,2012-05-25 21:53:00,,FEW,10.0,,56,,,,43.0,,62,12.0,120.0,,28.94,,,,,,,,,,,,,,,,,,,,,,,,,,,,,,,,,,,,,,,,,,,,,,,,,,,,,,,,,,,,,,,,,,,,,
KBUR,Burbank,,34.1808,-118.3089,2012-05-25 22:53:00,,CLR,10.0,,55,,,,44.0,,67,14.0,120.0,,28.95,1.0,Rising,,,,63.0,55.0,,,,,,,,,,,,,,,,,,,,,,,,,,,,,,,,,,,,,,,,,,,,,,,,,,,,,,,,,,,,,,
KBUR,Burbank,,34.1808,-118.3089,2012-05-25 23:53:00,,CLR,10.0,,54,,,,43.0,,66,12.0,130.0,,28.96,,,,,,,,,,,,,,,,,,,,,,,,,,,,,,,,,,,,,,,,,,,,,,,,,,,,,,,,,,,,,,,,,,,,,
KBUR,Burbank,,34.1808,-118.3089,2012-05-26 00:53:00,,CLR,10.0,,54,,,,43.0,,66,8.0,130.0,,28.97,,,,,,66.0,54.0,,,,,,,,,,,,,,,,,,,,,,,,,,,,,,,,,,,,,,,,,,,,,,,,,,,,,,,,,,,,,,
KBUR,Burbank,,34.1808,-118.3089,2012-05-26 01:53:00,,CLR,10.0,,53,,,,44.0,,71,7.0,100.0,,28.97,1.0,Rising,,,,,,,,,,,,,,,,,,,,,,,,,,,,,,,,,,,,,,,,,,,,,,,,,,,,,,,,,,,,,,,,,,,
KBUR,Burbank,,34.1808,-118.3089,2012-05-26 02:53:00,,FEW,10.0,,52,,,,43.0,,71,5.0,100.0,,28.97,,,,,,,,,,,,,,,,,,,,,,,,,,,,,,,,,,,,,,,,,,,,,,,,,,,,,,,,,,,,,,,,,,,,,
KBUR,Burbank,,34.1808,-118.3089,2012-05-26 03:53:00,,SCT,10.0,,51,,,,42.0,,71,3.0,330.0,,28.98,,,,,,,,,,,,,,,,,,,,,,,,,,,,,,,,,,,,,,,,,,,,,,,,,,,,,,,,,,,,,,,,,,,,,
KBUR,Burbank,,34.1808,-118.3089,2012-05-26 04:53:00,,CLR,10.0,,50,,,,42.0,,74,3.0,300.0,,29.0,1.0,Rising Rapidly,,,,55.0,50.0,,,,,,,,,,,,,,,,,,,,,,,,,,,,,,,,,,,,,,,,,,,,,,,,,,,,,,,,,,,,,,
KBUR,Burbank,,34.1808,-118.3089,2012-05-26 05:53:00,,CLR,10.0,,49,,,,41.0,,74,,,,29.03,,,,,,,,,,,,,,,,,,,,,,,,,,,,,,,,,,,,,,,,,,,,,,,,,,,,,,,,,,,,,,,,,,,,,
KBUR,Burbank,,34.1808,-118.3089,2012-05-26 06:53:00,,CLR,10.0,,50,,,,41.0,,71,,,,29.05,,,,,,,,,,,,,,,,,,,,,,,,,,,,,,,,,,,,,,,,,,,,,,,,,,,,,,,,,,,,,,,,,,,,,
KBUR,Burbank,,34.1808,-118.3089,2012-05-26 07:53:00,,CLR,10.0,,53,,,,42.0,,66,,,,29.08,1.0,Rising Rapidly,,,,,,,,,,,,,,,,,,,,,,,,,,,,,,,,,,,,,,,,,,,,,,,,,,,,,,,,,,,,,,,,,,,
KBUR,Burbank,,34.1808,-118.3089,2012-05-26 08:53:00,,CLR,10.0,,56,,,,43.0,,62,7.0,130.0,,29.09,,,,,,,,,,,,,,,,,,,,,,,,,,,,,,,,,,,,,,,,,,,,,,,,,,,,,,,,,,,,,,,,,,,,,
KBUR,Burbank,,34.1808,-118.3089,2012-05-26 09:02:00,,SCT,10.0,,57,,,,43.0,,59,3.0,,,29.12,,,,,,,,,,,,,,,,,,,,,,,,,,,,,,,,,,,,,,,,,,,,,,,,,,,,,,,,,,,,,,,,,,,,,
KBUR,Burbank,,34.1808,-118.3089,2012-05-26 09:53:00,,SCT,10.0,,59,,,,41.0,,51,8.0,100.0,,29.11,,,,,,,,,,,,,,,,,,,,,,,,,,,,,,,,,,,,,,,,,,,,,,,,,,,,,,,,,,,,,,,,,,,,,
KBUR,Burbank,,34.1808,-118.3089,2012-05-26 10:53:00,,SCT,10.0,,62,,,,41.0,,46,13.0,110.0,18.0,29.12,1.0,Rising,,,,63.0,49.0,,,,,,,,,,,,,,,,,,,,,,,,,,,,,,,,,,,,,,,,,,,,,,,,,,,,,,,,,,,,,,
KBUR,Burbank,,34.1808,-118.3089,2012-05-26 11:53:00,,OVC,10.0,,62,,,,43.0,,50,9.0,180.0,,29.14,,,,,,,,,,,,,,,,,,,,,,,,,,,,,,,,,,,,,,,,,,,,,,,,,,,,,,,,,,,,,,,,,,,,,
KBUR,Burbank,,34.1808,-118.3089,2012-05-26 12:53:00,,BKN,10.0,,64,,,,43.0,,46,13.0,170.0,25.0,29.14,,,,,,,,,,,,,,,,,,,,,,,,,,,,,,,,,,,,,,,,,,,,,,,,,,,,,,,,,,,,,,,,,,,,,
KBUR,Burbank,,34.1808,-118.3089,2012-05-26 13:53:00,,BKN,10.0,,63,,,,41.0,,45,13.0,150.0,17.0,29.15,1.0,Rising,,,,,,,,,,,,,,,,,,,,,,,,,,,,,,,,,,,,,,,,,,,,,,,,,,,,,,,,,,,,,,,,,,,
KBUR,Burbank,,34.1808,-118.3089,2012-05-26 14:53:00,,SCT,10.0,,64,,,,42.0,,45,9.0,180.0,,29.15,,,,,,,,,,,,,,,,,,,,,,,,,,,,,,,,,,,,,,,,,,,,,,,,,,,,,,,,,,,,,,,,,,,,,
KBUR,Burbank,,34.1808,-118.3089,2012-05-26 15:53:00,,SCT,10.0,,64,,,,40.0,,41,10.0,190.0,16.0,29.14,,,,,,,,,,,,,,,,,,,,,,,,,,,,,,,,,,,,,,,,,,,,,,,,,,,,,,,,,,,,,,,,,,,,,
KBUR,Burbank,,34.1808,-118.3089,2012-05-26 16:53:00,,SCT,10.0,,65,,,,39.0,,39,10.0,160.0,21.0,29.13,2.0,Falling Rapidly,,,,66.0,61.0,,,,,,,,,,,,,,,,,,,,,,,,,,,,,,,,,,,,,,,,,,,,,,,,,,,,,,,,,,,,,,
KBUR,Burbank,,34.1808,-118.3089,2012-05-26 17:53:00,,CLR,10.0,,63,,,,41.0,,45,13.0,160.0,,29.13,,,,,,,,,,,,,,,,,,,,,,,,,,,,,,,,,,,,,,,,,,,,,,,,,,,,,,,,,,,,,,,,,,,,,
KBUR,Burbank,,34.1808,-118.3089,2012-05-26 18:53:00,,CLR,10.0,,61,,,,43.0,,52,8.0,170.0,,29.14,,,,,,,,,,,,,,,,,,,,,,,,,,,,,,,,,,,,,,,,,,,,,,,,,,,,,,,,,,,,,,,,,,,,,
KBUR,Burbank,,34.1808,-118.3089,2012-05-26 19:53:00,,CLR,10.0,,59,,,,44.0,,58,7.0,180.0,,29.16,1.0,Rising Rapidly,,,,,,,,,,,,,,,,,,,,,,,,,,,,,,,,,,,,,,,,,,,,,,,,,,,,,,,,,,,,,,,,,,,
KBUR,Burbank,,34.1808,-118.3089,2012-05-26 20:53:00,,CLR,10.0,,58,,,,45.0,,62,3.0,170.0,,29.17,,,,,,,,,,,,,,,,,,,,,,,,,,,,,,,,,,,,,,,,,,,,,,,,,,,,,,,,,,,,,,,,,,,,,
KBUR,Burbank,,34.1808,-118.3089,2012-05-26 21:53:00,,CLR,10.0,,58,,,,44.0,,60,5.0,,,29.18,,,,,,,,,,,,,,,,,,,,,,,,,,,,,,,,,,,,,,,,,,,,,,,,,,,,,,,,,,,,,,,,,,,,,
KBUR,Burbank,,34.1808,-118.3089,2012-05-26 22:53:00,,CLR,10.0,,57,,,,45.0,,64,3.0,100.0,,29.18,1.0,Rising,,,,65.0,57.0,,,,,,,,,,,,,,,,,,,,,,,,,,,,,,,,,,,,,,,,,,,,,,,,,,,,,,,,,,,,,,
KBUR,Burbank,,34.1808,-118.3089,2012-05-26 23:53:00,,CLR,10.0,,57,,,,46.0,,67,6.0,90.0,,29.18,,,,,,,,,,,,,,,,,,,,,,,,,,,,,,,,,,,,,,,,,,,,,,,,,,,,,,,,,,,,,,,,,,,,,
KBUR,Burbank,,34.1808,-118.3089,2012-05-27 00:53:00,,CLR,10.0,,55,,,,47.0,,74,5.0,140.0,,29.17,,,,,,66.0,49.0,,,,,,,,,,,,,,,,,,,,,,,,,,,,,,,,,,,,,,,,,,,,,,,,,,,,,,,,,,,,,,
KBUR,Burbank,,34.1808,-118.3089,2012-05-27 01:53:00,,CLR,10.0,,55,,,,47.0,,74,,,,29.16,2.0,Falling Rapidly,,,,,,,,,,,,,,,,,,,,,,,,,,,,,,,,,,,,,,,,,,,,,,,,,,,,,,,,,,,,,,,,,,,
KBUR,Burbank,,34.1808,-118.3089,2012-05-27 02:53:00,,CLR,10.0,,54,,,,46.0,,75,3.0,180.0,,29.17,,,,,,,,,,,,,,,,,,,,,,,,,,,,,,,,,,,,,,,,,,,,,,,,,,,,,,,,,,,,,,,,,,,,,
KBUR,Burbank,,34.1808,-118.3089,2012-05-27 03:53:00,,CLR,10.0,,52,,,,45.0,,77,,,,29.17,,,,,,,,,,,,,,,,,,,,,,,,,,,,,,,,,,,,,,,,,,,,,,,,,,,,,,,,,,,,,,,,,,,,,
KBUR,Burbank,,34.1808,-118.3089,2012-05-27 04:53:00,,CLR,10.0,,51,,,,44.0,,77,3.0,310.0,,29.16,2.0,Falling Rapidly,,,,57.0,51.0,,,,,,,,,,,,,,,,,,,,,,,,,,,,,,,,,,,,,,,,,,,,,,,,,,,,,,,,,,,,,,
KBUR,Burbank,,34.1808,-118.3089,2012-05-27 05:53:00,,CLR,10.0,,50,,,,44.0,,80,,,,29.17,,,,,,,,,,,,,,,,,,,,,,,,,,,,,,,,,,,,,,,,,,,,,,,,,,,,,,,,,,,,,,,,,,,,,
KBUR,Burbank,,34.1808,-118.3089,2012-05-27 06:53:00,,CLR,10.0,,52,,,,45.0,,77,3.0,160.0,,29.17,,,,,,,,,,,,,,,,,,,,,,,,,,,,,,,,,,,,,,,,,,,,,,,,,,,,,,,,,,,,,,,,,,,,,
KBUR,Burbank,,34.1808,-118.3089,2012-05-27 07:53:00,,CLR,10.0,,55,,,,45.0,,69,,,,29.19,1.0,Rising Rapidly,,,,,,,,,,,,,,,,,,,,,,,,,,,,,,,,,,,,,,,,,,,,,,,,,,,,,,,,,,,,,,,,,,,
KBUR,Burbank,,34.1808,-118.3089,2012-05-27 08:53:00,,FEW,10.0,,58,,,,47.0,,67,6.0,140.0,,29.19,,,,,,,,,,,,,,,,,,,,,,,,,,,,,,,,,,,,,,,,,,,,,,,,,,,,,,,,,,,,,,,,,,,,,
KBUR,Burbank,,34.1808,-118.3089,2012-05-27 09:53:00,,CLR,10.0,,61,,,,47.0,,60,5.0,80.0,,29.18,,,,,,,,,,,,,,,,,,,,,,,,,,,,,,,,,,,,,,,,,,,,,,,,,,,,,,,,,,,,,,,,,,,,,
KBUR,Burbank,,34.1808,-118.3089,2012-05-27 10:53:00,,CLR,10.0,,64,,,,47.0,,54,8.0,160.0,,29.18,2.0,Falling Rapidly,,,,64.0,50.0,,,,,,,,,,,,,,,,,,,,,,,,,,,,,,,,,,,,,,,,,,,,,,,,,,,,,,,,,,,,,,
KBUR,Burbank,,34.1808,-118.3089,2012-05-27 11:53:00,,CLR,10.0,,68,,,,48.0,,49,6.0,,,29.17,,,,,,,,,,,,,,,,,,,,,,,,,,,,,,,,,,,,,,,,,,,,,,,,,,,,,,,,,,,,,,,,,,,,,
KBUR,Burbank,,34.1808,-118.3089,2012-05-27 12:53:00,,CLR,10.0,,70,,,,49.0,,47,7.0,130.0,,29.15,,,,,,,,,,,,,,,,,,,,,,,,,,,,,,,,,,,,,,,,,,,,,,,,,,,,,,,,,,,,,,,,,,,,,
KBUR,Burbank,,34.1808,-118.3089,2012-05-27 13:53:00,,CLR,10.0,,72,,,,51.0,,48,9.0,140.0,,29.14,2.0,Falling Rapidly,,,,,,,,,,,,,,,,,,,,,,,,,,,,,,,,,,,,,,,,,,,,,,,,,,,,,,,,,,,,,,,,,,,
KBUR,Burbank,,34.1808,-118.3089,2012-05-27 14:53:00,,CLR,10.0,,74,,,,50.0,,43,8.0,170.0,,29.12,,,,,,,,,,,,,,,,,,,,,,,,,,,,,,,,,,,,,,,,,,,,,,,,,,,,,,,,,,,,,,,,,,,,,
KBUR,Burbank,,34.1808,-118.3089,2012-05-27 15:53:00,,CLR,10.0,,74,,,,51.0,,45,3.0,,,29.1,,,,,,,,,,,,,,,,,,,,,,,,,,,,,,,,,,,,,,,,,,,,,,,,,,,,,,,,,,,,,,,,,,,,,
KBUR,Burbank,,34.1808,-118.3089,2012-05-27 16:53:00,,CLR,10.0,,74,,,,51.0,,45,8.0,170.0,,29.09,2.0,Falling,,,,75.0,64.0,,,,,,,,,,,,,,,,,,,,,,,,,,,,,,,,,,,,,,,,,,,,,,,,,,,,,,,,,,,,,,
KBUR,Burbank,,34.1808,-118.3089,2012-05-27 17:53:00,,CLR,10.0,,74,,,,50.0,,43,5.0,170.0,,29.09,,,,,,,,,,,,,,,,,,,,,,,,,,,,,,,,,,,,,,,,,,,,,,,,,,,,,,,,,,,,,,,,,,,,,
KBUR,Burbank,,34.1808,-118.3089,2012-05-27 18:53:00,,CLR,10.0,,74,,,,50.0,,43,3.0,170.0,,29.08,,,,,,,,,,,,,,,,,,,,,,,,,,,,,,,,,,,,,,,,,,,,,,,,,,,,,,,,,,,,,,,,,,,,,
KBUR,Burbank,,34.1808,-118.3089,2012-05-27 19:53:00,,CLR,10.0,,75,,,,41.0,,29,7.0,280.0,,29.09,0.0,Steady,,,,,,,,,,,,,,,,,,,,,,,,,,,,,,,,,,,,,,,,,,,,,,,,,,,,,,,,,,,,,,,,,,,
KBUR,Burbank,,34.1808,-118.3089,2012-05-27 20:53:00,,CLR,10.0,,72,,,,42.0,,34,6.0,280.0,,29.09,,,,,,,,,,,,,,,,,,,,,,,,,,,,,,,,,,,,,,,,,,,,,,,,,,,,,,,,,,,,,,,,,,,,,
KBUR,Burbank,,34.1808,-118.3089,2012-05-27 21:53:00,,CLR,10.0,,69,,,,43.0,,39,3.0,330.0,,29.09,,,,,,,,,,,,,,,,,,,,,,,,,,,,,,,,,,,,,,,,,,,,,,,,,,,,,,,,,,,,,,,,,,,,,
KBUR,Burbank,,34.1808,-118.3089,2012-05-27 22:53:00,,CLR,10.0,,64,,,,50.0,,60,7.0,100.0,,29.1,1.0,Rising Rapidly,,,,76.0,64.0,,,,,,,,,,,,,,,,,,,,,,,,,,,,,,,,,,,,,,,,,,,,,,,,,,,,,,,,,,,,,,
KBUR,Burbank,,34.1808,-118.3089,2012-05-27 23:53:00,,CLR,10.0,,62,,,,51.0,,67,8.0,110.0,,29.1,,,,,,,,,,,,,,,,,,,,,,,,,,,,,,,,,,,,,,,,,,,,,,,,,,,,,,,,,,,,,,,,,,,,,
KBUR,Burbank,,34.1808,-118.3089,2012-05-28 00:53:00,,CLR,10.0,,61,,,,51.0,,70,5.0,130.0,,29.09,,,,,,76.0,50.0,,,,,,,,,,,,,,,,,,,,,,,,,,,,,,,,,,,,,,,,,,,,,,,,,,,,,,,,,,,,,,
KBUR,Burbank,,34.1808,-118.3089,2012-05-28 01:53:00,,CLR,10.0,,60,,,,50.0,,69,3.0,70.0,,29.09,2.0,Falling,,,,,,,,,,,,,,,,,,,,,,,,,,,,,,,,,,,,,,,,,,,,,,,,,,,,,,,,,,,,,,,,,,,
KBUR,Burbank,,34.1808,-118.3089,2012-05-28 02:53:00,,CLR,10.0,,60,,,,50.0,,69,5.0,100.0,,29.08,,,,,,,,,,,,,,,,,,,,,,,,,,,,,,,,,,,,,,,,,,,,,,,,,,,,,,,,,,,,,,,,,,,,,
KBUR,Burbank,,34.1808,-118.3089,2012-05-28 03:53:00,,CLR,10.0,,59,,,,49.0,,69,3.0,100.0,,29.08,,,,,,,,,,,,,,,,,,,,,,,,,,,,,,,,,,,,,,,,,,,,,,,,,,,,,,,,,,,,,,,,,,,,,
KBUR,Burbank,,34.1808,-118.3089,2012-05-28 04:53:00,,CLR,10.0,,58,,,,49.0,,72,,,,29.08,2.0,Falling,,,,64.0,58.0,,,,,,,,,,,,,,,,,,,,,,,,,,,,,,,,,,,,,,,,,,,,,,,,,,,,,,,,,,,,,,
KBUR,Burbank,,34.1808,-118.3089,2012-05-28 05:53:00,,CLR,10.0,,56,,,,46.0,,69,,,,29.07,,,,,,,,,,,,,,,,,,,,,,,,,,,,,,,,,,,,,,,,,,,,,,,,,,,,,,,,,,,,,,,,,,,,,
KBUR,Burbank,,34.1808,-118.3089,2012-05-28 06:53:00,,CLR,10.0,,58,,,,49.0,,72,,,,29.09,,,,,,,,,,,,,,,,,,,,,,,,,,,,,,,,,,,,,,,,,,,,,,,,,,,,,,,,,,,,,,,,,,,,,
KBUR,Burbank,,34.1808,-118.3089,2012-05-28 07:53:00,,CLR,10.0,,62,,,,50.0,,65,,,,29.09,1.0,Rising Rapidly,,,,,,,,,,,,,,,,,,,,,,,,,,,,,,,,,,,,,,,,,,,,,,,,,,,,,,,,,,,,,,,,,,,
KBUR,Burbank,,34.1808,-118.3089,2012-05-28 08:53:00,,CLR,10.0,,67,,,,49.0,,52,,,,29.1,,,,,,,,,,,,,,,,,,,,,,,,,,,,,,,,,,,,,,,,,,,,,,,,,,,,,,,,,,,,,,,,,,,,,
KBUR,Burbank,,34.1808,-118.3089,2012-05-28 09:53:00,,CLR,10.0,,71,,,,47.0,,42,5.0,150.0,,29.09,,,,,,,,,,,,,,,,,,,,,,,,,,,,,,,,,,,,,,,,,,,,,,,,,,,,,,,,,,,,,,,,,,,,,
KBUR,Burbank,,34.1808,-118.3089,2012-05-28 10:53:00,,CLR,10.0,,76,,,,49.0,,38,8.0,120.0,,29.09,2.0,Falling Rapidly,,,,76.0,56.0,,,,,,,,,,,,,,,,,,,,,,,,,,,,,,,,,,,,,,,,,,,,,,,,,,,,,,,,,,,,,,
KBUR,Burbank,,34.1808,-118.3089,2012-05-28 11:53:00,,CLR,10.0,,78,,,,49.0,,36,7.0,150.0,,29.08,,,,,,,,,,,,,,,,,,,,,,,,,,,,,,,,,,,,,,,,,,,,,,,,,,,,,,,,,,,,,,,,,,,,,
KBUR,Burbank,,34.1808,-118.3089,2012-05-28 12:53:00,,CLR,10.0,,79,,,,52.0,,39,10.0,170.0,,29.08,,,,,,,,,,,,,,,,,,,,,,,,,,,,,,,,,,,,,,,,,,,,,,,,,,,,,,,,,,,,,,,,,,,,,
KBUR,Burbank,,34.1808,-118.3089,2012-05-28 13:53:00,,CLR,10.0,,80,,,,49.0,,34,12.0,160.0,,29.07,2.0,Falling Rapidly,,,,,,,,,,,,,,,,,,,,,,,,,,,,,,,,,,,,,,,,,,,,,,,,,,,,,,,,,,,,,,,,,,,
KBUR,Burbank,,34.1808,-118.3089,2012-05-28 14:53:00,,CLR,10.0,,82,,,,44.0,,26,9.0,180.0,,29.05,,,,,,,,,,,,,,,,,,,,,,,,,,,,,,,,,,,,,,,,,,,,,,,,,,,,,,,,,,,,,,,,,,,,,
KBUR,Burbank,,34.1808,-118.3089,2012-05-28 15:53:00,,CLR,10.0,,82,,,,48.0,,30,8.0,170.0,,29.04,,,,,,,,,,,,,,,,,,,,,,,,,,,,,,,,,,,,,,,,,,,,,,,,,,,,,,,,,,,,,,,,,,,,,
KBUR,Burbank,,34.1808,-118.3089,2012-05-28 16:53:00,,CLR,10.0,,83,,,,43.0,,24,7.0,,,29.03,2.0,Falling,,,,84.0,75.0,,,,,,,,,,,,,,,,,,,,,,,,,,,,,,,,,,,,,,,,,,,,,,,,,,,,,,,,,,,,,,
KBUR,Burbank,,34.1808,-118.3089,2012-05-28 17:53:00,,CLR,10.0,,83,,,,40.0,,22,7.0,160.0,,29.02,,,,,,,,,,,,,,,,,,,,,,,,,,,,,,,,,,,,,,,,,,,,,,,,,,,,,,,,,,,,,,,,,,,,,
KBUR,Burbank,,34.1808,-118.3089,2012-05-28 18:53:00,,CLR,10.0,,78,,,,48.0,,35,7.0,160.0,,29.02,,,,,,,,,,,,,,,,,,,,,,,,,,,,,,,,,,,,,,,,,,,,,,,,,,,,,,,,,,,,,,,,,,,,,
KBUR,Burbank,,34.1808,-118.3089,2012-05-28 19:53:00,,CLR,10.0,,76,,,,47.0,,36,6.0,120.0,,29.03,0.0,Steady,,,,,,,,,,,,,,,,,,,,,,,,,,,,,,,,,,,,,,,,,,,,,,,,,,,,,,,,,,,,,,,,,,,
KBUR,Burbank,,34.1808,-118.3089,2012-05-28 20:53:00,,CLR,10.0,,72,,,,50.0,,46,5.0,130.0,,29.04,,,,,,,,,,,,,,,,,,,,,,,,,,,,,,,,,,,,,,,,,,,,,,,,,,,,,,,,,,,,,,,,,,,,,
KBUR,Burbank,,34.1808,-118.3089,2012-05-28 21:53:00,,CLR,10.0,,69,,,,52.0,,54,3.0,110.0,,29.05,,,,,,,,,,,,,,,,,,,,,,,,,,,,,,,,,,,,,,,,,,,,,,,,,,,,,,,,,,,,,,,,,,,,,
KBUR,Burbank,,34.1808,-118.3089,2012-05-28 22:53:00,,CLR,10.0,,67,,,,52.0,,59,5.0,100.0,,29.06,1.0,Rising,,,,83.0,67.0,,,,,,,,,,,,,,,,,,,,,,,,,,,,,,,,,,,,,,,,,,,,,,,,,,,,,,,,,,,,,,
KBUR,Burbank,,34.1808,-118.3089,2012-05-28 23:53:00,,CLR,10.0,,65,,,,53.0,,65,6.0,100.0,,29.06,,,,,,,,,,,,,,,,,,,,,,,,,,,,,,,,,,,,,,,,,,,,,,,,,,,,,,,,,,,,,,,,,,,,,
KBUR,Burbank,,34.1808,-118.3089,2012-05-29 00:53:00,,CLR,10.0,,63,,,,52.0,,67,7.0,90.0,,29.06,,,,,,84.0,56.0,,,,,,,,,,,,,,,,,,,,,,,,,,,,,,,,,,,,,,,,,,,,,,,,,,,,,,,,,,,,,,
KBUR,Burbank,,34.1808,-118.3089,2012-05-29 01:53:00,,CLR,10.0,,62,,,,51.0,,67,6.0,100.0,,29.06,1.0,Rising Rapidly,,,,,,,,,,,,,,,,,,,,,,,,,,,,,,,,,,,,,,,,,,,,,,,,,,,,,,,,,,,,,,,,,,,
KBUR,Burbank,,34.1808,-118.3089,2012-05-29 02:53:00,,CLR,10.0,,61,,,,51.0,,70,5.0,90.0,,29.06,,,,,,,,,,,,,,,,,,,,,,,,,,,,,,,,,,,,,,,,,,,,,,,,,,,,,,,,,,,,,,,,,,,,,
KBUR,Burbank,,34.1808,-118.3089,2012-05-29 03:53:00,,CLR,10.0,,59,,,,53.0,,81,6.0,90.0,,29.07,,,,,,,,,,,,,,,,,,,,,,,,,,,,,,,,,,,,,,,,,,,,,,,,,,,,,,,,,,,,,,,,,,,,,
KBUR,Burbank,,34.1808,-118.3089,2012-05-29 04:53:00,,CLR,10.0,,58,,,,47.0,,67,5.0,350.0,,29.07,0.0,Steady,,,,68.0,58.0,,,,,,,,,,,,,,,,,,,,,,,,,,,,,,,,,,,,,,,,,,,,,,,,,,,,,,,,,,,,,,
KBUR,Burbank,,34.1808,-118.3089,2012-05-29 05:53:00,,CLR,10.0,,57,,,,45.0,,64,5.0,300.0,,29.08,,,,,,,,,,,,,,,,,,,,,,,,,,,,,,,,,,,,,,,,,,,,,,,,,,,,,,,,,,,,,,,,,,,,,
KBUR,Burbank,,34.1808,-118.3089,2012-05-29 06:53:00,,CLR,10.0,,60,,,,46.0,,60,,,,29.09,,,,,,,,,,,,,,,,,,,,,,,,,,,,,,,,,,,,,,,,,,,,,,,,,,,,,,,,,,,,,,,,,,,,,
KBUR,Burbank,,34.1808,-118.3089,2012-05-29 07:53:00,,CLR,10.0,,63,,,,51.0,,65,3.0,110.0,,29.1,1.0,Rising Rapidly,,,,,,,,,,,,,,,,,,,,,,,,,,,,,,,,,,,,,,,,,,,,,,,,,,,,,,,,,,,,,,,,,,,
KBUR,Burbank,,34.1808,-118.3089,2012-05-29 08:53:00,,CLR,10.0,,67,,,,51.0,,57,,,,29.11,,,,,,,,,,,,,,,,,,,,,,,,,,,,,,,,,,,,,,,,,,,,,,,,,,,,,,,,,,,,,,,,,,,,,
KBUR,Burbank,,34.1808,-118.3089,2012-05-29 09:53:00,,CLR,10.0,,71,,,,50.0,,47,7.0,,,29.11,,,,,,,,,,,,,,,,,,,,,,,,,,,,,,,,,,,,,,,,,,,,,,,,,,,,,,,,,,,,,,,,,,,,,
KBUR,Burbank,,34.1808,-118.3089,2012-05-29 10:53:00,,CLR,10.0,,74,,,,53.0,,48,7.0,180.0,,29.11,1.0,Rising,,,,75.0,57.0,,,,,,,,,,,,,,,,,,,,,,,,,,,,,,,,,,,,,,,,,,,,,,,,,,,,,,,,,,,,,,
KBUR,Burbank,,34.1808,-118.3089,2012-05-29 11:53:00,,CLR,10.0,,76,,,,51.0,,42,10.0,200.0,,29.11,,,,,,,,,,,,,,,,,,,,,,,,,,,,,,,,,,,,,,,,,,,,,,,,,,,,,,,,,,,,,,,,,,,,,
KBUR,Burbank,,34.1808,-118.3089,2012-05-29 12:53:00,,CLR,10.0,,78,,,,52.0,,40,8.0,200.0,,29.11,,,,,,,,,,,,,,,,,,,,,,,,,,,,,,,,,,,,,,,,,,,,,,,,,,,,,,,,,,,,,,,,,,,,,
KBUR,Burbank,,34.1808,-118.3089,2012-05-29 13:53:00,,CLR,10.0,,79,,,,53.0,,40,8.0,190.0,,29.1,2.0,Falling Rapidly,,,,,,,,,,,,,,,,,,,,,,,,,,,,,,,,,,,,,,,,,,,,,,,,,,,,,,,,,,,,,,,,,,,
KBUR,Burbank,,34.1808,-118.3089,2012-05-29 14:53:00,,CLR,10.0,,81,,,,48.0,,31,9.0,160.0,,29.09,,,,,,,,,,,,,,,,,,,,,,,,,,,,,,,,,,,,,,,,,,,,,,,,,,,,,,,,,,,,,,,,,,,,,
KBUR,Burbank,,34.1808,-118.3089,2012-05-29 15:53:00,,CLR,10.0,,81,,,,46.0,,29,12.0,160.0,,29.08,,,,,,,,,,,,,,,,,,,,,,,,,,,,,,,,,,,,,,,,,,,,,,,,,,,,,,,,,,,,,,,,,,,,,
KBUR,Burbank,,34.1808,-118.3089,2012-05-29 16:53:00,,CLR,10.0,,81,,,,39.0,,22,10.0,180.0,,29.09,0.0,Steady,,,,82.0,74.0,,,,,,,,,,,,,,,,,,,,,,,,,,,,,,,,,,,,,,,,,,,,,,,,,,,,,,,,,,,,,,
KBUR,Burbank,,34.1808,-118.3089,2012-05-29 17:53:00,,CLR,10.0,,80,,,,35.0,,20,9.0,190.0,,29.08,,,,,,,,,,,,,,,,,,,,,,,,,,,,,,,,,,,,,,,,,,,,,,,,,,,,,,,,,,,,,,,,,,,,,
KBUR,Burbank,,34.1808,-118.3089,2012-05-29 18:53:00,,CLR,10.0,,78,,,,44.0,,30,8.0,150.0,,29.08,,,,,,,,,,,,,,,,,,,,,,,,,,,,,,,,,,,,,,,,,,,,,,,,,,,,,,,,,,,,,,,,,,,,,
KBUR,Burbank,,34.1808,-118.3089,2012-05-29 19:53:00,,CLR,10.0,,72,,,,49.0,,44,7.0,160.0,,29.08,0.0,Steady,,,,,,,,,,,,,,,,,,,,,,,,,,,,,,,,,,,,,,,,,,,,,,,,,,,,,,,,,,,,,,,,,,,
KBUR,Burbank,,34.1808,-118.3089,2012-05-29 20:53:00,,CLR,10.0,,71,,,,50.0,,47,6.0,130.0,,29.09,,,,,,,,,,,,,,,,,,,,,,,,,,,,,,,,,,,,,,,,,,,,,,,,,,,,,,,,,,,,,,,,,,,,,
KBUR,Burbank,,34.1808,-118.3089,2012-05-29 21:53:00,,CLR,10.0,,68,,,,49.0,,50,6.0,130.0,,29.11,,,,,,,,,,,,,,,,,,,,,,,,,,,,,,,,,,,,,,,,,,,,,,,,,,,,,,,,,,,,,,,,,,,,,
KBUR,Burbank,,34.1808,-118.3089,2012-05-29 22:53:00,,CLR,10.0,,66,,,,50.0,,56,7.0,120.0,,29.13,1.0,Rising,,,,81.0,66.0,,,,,,,,,,,,,,,,,,,,,,,,,,,,,,,,,,,,,,,,,,,,,,,,,,,,,,,,,,,,,,
KBUR,Burbank,,34.1808,-118.3089,2012-05-29 23:53:00,,CLR,10.0,,63,,,,52.0,,67,7.0,130.0,,29.13,,,,,,,,,,,,,,,,,,,,,,,,,,,,,,,,,,,,,,,,,,,,,,,,,,,,,,,,,,,,,,,,,,,,,
KBUR,Burbank,,34.1808,-118.3089,2012-05-30 00:53:00,,CLR,10.0,,63,,,,52.0,,67,6.0,90.0,,29.13,,,,,,82.0,57.0,,,,,,,,,,,,,,,,,,,,,,,,,,,,,,,,,,,,,,,,,,,,,,,,,,,,,,,,,,,,,,
KBUR,Burbank,,34.1808,-118.3089,2012-05-30 01:53:00,,CLR,10.0,,61,,,,53.0,,75,6.0,130.0,,29.13,1.0,Rising,,,,,,,,,,,,,,,,,,,,,,,,,,,,,,,,,,,,,,,,,,,,,,,,,,,,,,,,,,,,,,,,,,,
KBUR,Burbank,,34.1808,-118.3089,2012-05-30 02:53:00,,CLR,10.0,,61,,,,53.0,,75,5.0,100.0,,29.12,,,,,,,,,,,,,,,,,,,,,,,,,,,,,,,,,,,,,,,,,,,,,,,,,,,,,,,,,,,,,,,,,,,,,
KBUR,Burbank,,34.1808,-118.3089,2012-05-30 03:53:00,,CLR,10.0,,60,,,,53.0,,78,3.0,130.0,,29.12,,,,,,,,,,,,,,,,,,,,,,,,,,,,,,,,,,,,,,,,,,,,,,,,,,,,,,,,,,,,,,,,,,,,,
KBUR,Burbank,,34.1808,-118.3089,2012-05-30 04:53:00,,CLR,10.0,,59,,,,53.0,,81,,,,29.13,1.0,Rising Rapidly,,,,66.0,59.0,,,,,,,,,,,,,,,,,,,,,,,,,,,,,,,,,,,,,,,,,,,,,,,,,,,,,,,,,,,,,,
KBUR,Burbank,,34.1808,-118.3089,2012-05-30 05:53:00,,CLR,10.0,,58,,,,52.0,,81,3.0,150.0,,29.15,,,,,,,,,,,,,,,,,,,,,,,,,,,,,,,,,,,,,,,,,,,,,,,,,,,,,,,,,,,,,,,,,,,,,
KBUR,Burbank,,34.1808,-118.3089,2012-05-30 06:53:00,,CLR,10.0,,59,,,,52.0,,78,3.0,,,29.15,,,,,,,,,,,,,,,,,,,,,,,,,,,,,,,,,,,,,,,,,,,,,,,,,,,,,,,,,,,,,,,,,,,,,
KBUR,Burbank,,34.1808,-118.3089,2012-05-30 07:53:00,,CLR,10.0,,61,,,,53.0,,75,,,,29.16,1.0,Rising,,,,,,,,,,,,,,,,,,,,,,,,,,,,,,,,,,,,,,,,,,,,,,,,,,,,,,,,,,,,,,,,,,,
KBUR,Burbank,,34.1808,-118.3089,2012-05-30 08:53:00,,CLR,10.0,,64,,,,53.0,,67,7.0,140.0,,29.17,,,,,,,,,,,,,,,,,,,,,,,,,,,,,,,,,,,,,,,,,,,,,,,,,,,,,,,,,,,,,,,,,,,,,
KBUR,Burbank,,34.1808,-118.3089,2012-05-30 09:53:00,,CLR,10.0,,67,,,,52.0,,59,8.0,150.0,,29.16,,,,,,,,,,,,,,,,,,,,,,,,,,,,,,,,,,,,,,,,,,,,,,,,,,,,,,,,,,,,,,,,,,,,,
KBUR,Burbank,,34.1808,-118.3089,2012-05-30 10:53:00,,CLR,10.0,,71,,,,53.0,,53,7.0,190.0,,29.15,2.0,Falling Rapidly,,,,71.0,58.0,,,,,,,,,,,,,,,,,,,,,,,,,,,,,,,,,,,,,,,,,,,,,,,,,,,,,,,,,,,,,,
KBUR,Burbank,,34.1808,-118.3089,2012-05-30 11:53:00,,CLR,10.0,,74,,,,53.0,,48,8.0,140.0,,29.14,,,,,,,,,,,,,,,,,,,,,,,,,,,,,,,,,,,,,,,,,,,,,,,,,,,,,,,,,,,,,,,,,,,,,
KBUR,Burbank,,34.1808,-118.3089,2012-05-30 12:53:00,,CLR,10.0,,76,,,,53.0,,45,9.0,190.0,,29.13,,,,,,,,,,,,,,,,,,,,,,,,,,,,,,,,,,,,,,,,,,,,,,,,,,,,,,,,,,,,,,,,,,,,,
KBUR,Burbank,,34.1808,-118.3089,2012-05-30 13:53:00,,CLR,10.0,,76,,,,54.0,,46,10.0,180.0,,29.12,2.0,Falling,,,,,,,,,,,,,,,,,,,,,,,,,,,,,,,,,,,,,,,,,,,,,,,,,,,,,,,,,,,,,,,,,,,
KBUR,Burbank,,34.1808,-118.3089,2012-05-30 14:53:00,,CLR,10.0,,77,,,,52.0,,42,10.0,190.0,,29.11,,,,,,,,,,,,,,,,,,,,,,,,,,,,,,,,,,,,,,,,,,,,,,,,,,,,,,,,,,,,,,,,,,,,,
KBUR,Burbank,,34.1808,-118.3089,2012-05-30 15:53:00,,CLR,10.0,,76,,,,51.0,,42,10.0,180.0,,29.1,,,,,,,,,,,,,,,,,,,,,,,,,,,,,,,,,,,,,,,,,,,,,,,,,,,,,,,,,,,,,,,,,,,,,
KBUR,Burbank,,34.1808,-118.3089,2012-05-30 16:53:00,,CLR,10.0,,75,,,,50.0,,41,10.0,180.0,,29.09,2.0,Falling Rapidly,,,,77.0,70.0,,,,,,,,,,,,,,,,,,,,,,,,,,,,,,,,,,,,,,,,,,,,,,,,,,,,,,,,,,,,,,
KBUR,Burbank,,34.1808,-118.3089,2012-05-30 17:53:00,,CLR,10.0,,73,,,,52.0,,48,10.0,180.0,,29.09,,,,,,,,,,,,,,,,,,,,,,,,,,,,,,,,,,,,,,,,,,,,,,,,,,,,,,,,,,,,,,,,,,,,,
KBUR,Burbank,,34.1808,-118.3089,2012-05-30 18:53:00,,CLR,10.0,,71,,,,51.0,,49,10.0,170.0,,29.09,,,,,,,,,,,,,,,,,,,,,,,,,,,,,,,,,,,,,,,,,,,,,,,,,,,,,,,,,,,,,,,,,,,,,
KBUR,Burbank,,34.1808,-118.3089,2012-05-30 19:53:00,,CLR,10.0,,67,,,,51.0,,57,7.0,170.0,,29.11,1.0,Rising Rapidly,,,,,,,,,,,,,,,,,,,,,,,,,,,,,,,,,,,,,,,,,,,,,,,,,,,,,,,,,,,,,,,,,,,
KBUR,Burbank,,34.1808,-118.3089,2012-05-30 20:53:00,,CLR,10.0,,66,,,,52.0,,60,6.0,150.0,,29.12,,,,,,,,,,,,,,,,,,,,,,,,,,,,,,,,,,,,,,,,,,,,,,,,,,,,,,,,,,,,,,,,,,,,,
KBUR,Burbank,,34.1808,-118.3089,2012-05-30 21:53:00,,CLR,10.0,,66,,,,52.0,,60,3.0,150.0,,29.11,,,,,,,,,,,,,,,,,,,,,,,,,,,,,,,,,,,,,,,,,,,,,,,,,,,,,,,,,,,,,,,,,,,,,
KBUR,Burbank,,34.1808,-118.3089,2012-05-30 22:53:00,,CLR,10.0,,65,,,,53.0,,65,6.0,110.0,,29.12,1.0,Rising,,,,76.0,65.0,,,,,,,,,,,,,,,,,,,,,,,,,,,,,,,,,,,,,,,,,,,,,,,,,,,,,,,,,,,,,,
KBUR,Burbank,,34.1808,-118.3089,2012-05-30 23:53:00,,CLR,10.0,,63,,,,54.0,,72,3.0,130.0,,29.12,,,,,,,,,,,,,,,,,,,,,,,,,,,,,,,,,,,,,,,,,,,,,,,,,,,,,,,,,,,,,,,,,,,,,
KBUR,Burbank,,34.1808,-118.3089,2012-05-31 00:53:00,,CLR,10.0,,62,,,,54.0,,75,,,,29.11,,,,,,77.0,58.0,,,,,,,,,,,,,,,,,,,,,,,,,,,,,,,,,,,,,,,,,,,,,,,,,,,,,,,,,,,,,,
KBUR,Burbank,,34.1808,-118.3089,2012-05-31 01:53:00,,CLR,10.0,,60,,,,55.0,,83,3.0,160.0,,29.09,2.0,Falling Rapidly,,,,,,,,,,,,,,,,,,,,,,,,,,,,,,,,,,,,,,,,,,,,,,,,,,,,,,,,,,,,,,,,,,,
KBUR,Burbank,,34.1808,-118.3089,2012-05-31 02:53:00,,CLR,10.0,,60,,,,54.0,,80,,,,29.08,,,,,,,,,,,,,,,,,,,,,,,,,,,,,,,,,,,,,,,,,,,,,,,,,,,,,,,,,,,,,,,,,,,,,
KBUR,Burbank,,34.1808,-118.3089,2012-05-31 03:53:00,,CLR,10.0,,59,,,,54.0,,83,6.0,90.0,,29.08,,,,,,,,,,,,,,,,,,,,,,,,,,,,,,,,,,,,,,,,,,,,,,,,,,,,,,,,,,,,,,,,,,,,,
KBUR,Burbank,,34.1808,-118.3089,2012-05-31 04:53:00,,CLR,10.0,,58,,,,54.0,,87,3.0,140.0,,29.07,2.0,Falling,,,,65.0,58.0,,,,,,,,,,,,,,,,,,,,,,,,,,,,,,,,,,,,,,,,,,,,,,,,,,,,,,,,,,,,,,
KBUR,Burbank,,34.1808,-118.3089,2012-05-31 05:53:00,,CLR,10.0,,58,,,,54.0,,87,3.0,110.0,,29.09,,,,,,,,,,,,,,,,,,,,,,,,,,,,,,,,,,,,,,,,,,,,,,,,,,,,,,,,,,,,,,,,,,,,,
KBUR,Burbank,,34.1808,-118.3089,2012-05-31 06:15:00,,SCT,10.0,,57,,,,54.0,,88,6.0,110.0,,29.13,,,,,,,,,,,,,,,,,,,,,,,,,,,,,,,,,,,,,,,,,,,,,,,,,,,,,,,,,,,,,,,,,,,,,
KBUR,Burbank,,34.1808,-118.3089,2012-05-31 06:53:00,,BKN,6.0,,58,,,,54.0,,87,7.0,140.0,,29.1,,,,,,,,,,,,,,,,,,,,,,,,,,,,,,,,,,,,,,,,,,,,,,,,,,,,,,,,,,,,,,,,,,,,,
KBUR,Burbank,,34.1808,-118.3089,2012-05-31 07:06:00,,OVC,5.0,,57,,,,54.0,,88,6.0,150.0,,29.13,,,,,,,,,,,,,,,,,,,,,,,,,,,,,,,,,,,,,,,,,,,,,,,,,,,,,,,,,,,,,,,,,,,,,
KBUR,Burbank,,34.1808,-118.3089,2012-05-31 07:53:00,,OVC,4.0,,58,,,,55.0,,90,5.0,190.0,,29.1,1.0,Rising,,,,,,,,,,,,,,,,,,,,,,,,,,,,,,,,,,,,,,,,,,,,,,,,,,,,,,,,,,,,,,,,,,,
KBUR,Burbank,,34.1808,-118.3089,2012-05-31 08:25:00,,CLR,4.0,,61,,,,55.0,,82,3.0,130.0,,29.12,,,,,,,,,,,,,,,,,,,,,,,,,,,,,,,,,,,,,,,,,,,,,,,,,,,,,,,,,,,,,,,,,,,,,
KBUR,Burbank,,34.1808,-118.3089,2012-05-31 08:53:00,,CLR,5.0,,62,,,,55.0,,78,,,,29.08,,,,,,,,,,,,,,,,,,,,,,,,,,,,,,,,,,,,,,,,,,,,,,,,,,,,,,,,,,,,,,,,,,,,,
KBUR,Burbank,,34.1808,-118.3089,2012-05-31 09:53:00,,CLR,7.0,,69,,,,55.0,,61,,,,29.06,,,,,,,,,,,,,,,,,,,,,,,,,,,,,,,,,,,,,,,,,,,,,,,,,,,,,,,,,,,,,,,,,,,,,
KBUR,Burbank,,34.1808,-118.3089,2012-05-31 10:53:00,,CLR,10.0,,74,,,,55.0,,52,,,,29.04,2.0,Falling,,,,74.0,58.0,,,,,,,,,,,,,,,,,,,,,,,,,,,,,,,,,,,,,,,,,,,,,,,,,,,,,,,,,,,,,,
KBUR,Burbank,,34.1808,-118.3089,2012-05-31 11:53:00,,CLR,10.0,,79,,,,57.0,,47,,,,29.03,,,,,,,,,,,,,,,,,,,,,,,,,,,,,,,,,,,,,,,,,,,,,,,,,,,,,,,,,,,,,,,,,,,,,
KBUR,Burbank,,34.1808,-118.3089,2012-05-31 12:53:00,,CLR,10.0,,83,,,,57.0,,41,7.0,190.0,,29.0,,,,,,,,,,,,,,,,,,,,,,,,,,,,,,,,,,,,,,,,,,,,,,,,,,,,,,,,,,,,,,,,,,,,,
KBUR,Burbank,,34.1808,-118.3089,2012-05-31 13:53:00,,CLR,10.0,,84,,,,57.0,,40,7.0,,,28.97,2.0,Falling Rapidly,,,,,,,,,,,,,,,,,,,,,,,,,,,,,,,,,,,,,,,,,,,,,,,,,,,,,,,,,,,,,,,,,,,
KBUR,Burbank,,34.1808,-118.3089,2012-05-31 14:53:00,,CLR,10.0,,83,,,,57.0,,41,10.0,190.0,,28.97,,,,,,,,,,,,,,,,,,,,,,,,,,,,,,,,,,,,,,,,,,,,,,,,,,,,,,,,,,,,,,,,,,,,,
KBUR,Burbank,,34.1808,-118.3089,2012-05-31 15:53:00,,CLR,10.0,,82,,,,56.0,,41,10.0,140.0,,28.95,,,,,,,,,,,,,,,,,,,,,,,,,,,,,,,,,,,,,,,,,,,,,,,,,,,,,,,,,,,,,,,,,,,,,
KBUR,Burbank,,34.1808,-118.3089,2012-05-31 16:53:00,,CLR,10.0,,81,,,,56.0,,42,10.0,120.0,18.0,28.94,2.0,Falling Rapidly,,,,86.0,73.0,,,,,,,,,,,,,,,,,,,,,,,,,,,,,,,,,,,,,,,,,,,,,,,,,,,,,,,,,,,,,,
KBUR,Burbank,,34.1808,-118.3089,2012-05-31 17:53:00,,CLR,10.0,,80,,,,56.0,,43,9.0,140.0,,28.94,,,,,,,,,,,,,,,,,,,,,,,,,,,,,,,,,,,,,,,,,,,,,,,,,,,,,,,,,,,,,,,,,,,,,
KBUR,Burbank,,34.1808,-118.3089,2012-05-31 18:53:00,,CLR,10.0,,78,,,,57.0,,48,10.0,130.0,,28.94,,,,,,,,,,,,,,,,,,,,,,,,,,,,,,,,,,,,,,,,,,,,,,,,,,,,,,,,,,,,,,,,,,,,,
KBUR,Burbank,,34.1808,-118.3089,2012-05-31 19:53:00,,CLR,10.0,,72,,,,57.0,,59,13.0,110.0,28.0,28.95,1.0,Rising Rapidly,,,,,,,,,,,,,,,,,,,,,,,,,,,,,,,,,,,,,,,,,,,,,,,,,,,,,,,,,,,,,,,,,,,
KBUR,Burbank,,34.1808,-118.3089,2012-05-31 20:53:00,,CLR,10.0,,67,,,,57.0,,70,10.0,110.0,,28.97,,,,,,,,,,,,,,,,,,,,,,,,,,,,,,,,,,,,,,,,,,,,,,,,,,,,,,,,,,,,,,,,,,,,,
KBUR,Burbank,,34.1808,-118.3089,2012-05-31 21:53:00,,CLR,10.0,,67,,,,56.0,,68,10.0,120.0,,28.99,,,,,,,,,,,,,,,,,,,,,,,,,,,,,,,,,,,,,,,,,,,,,,,,,,,,,,,,,,,,,,,,,,,,,
KBUR,Burbank,,34.1808,-118.3089,2012-05-31 22:53:00,,CLR,10.0,,67,,,,55.0,,66,8.0,120.0,,28.99,1.0,Rising,,,,82.0,66.0,,,,,,,,,,,,,,,,,,,,,,,,,,,,,,,,,,,,,,,,,,,,,,,,,,,,,,,,,,,,,,
KBUR,Burbank,,34.1808,-118.3089,2012-05-31 23:53:00,,CLR,10.0,,65,,,,55.0,,70,6.0,120.0,,28.99,,,,,,,,,,,,,,,,,,,,,,,,,,,,,,,,,,,,,,,,,,,,,,,,,,,,,,,,,,,,,,,,,,,,,
KBUR,Burbank,,34.1808,-118.3089,2012-06-01 00:53:00,,CLR,10.0,,64,,,,56.0,,75,6.0,130.0,,28.99,,,,,,86.0,58.0,,,,,,,,,,,,,,,,,,,,,,,,,,,,,,,,,,,,,,,,,,,,,,,,,,,,,,,,,,,,,,
KBUR,Burbank,,34.1808,-118.3089,2012-06-01 01:53:00,,CLR,10.0,,62,,,,55.0,,78,5.0,140.0,,28.98,2.0,Falling,,,,,,,,,,,,,,,,,,,,,,,,,,,,,,,,,,,,,,,,,,,,,,,,,,,,,,,,,,,,,,,,,,,
KBUR,Burbank,,34.1808,-118.3089,2012-06-01 02:53:00,,CLR,10.0,,61,,,,55.0,,81,5.0,130.0,,28.97,,,,,,,,,,,,,,,,,,,,,,,,,,,,,,,,,,,,,,,,,,,,,,,,,,,,,,,,,,,,,,,,,,,,,
KBUR,Burbank,,34.1808,-118.3089,2012-06-01 03:53:00,,CLR,10.0,,60,,,,55.0,,83,5.0,80.0,,28.97,,,,,,,,,,,,,,,,,,,,,,,,,,,,,,,,,,,,,,,,,,,,,,,,,,,,,,,,,,,,,,,,,,,,,
KBUR,Burbank,,34.1808,-118.3089,2012-06-01 04:53:00,,CLR,9.0,,60,,,,56.0,,86,3.0,100.0,,28.97,0.0,Steady,,,,66.0,60.0,,,,,,,,,,,,,,,,,,,,,,,,,,,,,,,,,,,,,,,,,,,,,,,,,,,,,,,,,,,,,,
KBUR,Burbank,,34.1808,-118.3089,2012-06-01 05:53:00,,CLR,6.0,,59,,,,56.0,,90,3.0,110.0,,28.98,,,,,,,,,,,,,,,,,,,,,,,,,,,,,,,,,,,,,,,,,,,,,,,,,,,,,,,,,,,,,,,,,,,,,
KBUR,Burbank,,34.1808,-118.3089,2012-06-01 06:21:00,,FEW,5.0,,57,,,,55.0,,94,6.0,140.0,,29.01,,,,,,,,,,,,,,,,,,,,,,,,,,,,,,,,,,,,,,,,,,,,,,,,,,,,,,,,,,,,,,,,,,,,,
KBUR,Burbank,,34.1808,-118.3089,2012-06-01 06:53:00,,FEW,5.0,,59,,,,56.0,,90,5.0,130.0,,28.99,,,,,,,,,,,,,,,,,,,,,,,,,,,,,,,,,,,,,,,,,,,,,,,,,,,,,,,,,,,,,,,,,,,,,
KBUR,Burbank,,34.1808,-118.3089,2012-06-01 07:53:00,,CLR,5.0,,62,,,,56.0,,80,3.0,,,29.0,1.0,Rising Rapidly,,,,,,,,,,,,,,,,,,,,,,,,,,,,,,,,,,,,,,,,,,,,,,,,,,,,,,,,,,,,,,,,,,,
KBUR,Burbank,,34.1808,-118.3089,2012-06-01 08:53:00,,CLR,7.0,,65,,,,56.0,,73,7.0,130.0,,29.0,,,,,,,,,,,,,,,,,,,,,,,,,,,,,,,,,,,,,,,,,,,,,,,,,,,,,,,,,,,,,,,,,,,,,
KBUR,Burbank,,34.1808,-118.3089,2012-06-01 09:53:00,,CLR,9.0,,69,,,,57.0,,65,8.0,140.0,,28.99,,,,,,,,,,,,,,,,,,,,,,,,,,,,,,,,,,,,,,,,,,,,,,,,,,,,,,,,,,,,,,,,,,,,,
KBUR,Burbank,,34.1808,-118.3089,2012-06-01 10:53:00,,CLR,9.0,,75,,,,57.0,,53,6.0,110.0,,28.98,2.0,Falling Rapidly,,,,75.0,58.0,,,,,,,,,,,,,,,,,,,,,,,,,,,,,,,,,,,,,,,,,,,,,,,,,,,,,,,,,,,,,,
KBUR,Burbank,,34.1808,-118.3089,2012-06-01 11:53:00,,CLR,10.0,,78,,,,58.0,,50,6.0,140.0,,28.97,,,,,,,,,,,,,,,,,,,,,,,,,,,,,,,,,,,,,,,,,,,,,,,,,,,,,,,,,,,,,,,,,,,,,
KBUR,Burbank,,34.1808,-118.3089,2012-06-01 12:53:00,,CLR,9.0,,80,,,,59.0,,48,8.0,170.0,,28.96,,,,,,,,,,,,,,,,,,,,,,,,,,,,,,,,,,,,,,,,,,,,,,,,,,,,,,,,,,,,,,,,,,,,,
KBUR,Burbank,,34.1808,-118.3089,2012-06-01 13:53:00,,CLR,9.0,,80,,,,59.0,,48,10.0,170.0,,28.96,2.0,Falling Rapidly,,,,,,,,,,,,,,,,,,,,,,,,,,,,,,,,,,,,,,,,,,,,,,,,,,,,,,,,,,,,,,,,,,,
KBUR,Burbank,,34.1808,-118.3089,2012-06-01 14:53:00,,CLR,10.0,,78,,,,58.0,,50,13.0,190.0,,28.97,,,,,,,,,,,,,,,,,,,,,,,,,,,,,,,,,,,,,,,,,,,,,,,,,,,,,,,,,,,,,,,,,,,,,
KBUR,Burbank,,34.1808,-118.3089,2012-06-01 15:53:00,,CLR,10.0,,78,,,,57.0,,48,12.0,180.0,,28.96,,,,,,,,,,,,,,,,,,,,,,,,,,,,,,,,,,,,,,,,,,,,,,,,,,,,,,,,,,,,,,,,,,,,,
KBUR,Burbank,,34.1808,-118.3089,2012-06-01 16:53:00,,CLR,10.0,,79,,,,57.0,,47,9.0,180.0,,28.95,2.0,Falling Rapidly,,,,82.0,75.0,,,,,,,,,,,,,,,,,,,,,,,,,,,,,,,,,,,,,,,,,,,,,,,,,,,,,,,,,,,,,,
KBUR,Burbank,,34.1808,-118.3089,2012-06-01 17:53:00,,CLR,10.0,,79,,,,57.0,,47,8.0,130.0,,28.93,,,,,,,,,,,,,,,,,,,,,,,,,,,,,,,,,,,,,,,,,,,,,,,,,,,,,,,,,,,,,,,,,,,,,
KBUR,Burbank,,34.1808,-118.3089,2012-06-01 18:53:00,,CLR,10.0,,76,,,,58.0,,54,7.0,170.0,,28.94,,,,,,,,,,,,,,,,,,,,,,,,,,,,,,,,,,,,,,,,,,,,,,,,,,,,,,,,,,,,,,,,,,,,,
KBUR,Burbank,,34.1808,-118.3089,2012-06-01 19:53:00,,CLR,10.0,,69,,,,58.0,,68,8.0,180.0,,28.95,0.0,Steady,,,,,,,,,,,,,,,,,,,,,,,,,,,,,,,,,,,,,,,,,,,,,,,,,,,,,,,,,,,,,,,,,,,
KBUR,Burbank,,34.1808,-118.3089,2012-06-01 20:53:00,,CLR,8.0,,64,,,,58.0,,80,5.0,170.0,,28.98,,,,,,,,,,,,,,,,,,,,,,,,,,,,,,,,,,,,,,,,,,,,,,,,,,,,,,,,,,,,,,,,,,,,,
KBUR,Burbank,,34.1808,-118.3089,2012-06-01 21:53:00,,CLR,7.0,,63,,,,58.0,,84,9.0,100.0,,29.0,,,,,,,,,,,,,,,,,,,,,,,,,,,,,,,,,,,,,,,,,,,,,,,,,,,,,,,,,,,,,,,,,,,,,
KBUR,Burbank,,34.1808,-118.3089,2012-06-01 22:43:00,,SCT,5.0,,63,,,,57.0,,82,8.0,120.0,,29.04,,,,,,,,,,,,,,,,,,,,,,,,,,,,,,,,,,,,,,,,,,,,,,,,,,,,,,,,,,,,,,,,,,,,,
KBUR,Burbank,,34.1808,-118.3089,2012-06-01 22:53:00,,BKN,5.0,,62,,,,58.0,,86,8.0,130.0,,29.01,1.0,Rising,,,,80.0,62.0,,,,,,,,,,,,,,,,,,,,,,,,,,,,,,,,,,,,,,,,,,,,,,,,,,,,,,,,,,,,,,
KBUR,Burbank,,34.1808,-118.3089,2012-06-01 23:02:00,,OVC,5.0,,63,,,,57.0,,82,8.0,130.0,,29.03,,,,,,,,,,,,,,,,,,,,,,,,,,,,,,,,,,,,,,,,,,,,,,,,,,,,,,,,,,,,,,,,,,,,,
KBUR,Burbank,,34.1808,-118.3089,2012-06-01 23:53:00,,OVC,5.0,,61,,,,57.0,,87,5.0,120.0,,29.0,,,,,,,,,,,,,,,,,,,,,,,,,,,,,,,,,,,,,,,,,,,,,,,,,,,,,,,,,,,,,,,,,,,,,
KBUR,Burbank,,34.1808,-118.3089,2012-06-02 00:53:00,,OVC,5.0,,62,,,,57.0,,84,6.0,140.0,,28.99,,,,,,82.0,58.0,,,,,,,,,,,,,,,,,,,,,,,,,,,,,,,,,,,,,,,,,,,,,,,,,,,,,,,,,,,,,,
KBUR,Burbank,,34.1808,-118.3089,2012-06-02 01:53:00,,OVC,4.0,,62,,,,57.0,,84,3.0,160.0,,28.99,2.0,Falling,,,,,,,,,,,,,,,,,,,,,,,,,,,,,,,,,,,,,,,,,,,,,,,,,,,,,,,,,,,,,,,,,,,
KBUR,Burbank,,34.1808,-118.3089,2012-06-02 02:53:00,,OVC,4.0,,61,,,,57.0,,87,6.0,180.0,,28.99,,,,,,,,,,,,,,,,,,,,,,,,,,,,,,,,,,,,,,,,,,,,,,,,,,,,,,,,,,,,,,,,,,,,,
KBUR,Burbank,,34.1808,-118.3089,2012-06-02 03:53:00,,OVC,4.0,,61,,,,57.0,,87,3.0,90.0,,28.98,,,,,,,,,,,,,,,,,,,,,,,,,,,,,,,,,,,,,,,,,,,,,,,,,,,,,,,,,,,,,,,,,,,,,
KBUR,Burbank,,34.1808,-118.3089,2012-06-02 04:53:00,,OVC,4.0,,61,,,,57.0,,87,3.0,,,28.98,0.0,Steady,,,,62.0,61.0,,,,,,,,,,,,,,,,,,,,,,,,,,,,,,,,,,,,,,,,,,,,,,,,,,,,,,,,,,,,,,
KBUR,Burbank,,34.1808,-118.3089,2012-06-02 05:37:00,,OVC,4.0,,61,,,,57.0,,88,3.0,190.0,,29.02,,,,,,,,,,,,,,,,,,,,,,,,,,,,,,,,,,,,,,,,,,,,,,,,,,,,,,,,,,,,,,,,,,,,,
KBUR,Burbank,,34.1808,-118.3089,2012-06-02 05:53:00,,OVC,4.0,,60,,,,56.0,,86,3.0,200.0,,28.99,,,,,,,,,,,,,,,,,,,,,,,,,,,,,,,,,,,,,,,,,,,,,,,,,,,,,,,,,,,,,,,,,,,,,
KBUR,Burbank,,34.1808,-118.3089,2012-06-02 06:53:00,,OVC,3.0,,61,,,,56.0,,83,5.0,210.0,,29.01,,,,,,,,,,,,,,,,,,,,,,,,,,,,,,,,,,,,,,,,,,,,,,,,,,,,,,,,,,,,,,,,,,,,,
KBUR,Burbank,,34.1808,-118.3089,2012-06-02 07:53:00,,OVC,3.0,,61,,,,56.0,,83,3.0,170.0,,29.03,1.0,Rising Rapidly,,,,,,,,,,,,,,,,,,,,,,,,,,,,,,,,,,,,,,,,,,,,,,,,,,,,,,,,,,,,,,,,,,,
KBUR,Burbank,,34.1808,-118.3089,2012-06-02 08:53:00,,OVC,3.0,,62,,,,55.0,,78,3.0,210.0,,29.03,,,,,,,,,,,,,,,,,,,,,,,,,,,,,,,,,,,,,,,,,,,,,,,,,,,,,,,,,,,,,,,,,,,,,
KBUR,Burbank,,34.1808,-118.3089,2012-06-02 09:53:00,,SCT,5.0,,65,,,,56.0,,73,3.0,,,29.03,,,,,,,,,,,,,,,,,,,,,,,,,,,,,,,,,,,,,,,,,,,,,,,,,,,,,,,,,,,,,,,,,,,,,
KBUR,Burbank,,34.1808,-118.3089,2012-06-02 10:53:00,,CLR,5.0,,67,,,,56.0,,68,,,,29.03,2.0,Falling Rapidly,,,,67.0,60.0,,,,,,,,,,,,,,,,,,,,,,,,,,,,,,,,,,,,,,,,,,,,,,,,,,,,,,,,,,,,,,
KBUR,Burbank,,34.1808,-118.3089,2012-06-02 11:53:00,,CLR,6.0,,71,,,,56.0,,59,5.0,180.0,,29.03,,,,,,,,,,,,,,,,,,,,,,,,,,,,,,,,,,,,,,,,,,,,,,,,,,,,,,,,,,,,,,,,,,,,,
KBUR,Burbank,,34.1808,-118.3089,2012-06-02 12:53:00,,CLR,7.0,,73,,,,57.0,,57,9.0,190.0,,29.01,,,,,,,,,,,,,,,,,,,,,,,,,,,,,,,,,,,,,,,,,,,,,,,,,,,,,,,,,,,,,,,,,,,,,
KBUR,Burbank,,34.1808,-118.3089,2012-06-02 13:53:00,,CLR,7.0,,76,,,,57.0,,52,12.0,180.0,,28.99,2.0,Falling Rapidly,,,,,,,,,,,,,,,,,,,,,,,,,,,,,,,,,,,,,,,,,,,,,,,,,,,,,,,,,,,,,,,,,,,
KBUR,Burbank,,34.1808,-118.3089,2012-06-02 14:53:00,,CLR,10.0,,75,,,,56.0,,51,10.0,160.0,,28.99,,,,,,,,,,,,,,,,,,,,,,,,,,,,,,,,,,,,,,,,,,,,,,,,,,,,,,,,,,,,,,,,,,,,,
KBUR,Burbank,,34.1808,-118.3089,2012-06-02 15:53:00,,CLR,10.0,,75,,,,56.0,,51,13.0,190.0,,28.97,,,,,,,,,,,,,,,,,,,,,,,,,,,,,,,,,,,,,,,,,,,,,,,,,,,,,,,,,,,,,,,,,,,,,
KBUR,Burbank,,34.1808,-118.3089,2012-06-02 16:53:00,,CLR,10.0,,76,,,,56.0,,50,10.0,190.0,,28.97,2.0,Falling Rapidly,,,,77.0,67.0,,,,,,,,,,,,,,,,,,,,,,,,,,,,,,,,,,,,,,,,,,,,,,,,,,,,,,,,,,,,,,
KBUR,Burbank,,34.1808,-118.3089,2012-06-02 17:53:00,,CLR,10.0,,72,,,,55.0,,55,12.0,170.0,,28.97,,,,,,,,,,,,,,,,,,,,,,,,,,,,,,,,,,,,,,,,,,,,,,,,,,,,,,,,,,,,,,,,,,,,,
KBUR,Burbank,,34.1808,-118.3089,2012-06-02 18:53:00,,CLR,10.0,,68,,,,56.0,,65,9.0,190.0,,28.99,,,,,,,,,,,,,,,,,,,,,,,,,,,,,,,,,,,,,,,,,,,,,,,,,,,,,,,,,,,,,,,,,,,,,
KBUR,Burbank,,34.1808,-118.3089,2012-06-02 19:53:00,,CLR,10.0,,65,,,,56.0,,73,7.0,170.0,,29.01,1.0,Rising Rapidly,,,,,,,,,,,,,,,,,,,,,,,,,,,,,,,,,,,,,,,,,,,,,,,,,,,,,,,,,,,,,,,,,,,
KBUR,Burbank,,34.1808,-118.3089,2012-06-02 20:53:00,,CLR,10.0,,63,,,,56.0,,78,6.0,170.0,,29.01,,,,,,,,,,,,,,,,,,,,,,,,,,,,,,,,,,,,,,,,,,,,,,,,,,,,,,,,,,,,,,,,,,,,,
KBUR,Burbank,,34.1808,-118.3089,2012-06-02 21:53:00,,CLR,10.0,,62,,,,56.0,,80,7.0,160.0,,29.02,,,,,,,,,,,,,,,,,,,,,,,,,,,,,,,,,,,,,,,,,,,,,,,,,,,,,,,,,,,,,,,,,,,,,
KBUR,Burbank,,34.1808,-118.3089,2012-06-02 22:28:00,,BKN,10.0,,63,,,,55.0,,77,8.0,140.0,,29.05,,,,,,,,,,,,,,,,,,,,,,,,,,,,,,,,,,,,,,,,,,,,,,,,,,,,,,,,,,,,,,,,,,,,,
KBUR,Burbank,,34.1808,-118.3089,2012-06-02 22:53:00,,OVC,10.0,,62,,,,56.0,,80,7.0,130.0,,29.02,1.0,Rising,,,,76.0,62.0,,,,,,,,,,,,,,,,,,,,,,,,,,,,,,,,,,,,,,,,,,,,,,,,,,,,,,,,,,,,,,
KBUR,Burbank,,34.1808,-118.3089,2012-06-02 23:53:00,,OVC,9.0,,62,,,,56.0,,80,6.0,150.0,,29.02,,,,,,,,,,,,,,,,,,,,,,,,,,,,,,,,,,,,,,,,,,,,,,,,,,,,,,,,,,,,,,,,,,,,,
KBUR,Burbank,,34.1808,-118.3089,2012-06-03 00:12:00,,OVC,9.0,,63,,,,55.0,,77,3.0,180.0,,29.05,,,,,,,,,,,,,,,,,,,,,,,,,,,,,,,,,,,,,,,,,,,,,,,,,,,,,,,,,,,,,,,,,,,,,
KBUR,Burbank,,34.1808,-118.3089,2012-06-03 00:53:00,,OVC,8.0,,62,,,,56.0,,80,3.0,170.0,,29.01,,,,,,77.0,60.0,,,,,,,,,,,,,,,,,,,,,,,,,,,,,,,,,,,,,,,,,,,,,,,,,,,,,,,,,,,,,,
KBUR,Burbank,,34.1808,-118.3089,2012-06-03 01:53:00,,OVC,8.0,,62,,,,56.0,,80,,,,29.0,2.0,Falling Rapidly,,,,,,,,,,,,,,,,,,,,,,,,,,,,,,,,,,,,,,,,,,,,,,,,,,,,,,,,,,,,,,,,,,,
KBUR,Burbank,,34.1808,-118.3089,2012-06-03 02:53:00,,OVC,8.0,,62,,,,56.0,,80,,,,28.99,,,,,,,,,,,,,,,,,,,,,,,,,,,,,,,,,,,,,,,,,,,,,,,,,,,,,,,,,,,,,,,,,,,,,
KBUR,Burbank,,34.1808,-118.3089,2012-06-03 03:53:00,,OVC,7.0,,61,,,,55.0,,81,5.0,220.0,,28.99,,,,,,,,,,,,,,,,,,,,,,,,,,,,,,,,,,,,,,,,,,,,,,,,,,,,,,,,,,,,,,,,,,,,,
KBUR,Burbank,,34.1808,-118.3089,2012-06-03 04:42:00,,OVC,8.0,,61,,,,55.0,,82,5.0,190.0,,29.02,,,,,,,,,,,,,,,,,,,,,,,,,,,,,,,,,,,,,,,,,,,,,,,,,,,,,,,,,,,,,,,,,,,,,
KBUR,Burbank,,34.1808,-118.3089,2012-06-03 04:53:00,,OVC,8.0,,61,,,,55.0,,81,6.0,180.0,,28.99,0.0,Steady,,,,63.0,61.0,,,,,,,,,,,,,,,,,,,,,,,,,,,,,,,,,,,,,,,,,,,,,,,,,,,,,,,,,,,,,,
KBUR,Burbank,,34.1808,-118.3089,2012-06-03 05:53:00,,OVC,8.0,,61,,,,55.0,,81,5.0,180.0,,29.0,,,,,,,,,,,,,,,,,,,,,,,,,,,,,,,,,,,,,,,,,,,,,,,,,,,,,,,,,,,,,,,,,,,,,
KBUR,Burbank,,34.1808,-118.3089,2012-06-03 06:53:00,,OVC,8.0,,61,,,,55.0,,81,3.0,200.0,,29.01,,,,,,,,,,,,,,,,,,,,,,,,,,,,,,,,,,,,,,,,,,,,,,,,,,,,,,,,,,,,,,,,,,,,,
KBUR,Burbank,,34.1808,-118.3089,2012-06-03 07:53:00,,OVC,9.0,,61,,,,55.0,,81,6.0,170.0,,29.03,1.0,Rising Rapidly,,,,,,,,,,,,,,,,,,,,,,,,,,,,,,,,,,,,,,,,,,,,,,,,,,,,,,,,,,,,,,,,,,,
KBUR,Burbank,,34.1808,-118.3089,2012-06-03 08:53:00,,OVC,6.0,,62,,,,55.0,,78,5.0,200.0,,29.03,,,,,,,,,,,,,,,,,,,,,,,,,,,,,,,,,,,,,,,,,,,,,,,,,,,,,,,,,,,,,,,,,,,,,
KBUR,Burbank,,34.1808,-118.3089,2012-06-03 09:53:00,,SCT,8.0,,65,,,,55.0,,70,5.0,200.0,,29.04,,,,,,,,,,,,,,,,,,,,,,,,,,,,,,,,,,,,,,,,,,,,,,,,,,,,,,,,,,,,,,,,,,,,,
KBUR,Burbank,,34.1808,-118.3089,2012-06-03 10:53:00,,CLR,10.0,,68,,,,55.0,,63,,,,29.04,1.0,Rising,,,,69.0,61.0,,,,,,,,,,,,,,,,,,,,,,,,,,,,,,,,,,,,,,,,,,,,,,,,,,,,,,,,,,,,,,
KBUR,Burbank,,34.1808,-118.3089,2012-06-03 11:53:00,,CLR,10.0,,72,,,,55.0,,55,9.0,160.0,,29.04,,,,,,,,,,,,,,,,,,,,,,,,,,,,,,,,,,,,,,,,,,,,,,,,,,,,,,,,,,,,,,,,,,,,,
KBUR,Burbank,,34.1808,-118.3089,2012-06-03 12:53:00,,CLR,10.0,,74,,,,55.0,,52,9.0,180.0,,29.03,,,,,,,,,,,,,,,,,,,,,,,,,,,,,,,,,,,,,,,,,,,,,,,,,,,,,,,,,,,,,,,,,,,,,
KBUR,Burbank,,34.1808,-118.3089,2012-06-03 13:53:00,,CLR,10.0,,73,,,,55.0,,53,12.0,180.0,,29.03,2.0,Falling Rapidly,,,,,,,,,,,,,,,,,,,,,,,,,,,,,,,,,,,,,,,,,,,,,,,,,,,,,,,,,,,,,,,,,,,
KBUR,Burbank,,34.1808,-118.3089,2012-06-03 14:53:00,,CLR,10.0,,75,,,,55.0,,50,12.0,190.0,16.0,29.02,,,,,,,,,,,,,,,,,,,,,,,,,,,,,,,,,,,,,,,,,,,,,,,,,,,,,,,,,,,,,,,,,,,,,
KBUR,Burbank,,34.1808,-118.3089,2012-06-03 15:53:00,,CLR,10.0,,76,,,,54.0,,46,13.0,140.0,18.0,29.01,,,,,,,,,,,,,,,,,,,,,,,,,,,,,,,,,,,,,,,,,,,,,,,,,,,,,,,,,,,,,,,,,,,,,
KBUR,Burbank,,34.1808,-118.3089,2012-06-03 16:53:00,,CLR,10.0,,74,,,,55.0,,52,12.0,180.0,,29.0,2.0,Falling,,,,76.0,68.0,,,,,,,,,,,,,,,,,,,,,,,,,,,,,,,,,,,,,,,,,,,,,,,,,,,,,,,,,,,,,,
KBUR,Burbank,,34.1808,-118.3089,2012-06-03 17:53:00,,CLR,10.0,,71,,,,55.0,,57,9.0,190.0,,29.01,,,,,,,,,,,,,,,,,,,,,,,,,,,,,,,,,,,,,,,,,,,,,,,,,,,,,,,,,,,,,,,,,,,,,
KBUR,Burbank,,34.1808,-118.3089,2012-06-03 18:53:00,,CLR,10.0,,69,,,,55.0,,61,10.0,180.0,,29.02,,,,,,,,,,,,,,,,,,,,,,,,,,,,,,,,,,,,,,,,,,,,,,,,,,,,,,,,,,,,,,,,,,,,,
KBUR,Burbank,,34.1808,-118.3089,2012-06-03 19:53:00,,CLR,10.0,,65,,,,55.0,,70,7.0,180.0,,29.04,1.0,Rising Rapidly,,,,,,,,,,,,,,,,,,,,,,,,,,,,,,,,,,,,,,,,,,,,,,,,,,,,,,,,,,,,,,,,,,,
KBUR,Burbank,,34.1808,-118.3089,2012-06-03 20:53:00,,CLR,10.0,,63,,,,56.0,,78,9.0,180.0,,29.07,,,,,,,,,,,,,,,,,,,,,,,,,,,,,,,,,,,,,,,,,,,,,,,,,,,,,,,,,,,,,,,,,,,,,
KBUR,Burbank,,34.1808,-118.3089,2012-06-03 21:53:00,,CLR,10.0,,62,,,,56.0,,80,6.0,,,29.08,,,,,,,,,,,,,,,,,,,,,,,,,,,,,,,,,,,,,,,,,,,,,,,,,,,,,,,,,,,,,,,,,,,,,
KBUR,Burbank,,34.1808,-118.3089,2012-06-03 22:50:00,,BKN,10.0,,61,,,,55.0,,82,5.0,170.0,,29.11,,,,,,,,,,,,,,,,,,,,,,,,,,,,,,,,,,,,,,,,,,,,,,,,,,,,,,,,,,,,,,,,,,,,,
KBUR,Burbank,,34.1808,-118.3089,2012-06-03 22:53:00,,BKN,10.0,,61,,,,56.0,,83,5.0,180.0,,29.08,1.0,Rising,,,,74.0,61.0,,,,,,,,,,,,,,,,,,,,,,,,,,,,,,,,,,,,,,,,,,,,,,,,,,,,,,,,,,,,,,
KBUR,Burbank,,34.1808,-118.3089,2012-06-03 23:53:00,,OVC,10.0,,62,,,,56.0,,80,8.0,120.0,,29.07,,,,,,,,,,,,,,,,,,,,,,,,,,,,,,,,,,,,,,,,,,,,,,,,,,,,,,,,,,,,,,,,,,,,,
KBUR,Burbank,,34.1808,-118.3089,2012-06-04 00:53:00,,OVC,10.0,,62,,,,56.0,,80,5.0,160.0,,29.07,,,,,,76.0,61.0,,,,,,,,,,,,,,,,,,,,,,,,,,,,,,,,,,,,,,,,,,,,,,,,,,,,,,,,,,,,,,
KBUR,Burbank,,34.1808,-118.3089,2012-06-04 01:06:00,,OVC,10.0,,63,,,,55.0,,77,3.0,180.0,,29.1,,,,,,,,,,,,,,,,,,,,,,,,,,,,,,,,,,,,,,,,,,,,,,,,,,,,,,,,,,,,,,,,,,,,,
KBUR,Burbank,,34.1808,-118.3089,2012-06-04 01:53:00,,OVC,10.0,,61,,,,56.0,,83,5.0,180.0,,29.05,2.0,Falling Rapidly,,,,,,,,,,,,,,,,,,,,,,,,,,,,,,,,,,,,,,,,,,,,,,,,,,,,,,,,,,,,,,,,,,,
KBUR,Burbank,,34.1808,-118.3089,2012-06-04 02:41:00,,OVC,10.0,,61,,,,55.0,,82,5.0,170.0,,29.08,,,,,,,,,,,,,,,,,,,,,,,,,,,,,,,,,,,,,,,,,,,,,,,,,,,,,,,,,,,,,,,,,,,,,
KBUR,Burbank,,34.1808,-118.3089,2012-06-04 02:53:00,,OVC,10.0,,61,,,,55.0,,81,6.0,170.0,,29.05,,,,,,,,,,,,,,,,,,,,,,,,,,,,,,,,,,,,,,,,,,,,,,,,,,,,,,,,,,,,,,,,,,,,,
KBUR,Burbank,,34.1808,-118.3089,2012-06-04 03:53:00,,OVC,10.0,,61,,,,55.0,,81,3.0,160.0,,29.05,,,,,,,,,,,,,,,,,,,,,,,,,,,,,,,,,,,,,,,,,,,,,,,,,,,,,,,,,,,,,,,,,,,,,
KBUR,Burbank,,34.1808,-118.3089,2012-06-04 04:53:00,,OVC,10.0,,61,,,,55.0,,81,3.0,180.0,,29.05,2.0,Falling,,,,62.0,61.0,,,,,,,,,,,,,,,,,,,,,,,,,,,,,,,,,,,,,,,,,,,,,,,,,,,,,,,,,,,,,,
KBUR,Burbank,,34.1808,-118.3089,2012-06-04 05:34:00,,OVC,10.0,,61,,,,55.0,,82,5.0,190.0,,29.09,,,,,,,,,,,,,,,,,,,,,,,,,,,,,,,,,,,,,,,,,,,,,,,,,,,,,,,,,,,,,,,,,,,,,
KBUR,Burbank,,34.1808,-118.3089,2012-06-04 05:53:00,,OVC,8.0,,61,,,,54.0,,78,6.0,190.0,,29.07,,,,,,,,,,,,,,,,,,,,,,,,,,,,,,,,,,,,,,,,,,,,,,,,,,,,,,,,,,,,,,,,,,,,,
KBUR,Burbank,,34.1808,-118.3089,2012-06-04 06:53:00,,OVC,8.0,,60,,,,54.0,,80,5.0,180.0,,29.08,,,,,,,,,,,,,,,,,,,,,,,,,,,,,,,,,,,,,,,,,,,,,,,,,,,,,,,,,,,,,,,,,,,,,
KBUR,Burbank,,34.1808,-118.3089,2012-06-04 07:53:00,,OVC,8.0,,61,,,,54.0,,78,6.0,170.0,,29.1,1.0,Rising,,,,,,,,,,,,,,,,,,,,,,,,,,,,,,,,,,,,,,,,,,,,,,,,,,,,,,,,,,,,,,,,,,,
KBUR,Burbank,,34.1808,-118.3089,2012-06-04 08:53:00,,OVC,8.0,,61,,,,54.0,,78,3.0,210.0,,29.11,,,,,,,,,,,,,,,,,,,,,,,,,,,,,,,,,,,,,,,,,,,,,,,,,,,,,,,,,,,,,,,,,,,,,
KBUR,Burbank,,34.1808,-118.3089,2012-06-04 09:53:00,,OVC,6.0,,63,,,,54.0,,72,6.0,160.0,,29.11,,,,,,,,,,,,,,,,,,,,,,,,,,,,,,,,,,,,,,,,,,,,,,,,,,,,,,,,,,,,,,,,,,,,,
KBUR,Burbank,,34.1808,-118.3089,2012-06-04 10:53:00,,OVC,6.0,,65,,,,54.0,,68,6.0,170.0,,29.11,0.0,Steady,,,,65.0,60.0,,,,,,,,,,,,,,,,,,,,,,,,,,,,,,,,,,,,,,,,,,,,,,,,,,,,,,,,,,,,,,
KBUR,Burbank,,34.1808,-118.3089,2012-06-04 11:53:00,,BKN,9.0,,67,,,,54.0,,63,8.0,180.0,,29.11,,,,,,,,,,,,,,,,,,,,,,,,,,,,,,,,,,,,,,,,,,,,,,,,,,,,,,,,,,,,,,,,,,,,,
KBUR,Burbank,,34.1808,-118.3089,2012-06-04 12:13:00,,SCT,10.0,,68,,,,54.0,,60,10.0,180.0,16.0,29.14,,,,,,,,,,,,,,,,,,,,,,,,,,,,,,,,,,,,,,,,,,,,,,,,,,,,,,,,,,,,,,,,,,,,,
KBUR,Burbank,,34.1808,-118.3089,2012-06-04 12:53:00,,SCT,10.0,,69,,,,54.0,,58,8.0,170.0,,29.11,,,,,,,,,,,,,,,,,,,,,,,,,,,,,,,,,,,,,,,,,,,,,,,,,,,,,,,,,,,,,,,,,,,,,
KBUR,Burbank,,34.1808,-118.3089,2012-06-04 13:53:00,,FEW,10.0,,70,,,,54.0,,57,7.0,200.0,,29.11,0.0,Steady,,,,,,,,,,,,,,,,,,,,,,,,,,,,,,,,,,,,,,,,,,,,,,,,,,,,,,,,,,,,,,,,,,,
KBUR,Burbank,,34.1808,-118.3089,2012-06-04 14:53:00,,CLR,10.0,,71,,,,55.0,,57,8.0,190.0,,29.1,,,,,,,,,,,,,,,,,,,,,,,,,,,,,,,,,,,,,,,,,,,,,,,,,,,,,,,,,,,,,,,,,,,,,
KBUR,Burbank,,34.1808,-118.3089,2012-06-04 15:53:00,,CLR,10.0,,71,,,,55.0,,57,6.0,,,29.09,,,,,,,,,,,,,,,,,,,,,,,,,,,,,,,,,,,,,,,,,,,,,,,,,,,,,,,,,,,,,,,,,,,,,
KBUR,Burbank,,34.1808,-118.3089,2012-06-04 16:53:00,,CLR,10.0,,70,,,,55.0,,59,9.0,180.0,,29.08,2.0,Falling Rapidly,,,,72.0,65.0,,,,,,,,,,,,,,,,,,,,,,,,,,,,,,,,,,,,,,,,,,,,,,,,,,,,,,,,,,,,,,
KBUR,Burbank,,34.1808,-118.3089,2012-06-04 17:53:00,,CLR,10.0,,69,,,,55.0,,61,9.0,200.0,,29.08,,,,,,,,,,,,,,,,,,,,,,,,,,,,,,,,,,,,,,,,,,,,,,,,,,,,,,,,,,,,,,,,,,,,,
KBUR,Burbank,,34.1808,-118.3089,2012-06-04 18:53:00,,FEW,10.0,,66,,,,55.0,,68,8.0,210.0,,29.09,,,,,,,,,,,,,,,,,,,,,,,,,,,,,,,,,,,,,,,,,,,,,,,,,,,,,,,,,,,,,,,,,,,,,
KBUR,Burbank,,34.1808,-118.3089,2012-06-04 19:53:00,,FEW,10.0,,65,,,,55.0,,70,6.0,180.0,,29.09,0.0,Steady,,,,,,,,,,,,,,,,,,,,,,,,,,,,,,,,,,,,,,,,,,,,,,,,,,,,,,,,,,,,,,,,,,,
KBUR,Burbank,,34.1808,-118.3089,2012-06-04 20:53:00,,FEW,10.0,,62,,,,55.0,,78,6.0,180.0,,29.1,,,,,,,,,,,,,,,,,,,,,,,,,,,,,,,,,,,,,,,,,,,,,,,,,,,,,,,,,,,,,,,,,,,,,
KBUR,Burbank,,34.1808,-118.3089,2012-06-04 21:04:00,,BKN,10.0,,63,,,,55.0,,77,6.0,180.0,,29.13,,,,,,,,,,,,,,,,,,,,,,,,,,,,,,,,,,,,,,,,,,,,,,,,,,,,,,,,,,,,,,,,,,,,,
KBUR,Burbank,,34.1808,-118.3089,2012-06-04 21:53:00,,OVC,10.0,,62,,,,55.0,,78,6.0,160.0,,29.11,,,,,,,,,,,,,,,,,,,,,,,,,,,,,,,,,,,,,,,,,,,,,,,,,,,,,,,,,,,,,,,,,,,,,
KBUR,Burbank,,34.1808,-118.3089,2012-06-04 22:53:00,,FEW,10.0,,61,,,,55.0,,81,8.0,130.0,,29.11,1.0,Rising,,,,71.0,61.0,,,,,,,,,,,,,,,,,,,,,,,,,,,,,,,,,,,,,,,,,,,,,,,,,,,,,,,,,,,,,,
KBUR,Burbank,,34.1808,-118.3089,2012-06-04 23:22:00,,BKN,10.0,,61,,,,55.0,,82,7.0,110.0,,29.14,,,,,,,,,,,,,,,,,,,,,,,,,,,,,,,,,,,,,,,,,,,,,,,,,,,,,,,,,,,,,,,,,,,,,
KBUR,Burbank,,34.1808,-118.3089,2012-06-04 23:53:00,,OVC,10.0,,60,,,,55.0,,83,6.0,140.0,,29.11,,,,,,,,,,,,,,,,,,,,,,,,,,,,,,,,,,,,,,,,,,,,,,,,,,,,,,,,,,,,,,,,,,,,,
KBUR,Burbank,,34.1808,-118.3089,2012-06-05 00:00:00,,OVC,10.0,,61,,,,55.0,,82,7.0,140.0,,29.14,,,,,,,,,,,,,,,,,,,,,,,,,,,,,,,,,,,,,,,,,,,,,,,,,,,,,,,,,,,,,,,,,,,,,
KBUR,Burbank,,34.1808,-118.3089,2012-06-05 00:40:00,,BKN,10.0,,61,,,,55.0,,82,6.0,160.0,,29.13,,,,,,,,,,,,,,,,,,,,,,,,,,,,,,,,,,,,,,,,,,,,,,,,,,,,,,,,,,,,,,,,,,,,,
KBUR,Burbank,,34.1808,-118.3089,2012-06-05 00:53:00,,OVC,10.0,,60,,,,55.0,,83,3.0,140.0,,29.1,,,,,,72.0,59.0,,,,,,,,,,,,,,,,,,,,,,,,,,,,,,,,,,,,,,,,,,,,,,,,,,,,,,,,,,,,,,
KBUR,Burbank,,34.1808,-118.3089,2012-06-05 01:53:00,,OVC,10.0,,60,,,,55.0,,83,7.0,160.0,,29.09,2.0,Falling Rapidly,,,,,,,,,,,,,,,,,,,,,,,,,,,,,,,,,,,,,,,,,,,,,,,,,,,,,,,,,,,,,,,,,,,
KBUR,Burbank,,34.1808,-118.3089,2012-06-05 02:53:00,,OVC,10.0,,60,,,,55.0,,83,,,,29.08,,,,,,,,,,,,,,,,,,,,,,,,,,,,,,,,,,,,,,,,,,,,,,,,,,,,,,,,,,,,,,,,,,,,,
KBUR,Burbank,,34.1808,-118.3089,2012-06-05 03:19:00,,BKN,10.0,,61,,,,55.0,,82,3.0,140.0,,29.11,,,,,,,,,,,,,,,,,,,,,,,,,,,,,,,,,,,,,,,,,,,,,,,,,,,,,,,,,,,,,,,,,,,,,
KBUR,Burbank,,34.1808,-118.3089,2012-06-05 03:28:00,,SCT,10.0,,59,,,,55.0,,88,5.0,140.0,,29.1,,,,,,,,,,,,,,,,,,,,,,,,,,,,,,,,,,,,,,,,,,,,,,,,,,,,,,,,,,,,,,,,,,,,,
KBUR,Burbank,,34.1808,-118.3089,2012-06-05 03:38:00,,BKN,10.0,,59,,,,55.0,,88,3.0,150.0,,29.1,,,,,,,,,,,,,,,,,,,,,,,,,,,,,,,,,,,,,,,,,,,,,,,,,,,,,,,,,,,,,,,,,,,,,
KBUR,Burbank,,34.1808,-118.3089,2012-06-05 03:53:00,,BKN,10.0,,59,,,,55.0,,87,5.0,180.0,,29.07,,,,,,,,,,,,,,,,,,,,,,,,,,,,,,,,,,,,,,,,,,,,,,,,,,,,,,,,,,,,,,,,,,,,,
KBUR,Burbank,,34.1808,-118.3089,2012-06-05 04:53:00,,BKN,10.0,,59,,,,55.0,,87,3.0,190.0,,29.07,0.0,Steady,,,,61.0,59.0,,,,,,,,,,,,,,,,,,,,,,,,,,,,,,,,,,,,,,,,,,,,,,,,,,,,,,,,,,,,,,
KBUR,Burbank,,34.1808,-118.3089,2012-06-05 05:14:00,,FEW,10.0,,57,,,,54.0,,88,5.0,240.0,,29.1,,,,,,,,,,,,,,,,,,,,,,,,,,,,,,,,,,,,,,,,,,,,,,,,,,,,,,,,,,,,,,,,,,,,,
KBUR,Burbank,,34.1808,-118.3089,2012-06-05 05:53:00,,FEW,10.0,,58,,,,55.0,,90,,,,29.09,,,,,,,,,,,,,,,,,,,,,,,,,,,,,,,,,,,,,,,,,,,,,,,,,,,,,,,,,,,,,,,,,,,,,
KBUR,Burbank,,34.1808,-118.3089,2012-06-05 06:53:00,,CLR,10.0,,60,,,,47.0,,62,3.0,340.0,,29.09,,,,,,,,,,,,,,,,,,,,,,,,,,,,,,,,,,,,,,,,,,,,,,,,,,,,,,,,,,,,,,,,,,,,,
KBUR,Burbank,,34.1808,-118.3089,2012-06-05 07:53:00,,CLR,10.0,,62,,,,36.0,,38,12.0,330.0,,29.1,1.0,Rising,,,,,,,,,,,,,,,,,,,,,,,,,,,,,,,,,,,,,,,,,,,,,,,,,,,,,,,,,,,,,,,,,,,
KBUR,Burbank,,34.1808,-118.3089,2012-06-05 08:53:00,,CLR,10.0,,65,,,,35.0,,33,10.0,340.0,,29.11,,,,,,,,,,,,,,,,,,,,,,,,,,,,,,,,,,,,,,,,,,,,,,,,,,,,,,,,,,,,,,,,,,,,,
KBUR,Burbank,,34.1808,-118.3089,2012-06-05 09:53:00,,CLR,10.0,,66,,,,33.0,,29,10.0,290.0,,29.1,,,,,,,,,,,,,,,,,,,,,,,,,,,,,,,,,,,,,,,,,,,,,,,,,,,,,,,,,,,,,,,,,,,,,
KBUR,Burbank,,34.1808,-118.3089,2012-06-05 10:53:00,,CLR,10.0,,68,,,,,,26,12.0,280.0,18.0,29.1,2.0,Falling Rapidly,,,,68.0,58.0,,,,,,,,,,,,,,,,,,,,,,,,,,,,,,,,,,,,,,,,,,,,,,,,,,,,,,,,,,,,,,
KBUR,Burbank,,34.1808,-118.3089,2012-06-05 11:53:00,,CLR,10.0,,70,,,,31.0,,24,15.0,280.0,23.0,29.09,,,,,,,,,,,,,,,,,,,,,,,,,,,,,,,,,,,,,,,,,,,,,,,,,,,,,,,,,,,,,,,,,,,,,
KBUR,Burbank,,34.1808,-118.3089,2012-06-05 12:53:00,,CLR,10.0,,73,,,,26.0,,17,14.0,310.0,22.0,29.07,,,,,,,,,,,,,,,,,,,,,,,,,,,,,,,,,,,,,,,,,,,,,,,,,,,,,,,,,,,,,,,,,,,,,
KBUR,Burbank,,34.1808,-118.3089,2012-06-05 13:53:00,,CLR,10.0,,76,,,,26.0,,16,10.0,300.0,20.0,29.05,2.0,Falling Rapidly,,,,,,,,,,,,,,,,,,,,,,,,,,,,,,,,,,,,,,,,,,,,,,,,,,,,,,,,,,,,,,,,,,,
KBUR,Burbank,,34.1808,-118.3089,2012-06-05 14:25:00,,CLR,10.0,,72,,,,41.0,,33,15.0,200.0,18.0,29.09,,,,,,,,,,,,,,,,,,,,,,,,,,,,,,,,,,,,,,,,,,,,,,,,,,,,,,,,,,,,,,,,,,,,,
KBUR,Burbank,,34.1808,-118.3089,2012-06-05 14:53:00,,CLR,10.0,,73,,,,43.0,,34,12.0,190.0,,29.05,,,,,,,,,,,,,,,,,,,,,,,,,,,,,,,,,,,,,,,,,,,,,,,,,,,,,,,,,,,,,,,,,,,,,
KBUR,Burbank,,34.1808,-118.3089,2012-06-05 15:53:00,,CLR,10.0,,72,,,,43.0,,35,14.0,150.0,20.0,29.05,,,,,,,,,,,,,,,,,,,,,,,,,,,,,,,,,,,,,,,,,,,,,,,,,,,,,,,,,,,,,,,,,,,,,
KBUR,Burbank,,34.1808,-118.3089,2012-06-05 16:53:00,,CLR,10.0,,72,,,,43.0,,35,9.0,160.0,,29.04,2.0,Falling Rapidly,,,,76.0,68.0,,,,,,,,,,,,,,,,,,,,,,,,,,,,,,,,,,,,,,,,,,,,,,,,,,,,,,,,,,,,,,
KBUR,Burbank,,34.1808,-118.3089,2012-06-05 17:53:00,,CLR,10.0,,72,,,,40.0,,31,9.0,130.0,,29.02,,,,,,,,,,,,,,,,,,,,,,,,,,,,,,,,,,,,,,,,,,,,,,,,,,,,,,,,,,,,,,,,,,,,,
KBUR,Burbank,,34.1808,-118.3089,2012-06-05 18:53:00,,CLR,10.0,,72,,,,40.0,,31,9.0,120.0,,29.02,,,,,,,,,,,,,,,,,,,,,,,,,,,,,,,,,,,,,,,,,,,,,,,,,,,,,,,,,,,,,,,,,,,,,
KBUR,Burbank,,34.1808,-118.3089,2012-06-05 19:53:00,,CLR,10.0,,70,,,,40.0,,33,5.0,130.0,,29.03,0.0,Steady,,,,,,,,,,,,,,,,,,,,,,,,,,,,,,,,,,,,,,,,,,,,,,,,,,,,,,,,,,,,,,,,,,,
KBUR,Burbank,,34.1808,-118.3089,2012-06-05 20:53:00,,CLR,10.0,,69,,,,,,25,7.0,110.0,,29.03,,,,,,,,,,,,,,,,,,,,,,,,,,,,,,,,,,,,,,,,,,,,,,,,,,,,,,,,,,,,,,,,,,,,,
KBUR,Burbank,,34.1808,-118.3089,2012-06-05 21:53:00,,CLR,10.0,,67,,,,30.0,,25,5.0,340.0,,29.04,,,,,,,,,,,,,,,,,,,,,,,,,,,,,,,,,,,,,,,,,,,,,,,,,,,,,,,,,,,,,,,,,,,,,
KBUR,Burbank,,34.1808,-118.3089,2012-06-05 22:53:00,,CLR,10.0,,66,,,,29.0,,25,9.0,320.0,,29.05,1.0,Rising,,,,73.0,66.0,,,,,,,,,,,,,,,,,,,,,,,,,,,,,,,,,,,,,,,,,,,,,,,,,,,,,,,,,,,,,,
KBUR,Burbank,,34.1808,-118.3089,2012-06-05 23:53:00,,CLR,10.0,,63,,,,45.0,,52,6.0,80.0,,29.04,,,,,,,,,,,,,,,,,,,,,,,,,,,,,,,,,,,,,,,,,,,,,,,,,,,,,,,,,,,,,,,,,,,,,
KBUR,Burbank,,34.1808,-118.3089,2012-06-06 00:53:00,,CLR,10.0,,61,,,,48.0,,62,,,,29.04,,,,,,76.0,58.0,,,,,,,,,,,,,,,,,,,,,,,,,,,,,,,,,,,,,,,,,,,,,,,,,,,,,,,,,,,,,,
KBUR,Burbank,,34.1808,-118.3089,2012-06-06 01:53:00,,CLR,10.0,,60,,,,47.0,,62,,,,29.03,2.0,Falling Rapidly,,,,,,,,,,,,,,,,,,,,,,,,,,,,,,,,,,,,,,,,,,,,,,,,,,,,,,,,,,,,,,,,,,,
KBUR,Burbank,,34.1808,-118.3089,2012-06-06 02:53:00,,CLR,10.0,,58,,,,44.0,,60,,,,29.02,,,,,,,,,,,,,,,,,,,,,,,,,,,,,,,,,,,,,,,,,,,,,,,,,,,,,,,,,,,,,,,,,,,,,
KBUR,Burbank,,34.1808,-118.3089,2012-06-06 03:53:00,,CLR,10.0,,56,,,,42.0,,60,,,,29.02,,,,,,,,,,,,,,,,,,,,,,,,,,,,,,,,,,,,,,,,,,,,,,,,,,,,,,,,,,,,,,,,,,,,,
KBUR,Burbank,,34.1808,-118.3089,2012-06-06 04:53:00,,CLR,10.0,,56,,,,41.0,,57,,,,29.01,2.0,Falling,,,,66.0,55.0,,,,,,,,,,,,,,,,,,,,,,,,,,,,,,,,,,,,,,,,,,,,,,,,,,,,,,,,,,,,,,
KBUR,Burbank,,34.1808,-118.3089,2012-06-06 05:53:00,,CLR,10.0,,55,,,,43.0,,64,3.0,80.0,,29.01,,,,,,,,,,,,,,,,,,,,,,,,,,,,,,,,,,,,,,,,,,,,,,,,,,,,,,,,,,,,,,,,,,,,,
KBUR,Burbank,,34.1808,-118.3089,2012-06-06 06:53:00,,CLR,10.0,,58,,,,44.0,,60,,,,29.01,,,,,,,,,,,,,,,,,,,,,,,,,,,,,,,,,,,,,,,,,,,,,,,,,,,,,,,,,,,,,,,,,,,,,
KBUR,Burbank,,34.1808,-118.3089,2012-06-06 07:53:00,,CLR,10.0,,60,,,,48.0,,64,7.0,120.0,,29.0,2.0,Falling Rapidly,,,,,,,,,,,,,,,,,,,,,,,,,,,,,,,,,,,,,,,,,,,,,,,,,,,,,,,,,,,,,,,,,,,
KBUR,Burbank,,34.1808,-118.3089,2012-06-06 08:53:00,,CLR,10.0,,63,,,,50.0,,63,8.0,130.0,,29.01,,,,,,,,,,,,,,,,,,,,,,,,,,,,,,,,,,,,,,,,,,,,,,,,,,,,,,,,,,,,,,,,,,,,,
KBUR,Burbank,,34.1808,-118.3089,2012-06-06 09:53:00,,CLR,10.0,,66,,,,48.0,,52,3.0,,,29.01,,,,,,,,,,,,,,,,,,,,,,,,,,,,,,,,,,,,,,,,,,,,,,,,,,,,,,,,,,,,,,,,,,,,,
KBUR,Burbank,,34.1808,-118.3089,2012-06-06 10:53:00,,CLR,10.0,,69,,,,49.0,,49,7.0,160.0,,28.99,2.0,Falling Rapidly,,,,69.0,54.0,,,,,,,,,,,,,,,,,,,,,,,,,,,,,,,,,,,,,,,,,,,,,,,,,,,,,,,,,,,,,,
KBUR,Burbank,,34.1808,-118.3089,2012-06-06 11:53:00,,CLR,10.0,,73,,,,47.0,,39,7.0,,,28.97,,,,,,,,,,,,,,,,,,,,,,,,,,,,,,,,,,,,,,,,,,,,,,,,,,,,,,,,,,,,,,,,,,,,,
KBUR,Burbank,,34.1808,-118.3089,2012-06-06 12:53:00,,CLR,10.0,,76,,,,50.0,,40,13.0,170.0,,28.96,,,,,,,,,,,,,,,,,,,,,,,,,,,,,,,,,,,,,,,,,,,,,,,,,,,,,,,,,,,,,,,,,,,,,
KBUR,Burbank,,34.1808,-118.3089,2012-06-06 13:53:00,,CLR,10.0,,75,,,,50.0,,41,12.0,180.0,,28.98,,,,,,,,,,,,,,,,,,,,,,,,,,,,,,,,,,,,,,,,,,,,,,,,,,,,,,,,,,,,,,,,,,,,,
KBUR,Burbank,,34.1808,-118.3089,2012-06-06 14:53:00,,CLR,10.0,,78,,,,49.0,,36,8.0,150.0,18.0,28.93,,,,,,,,,,,,,,,,,,,,,,,,,,,,,,,,,,,,,,,,,,,,,,,,,,,,,,,,,,,,,,,,,,,,,
KBUR,Burbank,,34.1808,-118.3089,2012-06-06 15:53:00,,CLR,10.0,,78,,,,48.0,,35,12.0,180.0,,28.92,,,,,,,,,,,,,,,,,,,,,,,,,,,,,,,,,,,,,,,,,,,,,,,,,,,,,,,,,,,,,,,,,,,,,
KBUR,Burbank,,34.1808,-118.3089,2012-06-06 16:53:00,,CLR,10.0,,77,,,,48.0,,36,9.0,140.0,,28.92,2.0,Falling,,,,78.0,69.0,,,,,,,,,,,,,,,,,,,,,,,,,,,,,,,,,,,,,,,,,,,,,,,,,,,,,,,,,,,,,,
KBUR,Burbank,,34.1808,-118.3089,2012-06-06 17:53:00,,CLR,10.0,,78,,,,47.0,,33,10.0,120.0,,28.91,,,,,,,,,,,,,,,,,,,,,,,,,,,,,,,,,,,,,,,,,,,,,,,,,,,,,,,,,,,,,,,,,,,,,
KBUR,Burbank,,34.1808,-118.3089,2012-06-06 18:53:00,,CLR,10.0,,77,,,,46.0,,33,9.0,120.0,,28.92,,,,,,,,,,,,,,,,,,,,,,,,,,,,,,,,,,,,,,,,,,,,,,,,,,,,,,,,,,,,,,,,,,,,,
KBUR,Burbank,,34.1808,-118.3089,2012-06-06 19:53:00,,CLR,10.0,,73,,,,49.0,,42,8.0,120.0,,28.93,1.0,Rising Rapidly,,,,,,,,,,,,,,,,,,,,,,,,,,,,,,,,,,,,,,,,,,,,,,,,,,,,,,,,,,,,,,,,,,,
KBUR,Burbank,,34.1808,-118.3089,2012-06-06 20:53:00,,CLR,10.0,,70,,,,51.0,,51,8.0,130.0,,28.95,,,,,,,,,,,,,,,,,,,,,,,,,,,,,,,,,,,,,,,,,,,,,,,,,,,,,,,,,,,,,,,,,,,,,
KBUR,Burbank,,34.1808,-118.3089,2012-06-06 21:53:00,,CLR,10.0,,67,,,,51.0,,57,8.0,110.0,,28.96,,,,,,,,,,,,,,,,,,,,,,,,,,,,,,,,,,,,,,,,,,,,,,,,,,,,,,,,,,,,,,,,,,,,,
KBUR,Burbank,,34.1808,-118.3089,2012-06-06 22:53:00,,CLR,10.0,,65,,,,50.0,,58,6.0,120.0,,28.97,1.0,Rising,,,,79.0,65.0,,,,,,,,,,,,,,,,,,,,,,,,,,,,,,,,,,,,,,,,,,,,,,,,,,,,,,,,,,,,,,
KBUR,Burbank,,34.1808,-118.3089,2012-06-06 23:53:00,,CLR,10.0,,65,,,,49.0,,56,5.0,130.0,,28.97,,,,,,,,,,,,,,,,,,,,,,,,,,,,,,,,,,,,,,,,,,,,,,,,,,,,,,,,,,,,,,,,,,,,,
KBUR,Burbank,,34.1808,-118.3089,2012-06-07 00:53:00,,CLR,10.0,,64,,,,49.0,,58,3.0,90.0,,28.97,,,,,,79.0,54.0,,,,,,,,,,,,,,,,,,,,,,,,,,,,,,,,,,,,,,,,,,,,,,,,,,,,,,,,,,,,,,
KBUR,Burbank,,34.1808,-118.3089,2012-06-07 01:53:00,,CLR,10.0,,63,,,,49.0,,60,,,,28.96,2.0,Falling Rapidly,,,,,,,,,,,,,,,,,,,,,,,,,,,,,,,,,,,,,,,,,,,,,,,,,,,,,,,,,,,,,,,,,,,
KBUR,Burbank,,34.1808,-118.3089,2012-06-07 02:53:00,,CLR,10.0,,63,,,,49.0,,60,5.0,110.0,,28.96,,,,,,,,,,,,,,,,,,,,,,,,,,,,,,,,,,,,,,,,,,,,,,,,,,,,,,,,,,,,,,,,,,,,,
KBUR,Burbank,,34.1808,-118.3089,2012-06-07 03:53:00,,CLR,10.0,,61,,,,49.0,,64,3.0,90.0,,28.97,,,,,,,,,,,,,,,,,,,,,,,,,,,,,,,,,,,,,,,,,,,,,,,,,,,,,,,,,,,,,,,,,,,,,
KBUR,Burbank,,34.1808,-118.3089,2012-06-07 04:53:00,,CLR,10.0,,60,,,,50.0,,69,,,,28.97,1.0,Rising,,,,66.0,60.0,,,,,,,,,,,,,,,,,,,,,,,,,,,,,,,,,,,,,,,,,,,,,,,,,,,,,,,,,,,,,,
KBUR,Burbank,,34.1808,-118.3089,2012-06-07 05:53:00,,CLR,10.0,,58,,,,48.0,,70,,,,28.97,,,,,,,,,,,,,,,,,,,,,,,,,,,,,,,,,,,,,,,,,,,,,,,,,,,,,,,,,,,,,,,,,,,,,
KBUR,Burbank,,34.1808,-118.3089,2012-06-07 06:53:00,,CLR,10.0,,60,,,,50.0,,69,5.0,130.0,,28.99,,,,,,,,,,,,,,,,,,,,,,,,,,,,,,,,,,,,,,,,,,,,,,,,,,,,,,,,,,,,,,,,,,,,,
KBUR,Burbank,,34.1808,-118.3089,2012-06-07 07:53:00,,CLR,10.0,,63,,,,53.0,,70,,,,29.0,1.0,Rising Rapidly,,,,,,,,,,,,,,,,,,,,,,,,,,,,,,,,,,,,,,,,,,,,,,,,,,,,,,,,,,,,,,,,,,,
KBUR,Burbank,,34.1808,-118.3089,2012-06-07 08:53:00,,CLR,10.0,,67,,,,51.0,,57,,,,29.01,,,,,,,,,,,,,,,,,,,,,,,,,,,,,,,,,,,,,,,,,,,,,,,,,,,,,,,,,,,,,,,,,,,,,
KBUR,Burbank,,34.1808,-118.3089,2012-06-07 09:53:00,,CLR,10.0,,72,,,,48.0,,43,3.0,190.0,,29.01,,,,,,,,,,,,,,,,,,,,,,,,,,,,,,,,,,,,,,,,,,,,,,,,,,,,,,,,,,,,,,,,,,,,,
KBUR,Burbank,,34.1808,-118.3089,2012-06-07 10:53:00,,CLR,10.0,,75,,,,51.0,,43,,,,29.0,0.0,Steady,,,,76.0,58.0,,,,,,,,,,,,,,,,,,,,,,,,,,,,,,,,,,,,,,,,,,,,,,,,,,,,,,,,,,,,,,
KBUR,Burbank,,34.1808,-118.3089,2012-06-07 11:53:00,,CLR,10.0,,79,,,,51.0,,38,5.0,,,28.99,,,,,,,,,,,,,,,,,,,,,,,,,,,,,,,,,,,,,,,,,,,,,,,,,,,,,,,,,,,,,,,,,,,,,
KBUR,Burbank,,34.1808,-118.3089,2012-06-07 12:53:00,,CLR,10.0,,84,,,,51.0,,32,6.0,140.0,,28.98,,,,,,,,,,,,,,,,,,,,,,,,,,,,,,,,,,,,,,,,,,,,,,,,,,,,,,,,,,,,,,,,,,,,,
KBUR,Burbank,,34.1808,-118.3089,2012-06-07 13:53:00,,CLR,10.0,,82,,,,55.0,,39,8.0,190.0,,28.98,2.0,Falling,,,,,,,,,,,,,,,,,,,,,,,,,,,,,,,,,,,,,,,,,,,,,,,,,,,,,,,,,,,,,,,,,,,
KBUR,Burbank,,34.1808,-118.3089,2012-06-07 14:53:00,,CLR,10.0,,83,,,,55.0,,38,10.0,170.0,,28.97,,,,,,,,,,,,,,,,,,,,,,,,,,,,,,,,,,,,,,,,,,,,,,,,,,,,,,,,,,,,,,,,,,,,,
KBUR,Burbank,,34.1808,-118.3089,2012-06-07 15:53:00,,CLR,10.0,,84,,,,53.0,,34,10.0,170.0,22.0,28.96,,,,,,,,,,,,,,,,,,,,,,,,,,,,,,,,,,,,,,,,,,,,,,,,,,,,,,,,,,,,,,,,,,,,,
KBUR,Burbank,,34.1808,-118.3089,2012-06-07 16:53:00,,CLR,10.0,,81,,,,52.0,,36,10.0,180.0,,28.96,2.0,Falling,,,,84.0,75.0,,,,,,,,,,,,,,,,,,,,,,,,,,,,,,,,,,,,,,,,,,,,,,,,,,,,,,,,,,,,,,
KBUR,Burbank,,34.1808,-118.3089,2012-06-07 17:53:00,,CLR,10.0,,79,,,,52.0,,39,8.0,180.0,,28.96,,,,,,,,,,,,,,,,,,,,,,,,,,,,,,,,,,,,,,,,,,,,,,,,,,,,,,,,,,,,,,,,,,,,,
KBUR,Burbank,,34.1808,-118.3089,2012-06-07 18:53:00,,CLR,10.0,,77,,,,50.0,,39,9.0,120.0,,28.96,,,,,,,,,,,,,,,,,,,,,,,,,,,,,,,,,,,,,,,,,,,,,,,,,,,,,,,,,,,,,,,,,,,,,
KBUR,Burbank,,34.1808,-118.3089,2012-06-07 19:53:00,,CLR,10.0,,74,,,,49.0,,41,10.0,120.0,20.0,28.96,1.0,Rising Rapidly,,,,,,,,,,,,,,,,,,,,,,,,,,,,,,,,,,,,,,,,,,,,,,,,,,,,,,,,,,,,,,,,,,,
KBUR,Burbank,,34.1808,-118.3089,2012-06-07 20:53:00,,CLR,10.0,,70,,,,50.0,,49,9.0,130.0,,28.98,,,,,,,,,,,,,,,,,,,,,,,,,,,,,,,,,,,,,,,,,,,,,,,,,,,,,,,,,,,,,,,,,,,,,
KBUR,Burbank,,34.1808,-118.3089,2012-06-07 21:53:00,,CLR,10.0,,68,,,,49.0,,50,10.0,120.0,,29.0,,,,,,,,,,,,,,,,,,,,,,,,,,,,,,,,,,,,,,,,,,,,,,,,,,,,,,,,,,,,,,,,,,,,,
KBUR,Burbank,,34.1808,-118.3089,2012-06-07 22:53:00,,CLR,10.0,,65,,,,47.0,,52,7.0,130.0,,29.0,0.0,Steady,,,,82.0,65.0,,,,,,,,,,,,,,,,,,,,,,,,,,,,,,,,,,,,,,,,,,,,,,,,,,,,,,,,,,,,,,
KBUR,Burbank,,34.1808,-118.3089,2012-06-07 23:53:00,,CLR,10.0,,65,,,,48.0,,54,8.0,120.0,,28.99,,,,,,,,,,,,,,,,,,,,,,,,,,,,,,,,,,,,,,,,,,,,,,,,,,,,,,,,,,,,,,,,,,,,,
KBUR,Burbank,,34.1808,-118.3089,2012-06-08 00:53:00,,CLR,10.0,,63,,,,56.0,,78,7.0,130.0,,28.99,,,,,,84.0,58.0,,,,,,,,,,,,,,,,,,,,,,,,,,,,,,,,,,,,,,,,,,,,,,,,,,,,,,,,,,,,,,
KBUR,Burbank,,34.1808,-118.3089,2012-06-08 01:53:00,,CLR,10.0,,62,,,,56.0,,80,3.0,120.0,,28.99,2.0,Falling,,,,,,,,,,,,,,,,,,,,,,,,,,,,,,,,,,,,,,,,,,,,,,,,,,,,,,,,,,,,,,,,,,,
KBUR,Burbank,,34.1808,-118.3089,2012-06-08 02:53:00,,CLR,10.0,,61,,,,54.0,,78,3.0,60.0,,28.98,,,,,,,,,,,,,,,,,,,,,,,,,,,,,,,,,,,,,,,,,,,,,,,,,,,,,,,,,,,,,,,,,,,,,
KBUR,Burbank,,34.1808,-118.3089,2012-06-08 03:53:00,,CLR,10.0,,62,,,,51.0,,67,3.0,90.0,,28.98,,,,,,,,,,,,,,,,,,,,,,,,,,,,,,,,,,,,,,,,,,,,,,,,,,,,,,,,,,,,,,,,,,,,,
KBUR,Burbank,,34.1808,-118.3089,2012-06-08 04:53:00,,CLR,10.0,,61,,,,51.0,,70,,,,28.98,0.0,Steady,,,,66.0,61.0,,,,,,,,,,,,,,,,,,,,,,,,,,,,,,,,,,,,,,,,,,,,,,,,,,,,,,,,,,,,,,
KBUR,Burbank,,34.1808,-118.3089,2012-06-08 05:53:00,,CLR,10.0,,60,,,,50.0,,69,,,,28.99,,,,,,,,,,,,,,,,,,,,,,,,,,,,,,,,,,,,,,,,,,,,,,,,,,,,,,,,,,,,,,,,,,,,,
KBUR,Burbank,,34.1808,-118.3089,2012-06-08 06:53:00,,CLR,10.0,,61,,,,52.0,,72,,,,29.0,,,,,,,,,,,,,,,,,,,,,,,,,,,,,,,,,,,,,,,,,,,,,,,,,,,,,,,,,,,,,,,,,,,,,
KBUR,Burbank,,34.1808,-118.3089,2012-06-08 07:53:00,,CLR,10.0,,62,,,,54.0,,75,,,,29.01,1.0,Rising,,,,,,,,,,,,,,,,,,,,,,,,,,,,,,,,,,,,,,,,,,,,,,,,,,,,,,,,,,,,,,,,,,,
KBUR,Burbank,,34.1808,-118.3089,2012-06-08 08:53:00,,CLR,10.0,,65,,,,54.0,,68,3.0,150.0,,29.01,,,,,,,,,,,,,,,,,,,,,,,,,,,,,,,,,,,,,,,,,,,,,,,,,,,,,,,,,,,,,,,,,,,,,
KBUR,Burbank,,34.1808,-118.3089,2012-06-08 09:53:00,,CLR,10.0,,70,,,,55.0,,59,5.0,140.0,,29.01,,,,,,,,,,,,,,,,,,,,,,,,,,,,,,,,,,,,,,,,,,,,,,,,,,,,,,,,,,,,,,,,,,,,,
KBUR,Burbank,,34.1808,-118.3089,2012-06-08 10:53:00,,CLR,10.0,,73,,,,56.0,,55,5.0,,,29.01,1.0,Rising,,,,73.0,59.0,,,,,,,,,,,,,,,,,,,,,,,,,,,,,,,,,,,,,,,,,,,,,,,,,,,,,,,,,,,,,,
KBUR,Burbank,,34.1808,-118.3089,2012-06-08 11:53:00,,CLR,10.0,,75,,,,54.0,,48,7.0,140.0,16.0,29.0,,,,,,,,,,,,,,,,,,,,,,,,,,,,,,,,,,,,,,,,,,,,,,,,,,,,,,,,,,,,,,,,,,,,,
KBUR,Burbank,,34.1808,-118.3089,2012-06-08 12:53:00,,CLR,10.0,,76,,,,56.0,,50,12.0,180.0,,28.99,,,,,,,,,,,,,,,,,,,,,,,,,,,,,,,,,,,,,,,,,,,,,,,,,,,,,,,,,,,,,,,,,,,,,
KBUR,Burbank,,34.1808,-118.3089,2012-06-08 13:53:00,,CLR,10.0,,76,,,,56.0,,50,14.0,180.0,,28.99,2.0,Falling,,,,,,,,,,,,,,,,,,,,,,,,,,,,,,,,,,,,,,,,,,,,,,,,,,,,,,,,,,,,,,,,,,,
KBUR,Burbank,,34.1808,-118.3089,2012-06-08 14:53:00,,CLR,10.0,,74,,,,56.0,,53,12.0,180.0,,28.99,,,,,,,,,,,,,,,,,,,,,,,,,,,,,,,,,,,,,,,,,,,,,,,,,,,,,,,,,,,,,,,,,,,,,
KBUR,Burbank,,34.1808,-118.3089,2012-06-08 15:53:00,,CLR,10.0,,75,,,,55.0,,50,10.0,180.0,,28.98,,,,,,,,,,,,,,,,,,,,,,,,,,,,,,,,,,,,,,,,,,,,,,,,,,,,,,,,,,,,,,,,,,,,,
KBUR,Burbank,,34.1808,-118.3089,2012-06-08 16:53:00,,CLR,10.0,,74,,,,55.0,,52,12.0,180.0,,28.96,2.0,Falling Rapidly,,,,77.0,72.0,,,,,,,,,,,,,,,,,,,,,,,,,,,,,,,,,,,,,,,,,,,,,,,,,,,,,,,,,,,,,,
KBUR,Burbank,,34.1808,-118.3089,2012-06-08 17:53:00,,CLR,10.0,,72,,,,54.0,,53,10.0,180.0,,28.96,,,,,,,,,,,,,,,,,,,,,,,,,,,,,,,,,,,,,,,,,,,,,,,,,,,,,,,,,,,,,,,,,,,,,
KBUR,Burbank,,34.1808,-118.3089,2012-06-08 18:53:00,,CLR,10.0,,70,,,,55.0,,59,9.0,180.0,,28.96,,,,,,,,,,,,,,,,,,,,,,,,,,,,,,,,,,,,,,,,,,,,,,,,,,,,,,,,,,,,,,,,,,,,,
KBUR,Burbank,,34.1808,-118.3089,2012-06-08 19:53:00,,CLR,10.0,,67,,,,55.0,,66,8.0,180.0,,28.96,0.0,Steady,,,,,,,,,,,,,,,,,,,,,,,,,,,,,,,,,,,,,,,,,,,,,,,,,,,,,,,,,,,,,,,,,,,
KBUR,Burbank,,34.1808,-118.3089,2012-06-08 20:53:00,,CLR,10.0,,65,,,,55.0,,70,6.0,160.0,,28.97,,,,,,,,,,,,,,,,,,,,,,,,,,,,,,,,,,,,,,,,,,,,,,,,,,,,,,,,,,,,,,,,,,,,,
KBUR,Burbank,,34.1808,-118.3089,2012-06-08 21:53:00,,CLR,10.0,,64,,,,54.0,,70,8.0,140.0,,28.98,,,,,,,,,,,,,,,,,,,,,,,,,,,,,,,,,,,,,,,,,,,,,,,,,,,,,,,,,,,,,,,,,,,,,
KBUR,Burbank,,34.1808,-118.3089,2012-06-08 22:53:00,,CLR,10.0,,62,,,,56.0,,80,5.0,170.0,,28.98,1.0,Rising,,,,74.0,62.0,,,,,,,,,,,,,,,,,,,,,,,,,,,,,,,,,,,,,,,,,,,,,,,,,,,,,,,,,,,,,,
KBUR,Burbank,,34.1808,-118.3089,2012-06-08 23:53:00,,FEW,10.0,,62,,,,56.0,,80,8.0,130.0,,28.98,,,,,,,,,,,,,,,,,,,,,,,,,,,,,,,,,,,,,,,,,,,,,,,,,,,,,,,,,,,,,,,,,,,,,
KBUR,Burbank,,34.1808,-118.3089,2012-06-09 00:12:00,,BKN,9.0,,61,,,,55.0,,82,9.0,130.0,,29.01,,,,,,,,,,,,,,,,,,,,,,,,,,,,,,,,,,,,,,,,,,,,,,,,,,,,,,,,,,,,,,,,,,,,,
KBUR,Burbank,,34.1808,-118.3089,2012-06-09 00:53:00,,OVC,6.0,,61,,,,56.0,,83,5.0,150.0,,28.97,,,,,,77.0,59.0,,,,,,,,,,,,,,,,,,,,,,,,,,,,,,,,,,,,,,,,,,,,,,,,,,,,,,,,,,,,,,
KBUR,Burbank,,34.1808,-118.3089,2012-06-09 01:53:00,,OVC,7.0,,60,,,,56.0,,86,3.0,170.0,,28.97,2.0,Falling Rapidly,,,,,,,,,,,,,,,,,,,,,,,,,,,,,,,,,,,,,,,,,,,,,,,,,,,,,,,,,,,,,,,,,,,
KBUR,Burbank,,34.1808,-118.3089,2012-06-09 02:53:00,,OVC,8.0,,60,,,,55.0,,83,3.0,180.0,,28.96,,,,,,,,,,,,,,,,,,,,,,,,,,,,,,,,,,,,,,,,,,,,,,,,,,,,,,,,,,,,,,,,,,,,,
KBUR,Burbank,,34.1808,-118.3089,2012-06-09 03:44:00,,OVC,8.0,,61,,,,55.0,,82,6.0,170.0,,28.99,,,,,,,,,,,,,,,,,,,,,,,,,,,,,,,,,,,,,,,,,,,,,,,,,,,,,,,,,,,,,,,,,,,,,
KBUR,Burbank,,34.1808,-118.3089,2012-06-09 03:53:00,,OVC,8.0,,61,,,,55.0,,81,5.0,180.0,,28.96,,,,,,,,,,,,,,,,,,,,,,,,,,,,,,,,,,,,,,,,,,,,,,,,,,,,,,,,,,,,,,,,,,,,,
KBUR,Burbank,,34.1808,-118.3089,2012-06-09 04:53:00,,OVC,9.0,,60,,,,55.0,,83,6.0,180.0,,28.96,2.0,Falling,,,,62.0,60.0,,,,,,,,,,,,,,,,,,,,,,,,,,,,,,,,,,,,,,,,,,,,,,,,,,,,,,,,,,,,,,
KBUR,Burbank,,34.1808,-118.3089,2012-06-09 05:53:00,,OVC,10.0,,60,,,,54.0,,80,3.0,180.0,,28.97,,,,,,,,,,,,,,,,,,,,,,,,,,,,,,,,,,,,,,,,,,,,,,,,,,,,,,,,,,,,,,,,,,,,,
KBUR,Burbank,,34.1808,-118.3089,2012-06-09 06:53:00,,OVC,10.0,,61,,,,54.0,,78,5.0,180.0,,28.98,,,,,,,,,,,,,,,,,,,,,,,,,,,,,,,,,,,,,,,,,,,,,,,,,,,,,,,,,,,,,,,,,,,,,
KBUR,Burbank,,34.1808,-118.3089,2012-06-09 07:53:00,,OVC,10.0,,61,,,,53.0,,75,3.0,210.0,,28.99,1.0,Rising Rapidly,,,,,,,,,,,,,,,,,,,,,,,,,,,,,,,,,,,,,,,,,,,,,,,,,,,,,,,,,,,,,,,,,,,
KBUR,Burbank,,34.1808,-118.3089,2012-06-09 08:44:00,,SCT,10.0,,63,,,,54.0,,72,,,,29.02,,,,,,,,,,,,,,,,,,,,,,,,,,,,,,,,,,,,,,,,,,,,,,,,,,,,,,,,,,,,,,,,,,,,,
KBUR,Burbank,,34.1808,-118.3089,2012-06-09 08:53:00,,FEW,10.0,,63,,,,53.0,,70,3.0,,,28.99,,,,,,,,,,,,,,,,,,,,,,,,,,,,,,,,,,,,,,,,,,,,,,,,,,,,,,,,,,,,,,,,,,,,,
KBUR,Burbank,,34.1808,-118.3089,2012-06-09 09:53:00,,SCT,10.0,,66,,,,53.0,,63,8.0,110.0,,28.99,,,,,,,,,,,,,,,,,,,,,,,,,,,,,,,,,,,,,,,,,,,,,,,,,,,,,,,,,,,,,,,,,,,,,
KBUR,Burbank,,34.1808,-118.3089,2012-06-09 10:53:00,,SCT,10.0,,68,,,,54.0,,61,7.0,150.0,,28.99,0.0,Steady,,,,68.0,60.0,,,,,,,,,,,,,,,,,,,,,,,,,,,,,,,,,,,,,,,,,,,,,,,,,,,,,,,,,,,,,,
KBUR,Burbank,,34.1808,-118.3089,2012-06-09 11:53:00,,FEW,10.0,,69,,,,53.0,,57,9.0,130.0,20.0,28.99,,,,,,,,,,,,,,,,,,,,,,,,,,,,,,,,,,,,,,,,,,,,,,,,,,,,,,,,,,,,,,,,,,,,,
KBUR,Burbank,,34.1808,-118.3089,2012-06-09 12:53:00,,CLR,10.0,,71,,,,54.0,,55,13.0,190.0,16.0,28.97,,,,,,,,,,,,,,,,,,,,,,,,,,,,,,,,,,,,,,,,,,,,,,,,,,,,,,,,,,,,,,,,,,,,,
KBUR,Burbank,,34.1808,-118.3089,2012-06-09 13:53:00,,CLR,10.0,,72,,,,54.0,,53,10.0,190.0,,28.96,2.0,Falling Rapidly,,,,,,,,,,,,,,,,,,,,,,,,,,,,,,,,,,,,,,,,,,,,,,,,,,,,,,,,,,,,,,,,,,,
KBUR,Burbank,,34.1808,-118.3089,2012-06-09 14:53:00,,CLR,10.0,,72,,,,54.0,,53,12.0,190.0,17.0,28.95,,,,,,,,,,,,,,,,,,,,,,,,,,,,,,,,,,,,,,,,,,,,,,,,,,,,,,,,,,,,,,,,,,,,,
KBUR,Burbank,,34.1808,-118.3089,2012-06-09 15:53:00,,CLR,10.0,,72,,,,54.0,,53,12.0,160.0,,28.93,,,,,,,,,,,,,,,,,,,,,,,,,,,,,,,,,,,,,,,,,,,,,,,,,,,,,,,,,,,,,,,,,,,,,
KBUR,Burbank,,34.1808,-118.3089,2012-06-09 16:53:00,,CLR,10.0,,71,,,,54.0,,55,12.0,190.0,,28.93,2.0,Falling,,,,73.0,67.0,,,,,,,,,,,,,,,,,,,,,,,,,,,,,,,,,,,,,,,,,,,,,,,,,,,,,,,,,,,,,,
KBUR,Burbank,,34.1808,-118.3089,2012-06-09 17:53:00,,CLR,10.0,,69,,,,54.0,,58,10.0,180.0,,28.92,,,,,,,,,,,,,,,,,,,,,,,,,,,,,,,,,,,,,,,,,,,,,,,,,,,,,,,,,,,,,,,,,,,,,
KBUR,Burbank,,34.1808,-118.3089,2012-06-09 18:53:00,,CLR,10.0,,67,,,,53.0,,61,10.0,180.0,,28.93,,,,,,,,,,,,,,,,,,,,,,,,,,,,,,,,,,,,,,,,,,,,,,,,,,,,,,,,,,,,,,,,,,,,,
KBUR,Burbank,,34.1808,-118.3089,2012-06-09 19:53:00,,CLR,10.0,,64,,,,54.0,,70,8.0,190.0,,28.94,1.0,Rising Rapidly,,,,,,,,,,,,,,,,,,,,,,,,,,,,,,,,,,,,,,,,,,,,,,,,,,,,,,,,,,,,,,,,,,,
KBUR,Burbank,,34.1808,-118.3089,2012-06-09 20:53:00,,CLR,10.0,,62,,,,54.0,,75,6.0,180.0,,28.95,,,,,,,,,,,,,,,,,,,,,,,,,,,,,,,,,,,,,,,,,,,,,,,,,,,,,,,,,,,,,,,,,,,,,
KBUR,Burbank,,34.1808,-118.3089,2012-06-09 21:53:00,,CLR,10.0,,61,,,,54.0,,78,5.0,180.0,,28.96,,,,,,,,,,,,,,,,,,,,,,,,,,,,,,,,,,,,,,,,,,,,,,,,,,,,,,,,,,,,,,,,,,,,,
KBUR,Burbank,,34.1808,-118.3089,2012-06-09 22:53:00,,CLR,10.0,,60,,,,55.0,,83,5.0,170.0,,28.97,1.0,Rising Rapidly,,,,71.0,60.0,,,,,,,,,,,,,,,,,,,,,,,,,,,,,,,,,,,,,,,,,,,,,,,,,,,,,,,,,,,,,,
KBUR,Burbank,,34.1808,-118.3089,2012-06-09 23:53:00,,BKN,10.0,,60,,,,55.0,,83,6.0,180.0,,28.98,,,,,,,,,,,,,,,,,,,,,,,,,,,,,,,,,,,,,,,,,,,,,,,,,,,,,,,,,,,,,,,,,,,,,
KBUR,Burbank,,34.1808,-118.3089,2012-06-10 00:53:00,,OVC,9.0,,60,,,,54.0,,80,6.0,170.0,,28.98,,,,,,73.0,59.0,,,,,,,,,,,,,,,,,,,,,,,,,,,,,,,,,,,,,,,,,,,,,,,,,,,,,,,,,,,,,,
KBUR,Burbank,,34.1808,-118.3089,2012-06-10 01:53:00,,OVC,9.0,,60,,,,54.0,,80,5.0,180.0,,28.97,0.0,Steady,,,,,,,,,,,,,,,,,,,,,,,,,,,,,,,,,,,,,,,,,,,,,,,,,,,,,,,,,,,,,,,,,,,
KBUR,Burbank,,34.1808,-118.3089,2012-06-10 02:26:00,,OVC,9.0,,61,,,,54.0,,77,3.0,190.0,,29.0,,,,,,,,,,,,,,,,,,,,,,,,,,,,,,,,,,,,,,,,,,,,,,,,,,,,,,,,,,,,,,,,,,,,,
KBUR,Burbank,,34.1808,-118.3089,2012-06-10 02:53:00,,OVC,9.0,,60,,,,54.0,,80,3.0,180.0,,28.97,,,,,,,,,,,,,,,,,,,,,,,,,,,,,,,,,,,,,,,,,,,,,,,,,,,,,,,,,,,,,,,,,,,,,
KBUR,Burbank,,34.1808,-118.3089,2012-06-10 03:53:00,,OVC,9.0,,60,,,,54.0,,80,,,,28.97,,,,,,,,,,,,,,,,,,,,,,,,,,,,,,,,,,,,,,,,,,,,,,,,,,,,,,,,,,,,,,,,,,,,,
KBUR,Burbank,,34.1808,-118.3089,2012-06-10 04:53:00,,OVC,9.0,,60,,,,53.0,,78,3.0,200.0,,28.97,2.0,Falling Rapidly,,,,60.0,59.0,,,,,,,,,,,,,,,,,,,,,,,,,,,,,,,,,,,,,,,,,,,,,,,,,,,,,,,,,,,,,,
KBUR,Burbank,,34.1808,-118.3089,2012-06-10 05:53:00,,OVC,8.0,,60,,,,53.0,,78,3.0,140.0,,28.98,,,,,,,,,,,,,,,,,,,,,,,,,,,,,,,,,,,,,,,,,,,,,,,,,,,,,,,,,,,,,,,,,,,,,
KBUR,Burbank,,34.1808,-118.3089,2012-06-10 06:53:00,,BKN,7.0,,60,,,,53.0,,78,3.0,170.0,,28.99,,,,,,,,,,,,,,,,,,,,,,,,,,,,,,,,,,,,,,,,,,,,,,,,,,,,,,,,,,,,,,,,,,,,,
KBUR,Burbank,,34.1808,-118.3089,2012-06-10 07:53:00,,OVC,7.0,,60,,,,53.0,,78,8.0,160.0,,29.01,1.0,Rising Rapidly,,,,,,,,,,,,,,,,,,,,,,,,,,,,,,,,,,,,,,,,,,,,,,,,,,,,,,,,,,,,,,,,,,,
KBUR,Burbank,,34.1808,-118.3089,2012-06-10 08:53:00,,BKN,69.0,,61,,,,53.0,,75,6.0,,,29.04,,,,,,,,,,,,,,,,,,,,,,,,,,,,,,,,,,,,,,,,,,,,,,,,,,,,,,,,,,,,,,,,,,,,,
KBUR,Burbank,,34.1808,-118.3089,2012-06-10 09:53:00,,SCT,6.0,,64,,,,53.0,,67,5.0,120.0,,29.05,,,,,,,,,,,,,,,,,,,,,,,,,,,,,,,,,,,,,,,,,,,,,,,,,,,,,,,,,,,,,,,,,,,,,
KBUR,Burbank,,34.1808,-118.3089,2012-06-10 10:53:00,,CLR,10.0,,66,,,,53.0,,63,7.0,170.0,,29.05,1.0,Rising,,,,67.0,59.0,,,,,,,,,,,,,,,,,,,,,,,,,,,,,,,,,,,,,,,,,,,,,,,,,,,,,,,,,,,,,,
KBUR,Burbank,,34.1808,-118.3089,2012-06-10 11:53:00,,CLR,10.0,,70,,,,53.0,,55,6.0,180.0,,29.05,,,,,,,,,,,,,,,,,,,,,,,,,,,,,,,,,,,,,,,,,,,,,,,,,,,,,,,,,,,,,,,,,,,,,
KBUR,Burbank,,34.1808,-118.3089,2012-06-10 12:53:00,,CLR,10.0,,72,,,,53.0,,51,8.0,140.0,,29.04,,,,,,,,,,,,,,,,,,,,,,,,,,,,,,,,,,,,,,,,,,,,,,,,,,,,,,,,,,,,,,,,,,,,,
KBUR,Burbank,,34.1808,-118.3089,2012-06-10 13:53:00,,CLR,10.0,,74,,,,54.0,,50,9.0,200.0,,29.01,2.0,Falling Rapidly,,,,,,,,,,,,,,,,,,,,,,,,,,,,,,,,,,,,,,,,,,,,,,,,,,,,,,,,,,,,,,,,,,,
KBUR,Burbank,,34.1808,-118.3089,2012-06-10 14:53:00,,CLR,10.0,,77,,,,55.0,,46,8.0,170.0,,29.0,,,,,,,,,,,,,,,,,,,,,,,,,,,,,,,,,,,,,,,,,,,,,,,,,,,,,,,,,,,,,,,,,,,,,
KBUR,Burbank,,34.1808,-118.3089,2012-06-10 15:53:00,,CLR,10.0,,76,,,,55.0,,48,9.0,170.0,,28.99,,,,,,,,,,,,,,,,,,,,,,,,,,,,,,,,,,,,,,,,,,,,,,,,,,,,,,,,,,,,,,,,,,,,,
KBUR,Burbank,,34.1808,-118.3089,2012-06-10 16:53:00,,CLR,10.0,,75,,,,54.0,,48,12.0,170.0,,28.99,2.0,Falling,,,,78.0,66.0,,,,,,,,,,,,,,,,,,,,,,,,,,,,,,,,,,,,,,,,,,,,,,,,,,,,,,,,,,,,,,
KBUR,Burbank,,34.1808,-118.3089,2012-06-10 17:53:00,,CLR,10.0,,71,,,,54.0,,55,13.0,180.0,,28.99,,,,,,,,,,,,,,,,,,,,,,,,,,,,,,,,,,,,,,,,,,,,,,,,,,,,,,,,,,,,,,,,,,,,,
KBUR,Burbank,,34.1808,-118.3089,2012-06-10 18:53:00,,CLR,10.0,,68,,,,54.0,,61,10.0,170.0,,29.0,,,,,,,,,,,,,,,,,,,,,,,,,,,,,,,,,,,,,,,,,,,,,,,,,,,,,,,,,,,,,,,,,,,,,
KBUR,Burbank,,34.1808,-118.3089,2012-06-10 19:53:00,,CLR,10.0,,65,,,,54.0,,68,10.0,160.0,,29.03,1.0,Rising Rapidly,,,,,,,,,,,,,,,,,,,,,,,,,,,,,,,,,,,,,,,,,,,,,,,,,,,,,,,,,,,,,,,,,,,
KBUR,Burbank,,34.1808,-118.3089,2012-06-10 20:53:00,,CLR,10.0,,62,,,,55.0,,78,8.0,180.0,,29.05,,,,,,,,,,,,,,,,,,,,,,,,,,,,,,,,,,,,,,,,,,,,,,,,,,,,,,,,,,,,,,,,,,,,,
KBUR,Burbank,,34.1808,-118.3089,2012-06-10 21:53:00,,CLR,10.0,,61,,,,55.0,,81,7.0,180.0,,29.08,,,,,,,,,,,,,,,,,,,,,,,,,,,,,,,,,,,,,,,,,,,,,,,,,,,,,,,,,,,,,,,,,,,,,
KBUR,Burbank,,34.1808,-118.3089,2012-06-10 22:53:00,,CLR,10.0,,60,,,,55.0,,83,6.0,180.0,,29.08,1.0,Rising,,,,75.0,60.0,,,,,,,,,,,,,,,,,,,,,,,,,,,,,,,,,,,,,,,,,,,,,,,,,,,,,,,,,,,,,,
KBUR,Burbank,,34.1808,-118.3089,2012-06-10 23:53:00,,CLR,10.0,,60,,,,55.0,,83,3.0,180.0,,29.07,,,,,,,,,,,,,,,,,,,,,,,,,,,,,,,,,,,,,,,,,,,,,,,,,,,,,,,,,,,,,,,,,,,,,
KBUR,Burbank,,34.1808,-118.3089,2012-06-11 00:53:00,,BKN,10.0,,60,,,,55.0,,83,3.0,180.0,,29.07,,,,,,78.0,59.0,,,,,,,,,,,,,,,,,,,,,,,,,,,,,,,,,,,,,,,,,,,,,,,,,,,,,,,,,,,,,,
KBUR,Burbank,,34.1808,-118.3089,2012-06-11 01:53:00,,OVC,10.0,,60,,,,55.0,,83,,,,29.05,2.0,Falling Rapidly,,,,,,,,,,,,,,,,,,,,,,,,,,,,,,,,,,,,,,,,,,,,,,,,,,,,,,,,,,,,,,,,,,,
KBUR,Burbank,,34.1808,-118.3089,2012-06-11 02:53:00,,OVC,10.0,,60,,,,55.0,,83,,,,29.05,,,,,,,,,,,,,,,,,,,,,,,,,,,,,,,,,,,,,,,,,,,,,,,,,,,,,,,,,,,,,,,,,,,,,
KBUR,Burbank,,34.1808,-118.3089,2012-06-11 03:53:00,,OVC,10.0,,60,,,,54.0,,80,3.0,,,29.05,,,,,,,,,,,,,,,,,,,,,,,,,,,,,,,,,,,,,,,,,,,,,,,,,,,,,,,,,,,,,,,,,,,,,
KBUR,Burbank,,34.1808,-118.3089,2012-06-11 04:53:00,,OVC,8.0,,59,,,,54.0,,83,7.0,10.0,,29.05,2.0,Falling,,,,60.0,59.0,,,,,,,,,,,,,,,,,,,,,,,,,,,,,,,,,,,,,,,,,,,,,,,,,,,,,,,,,,,,,,
KBUR,Burbank,,34.1808,-118.3089,2012-06-11 05:53:00,,OVC,6.0,,58,,,,54.0,,87,5.0,330.0,,29.05,,,,,,,,,,,,,,,,,,,,,,,,,,,,,,,,,,,,,,,,,,,,,,,,,,,,,,,,,,,,,,,,,,,,,
KBUR,Burbank,,34.1808,-118.3089,2012-06-11 06:53:00,,OVC,4.0,,59,,,,54.0,,83,,,,29.08,,,,,,,,,,,,,,,,,,,,,,,,,,,,,,,,,,,,,,,,,,,,,,,,,,,,,,,,,,,,,,,,,,,,,
KBUR,Burbank,,34.1808,-118.3089,2012-06-11 07:53:00,,OVC,5.0,,60,,,,55.0,,83,,,,29.09,1.0,Rising Rapidly,,,,,,,,,,,,,,,,,,,,,,,,,,,,,,,,,,,,,,,,,,,,,,,,,,,,,,,,,,,,,,,,,,,
KBUR,Burbank,,34.1808,-118.3089,2012-06-11 08:53:00,,BKN,6.0,,63,,,,55.0,,75,,,,29.11,,,,,,,,,,,,,,,,,,,,,,,,,,,,,,,,,,,,,,,,,,,,,,,,,,,,,,,,,,,,,,,,,,,,,
KBUR,Burbank,,34.1808,-118.3089,2012-06-11 09:53:00,,FEW,6.0,,65,,,,55.0,,70,5.0,150.0,,29.11,,,,,,,,,,,,,,,,,,,,,,,,,,,,,,,,,,,,,,,,,,,,,,,,,,,,,,,,,,,,,,,,,,,,,
KBUR,Burbank,,34.1808,-118.3089,2012-06-11 10:53:00,,CLR,9.0,,70,,,,56.0,,61,5.0,,,29.11,0.0,Steady,,,,70.0,58.0,,,,,,,,,,,,,,,,,,,,,,,,,,,,,,,,,,,,,,,,,,,,,,,,,,,,,,,,,,,,,,
KBUR,Burbank,,34.1808,-118.3089,2012-06-11 11:53:00,,CLR,10.0,,73,,,,56.0,,55,,,,29.09,,,,,,,,,,,,,,,,,,,,,,,,,,,,,,,,,,,,,,,,,,,,,,,,,,,,,,,,,,,,,,,,,,,,,
KBUR,Burbank,,34.1808,-118.3089,2012-06-11 12:53:00,,CLR,10.0,,75,,,,56.0,,51,9.0,170.0,,29.09,,,,,,,,,,,,,,,,,,,,,,,,,,,,,,,,,,,,,,,,,,,,,,,,,,,,,,,,,,,,,,,,,,,,,
KBUR,Burbank,,34.1808,-118.3089,2012-06-11 13:53:00,,CLR,9.0,,78,,,,57.0,,48,7.0,150.0,,29.08,2.0,Falling Rapidly,,,,,,,,,,,,,,,,,,,,,,,,,,,,,,,,,,,,,,,,,,,,,,,,,,,,,,,,,,,,,,,,,,,
KBUR,Burbank,,34.1808,-118.3089,2012-06-11 14:53:00,,CLR,10.0,,77,,,,57.0,,50,8.0,180.0,,29.07,,,,,,,,,,,,,,,,,,,,,,,,,,,,,,,,,,,,,,,,,,,,,,,,,,,,,,,,,,,,,,,,,,,,,
KBUR,Burbank,,34.1808,-118.3089,2012-06-11 15:53:00,,CLR,10.0,,77,,,,57.0,,50,10.0,170.0,,29.06,,,,,,,,,,,,,,,,,,,,,,,,,,,,,,,,,,,,,,,,,,,,,,,,,,,,,,,,,,,,,,,,,,,,,
KBUR,Burbank,,34.1808,-118.3089,2012-06-11 16:53:00,,CLR,10.0,,75,,,,57.0,,53,12.0,190.0,,29.05,2.0,Falling Rapidly,,,,79.0,70.0,,,,,,,,,,,,,,,,,,,,,,,,,,,,,,,,,,,,,,,,,,,,,,,,,,,,,,,,,,,,,,
KBUR,Burbank,,34.1808,-118.3089,2012-06-11 17:53:00,,CLR,10.0,,72,,,,57.0,,59,13.0,170.0,,29.05,,,,,,,,,,,,,,,,,,,,,,,,,,,,,,,,,,,,,,,,,,,,,,,,,,,,,,,,,,,,,,,,,,,,,
KBUR,Burbank,,34.1808,-118.3089,2012-06-11 18:53:00,,CLR,10.0,,68,,,,56.0,,65,9.0,170.0,,29.06,,,,,,,,,,,,,,,,,,,,,,,,,,,,,,,,,,,,,,,,,,,,,,,,,,,,,,,,,,,,,,,,,,,,,
KBUR,Burbank,,34.1808,-118.3089,2012-06-11 19:53:00,,CLR,10.0,,65,,,,56.0,,73,7.0,170.0,,29.07,1.0,Rising Rapidly,,,,,,,,,,,,,,,,,,,,,,,,,,,,,,,,,,,,,,,,,,,,,,,,,,,,,,,,,,,,,,,,,,,
KBUR,Burbank,,34.1808,-118.3089,2012-06-11 20:53:00,,CLR,10.0,,62,,,,56.0,,80,8.0,170.0,,29.09,,,,,,,,,,,,,,,,,,,,,,,,,,,,,,,,,,,,,,,,,,,,,,,,,,,,,,,,,,,,,,,,,,,,,
KBUR,Burbank,,34.1808,-118.3089,2012-06-11 21:53:00,,CLR,10.0,,60,,,,56.0,,86,6.0,170.0,,29.13,,,,,,,,,,,,,,,,,,,,,,,,,,,,,,,,,,,,,,,,,,,,,,,,,,,,,,,,,,,,,,,,,,,,,
KBUR,Burbank,,34.1808,-118.3089,2012-06-11 22:53:00,,CLR,10.0,,60,,,,56.0,,86,6.0,170.0,,29.13,,,,,,75.0,60.0,,,,,,,,,,,,,,,,,,,,,,,,,,,,,,,,,,,,,,,,,,,,,,,,,,,,,,,,,,,,,,
KBUR,Burbank,,34.1808,-118.3089,2012-06-11 23:53:00,,FEW,10.0,,59,,,,56.0,,90,3.0,180.0,,29.13,,,,,,,,,,,,,,,,,,,,,,,,,,,,,,,,,,,,,,,,,,,,,,,,,,,,,,,,,,,,,,,,,,,,,
KBUR,Burbank,,34.1808,-118.3089,2012-06-12 00:53:00,,CLR,9.0,,59,,,,56.0,,90,3.0,200.0,,29.12,,,,,,79.0,58.0,,,,,,,,,,,,,,,,,,,,,,,,,,,,,,,,,,,,,,,,,,,,,,,,,,,,,,,,,,,,,,
KBUR,Burbank,,34.1808,-118.3089,2012-06-12 01:26:00,,SCT,9.0,,59,,,,55.0,,88,3.0,180.0,,29.15,,,,,,,,,,,,,,,,,,,,,,,,,,,,,,,,,,,,,,,,,,,,,,,,,,,,,,,,,,,,,,,,,,,,,
KBUR,Burbank,,34.1808,-118.3089,2012-06-12 01:35:00,,BKN,9.0,,59,,,,55.0,,88,,,,29.15,,,,,,,,,,,,,,,,,,,,,,,,,,,,,,,,,,,,,,,,,,,,,,,,,,,,,,,,,,,,,,,,,,,,,
KBUR,Burbank,,34.1808,-118.3089,2012-06-12 01:53:00,,OVC,7.0,,59,,,,56.0,,90,,,,29.12,2.0,Falling Rapidly,,,,,,,,,,,,,,,,,,,,,,,,,,,,,,,,,,,,,,,,,,,,,,,,,,,,,,,,,,,,,,,,,,,
KBUR,Burbank,,34.1808,-118.3089,2012-06-12 02:53:00,,OVC,7.0,,59,,,,56.0,,90,,,,29.1,,,,,,,,,,,,,,,,,,,,,,,,,,,,,,,,,,,,,,,,,,,,,,,,,,,,,,,,,,,,,,,,,,,,,
KBUR,Burbank,,34.1808,-118.3089,2012-06-12 03:53:00,,OVC,7.0,,59,,,,56.0,,90,,,,29.09,,,,,,,,,,,,,,,,,,,,,,,,,,,,,,,,,,,,,,,,,,,,,,,,,,,,,,,,,,,,,,,,,,,,,
KBUR,Burbank,,34.1808,-118.3089,2012-06-12 04:53:00,,OVC,7.0,,59,,,,56.0,,90,5.0,150.0,,29.09,0.0,Steady,,,,60.0,58.0,,,,,,,,,,,,,,,,,,,,,,,,,,,,,,,,,,,,,,,,,,,,,,,,,,,,,,,,,,,,,,
KBUR,Burbank,,34.1808,-118.3089,2012-06-12 05:53:00,,OVC,5.0,,59,,,,55.0,,87,,,,29.11,,,,,,,,,,,,,,,,,,,,,,,,,,,,,,,,,,,,,,,,,,,,,,,,,,,,,,,,,,,,,,,,,,,,,
KBUR,Burbank,,34.1808,-118.3089,2012-06-12 06:53:00,,OVC,4.0,,59,,,,55.0,,87,,,,29.11,,,,,,,,,,,,,,,,,,,,,,,,,,,,,,,,,,,,,,,,,,,,,,,,,,,,,,,,,,,,,,,,,,,,,
KBUR,Burbank,,34.1808,-118.3089,2012-06-12 07:53:00,,OVC,3.0,,60,,,,56.0,,86,5.0,150.0,,29.11,1.0,Rising,,,,,,,,,,,,,,,,,,,,,,,,,,,,,,,,,,,,,,,,,,,,,,,,,,,,,,,,,,,,,,,,,,,
KBUR,Burbank,,34.1808,-118.3089,2012-06-12 08:53:00,,OVC,4.0,,61,,,,56.0,,83,6.0,180.0,,29.12,,,,,,,,,,,,,,,,,,,,,,,,,,,,,,,,,,,,,,,,,,,,,,,,,,,,,,,,,,,,,,,,,,,,,
KBUR,Burbank,,34.1808,-118.3089,2012-06-12 09:05:00,,SCT,5.0,,63,,,,55.0,,77,,,,29.15,,,,,,,,,,,,,,,,,,,,,,,,,,,,,,,,,,,,,,,,,,,,,,,,,,,,,,,,,,,,,,,,,,,,,
KBUR,Burbank,,34.1808,-118.3089,2012-06-12 09:53:00,,CLR,7.0,,65,,,,56.0,,73,,,,29.11,,,,,,,,,,,,,,,,,,,,,,,,,,,,,,,,,,,,,,,,,,,,,,,,,,,,,,,,,,,,,,,,,,,,,
KBUR,Burbank,,34.1808,-118.3089,2012-06-12 10:53:00,,CLR,7.0,,72,,,,57.0,,59,3.0,,,29.09,2.0,Falling Rapidly,,,,72.0,58.0,,,,,,,,,,,,,,,,,,,,,,,,,,,,,,,,,,,,,,,,,,,,,,,,,,,,,,,,,,,,,,
KBUR,Burbank,,34.1808,-118.3089,2012-06-12 11:53:00,,CLR,10.0,,76,,,,58.0,,54,7.0,190.0,,29.08,,,,,,,,,,,,,,,,,,,,,,,,,,,,,,,,,,,,,,,,,,,,,,,,,,,,,,,,,,,,,,,,,,,,,
KBUR,Burbank,,34.1808,-118.3089,2012-06-12 12:53:00,,CLR,10.0,,78,,,,58.0,,50,6.0,170.0,,29.06,,,,,,,,,,,,,,,,,,,,,,,,,,,,,,,,,,,,,,,,,,,,,,,,,,,,,,,,,,,,,,,,,,,,,
KBUR,Burbank,,34.1808,-118.3089,2012-06-12 13:53:00,,CLR,10.0,,79,,,,58.0,,48,10.0,180.0,,29.05,2.0,Falling,,,,,,,,,,,,,,,,,,,,,,,,,,,,,,,,,,,,,,,,,,,,,,,,,,,,,,,,,,,,,,,,,,,
KBUR,Burbank,,34.1808,-118.3089,2012-06-12 14:53:00,,CLR,10.0,,78,,,,58.0,,50,8.0,170.0,,29.04,,,,,,,,,,,,,,,,,,,,,,,,,,,,,,,,,,,,,,,,,,,,,,,,,,,,,,,,,,,,,,,,,,,,,
KBUR,Burbank,,34.1808,-118.3089,2012-06-12 15:53:00,,CLR,10.0,,77,,,,57.0,,50,9.0,170.0,,29.03,,,,,,,,,,,,,,,,,,,,,,,,,,,,,,,,,,,,,,,,,,,,,,,,,,,,,,,,,,,,,,,,,,,,,
KBUR,Burbank,,34.1808,-118.3089,2012-06-12 16:53:00,,CLR,10.0,,77,,,,58.0,,52,8.0,170.0,,29.01,2.0,Falling,,,,80.0,71.0,,,,,,,,,,,,,,,,,,,,,,,,,,,,,,,,,,,,,,,,,,,,,,,,,,,,,,,,,,,,,,
KBUR,Burbank,,34.1808,-118.3089,2012-06-12 17:53:00,,CLR,10.0,,76,,,,57.0,,52,12.0,110.0,,29.01,,,,,,,,,,,,,,,,,,,,,,,,,,,,,,,,,,,,,,,,,,,,,,,,,,,,,,,,,,,,,,,,,,,,,
KBUR,Burbank,,34.1808,-118.3089,2012-06-12 18:53:00,,CLR,10.0,,67,,,,57.0,,70,13.0,180.0,,29.03,,,,,,,,,,,,,,,,,,,,,,,,,,,,,,,,,,,,,,,,,,,,,,,,,,,,,,,,,,,,,,,,,,,,,
KBUR,Burbank,,34.1808,-118.3089,2012-06-12 19:53:00,,CLR,10.0,,66,,,,57.0,,73,12.0,120.0,,29.03,1.0,Rising Rapidly,,,,,,,,,,,,,,,,,,,,,,,,,,,,,,,,,,,,,,,,,,,,,,,,,,,,,,,,,,,,,,,,,,,
KBUR,Burbank,,34.1808,-118.3089,2012-06-12 20:53:00,,CLR,10.0,,63,,,,57.0,,81,8.0,140.0,,29.04,,,,,,,,,,,,,,,,,,,,,,,,,,,,,,,,,,,,,,,,,,,,,,,,,,,,,,,,,,,,,,,,,,,,,
KBUR,Burbank,,34.1808,-118.3089,2012-06-12 21:53:00,,CLR,10.0,,61,,,,56.0,,83,5.0,180.0,,29.05,,,,,,,,,,,,,,,,,,,,,,,,,,,,,,,,,,,,,,,,,,,,,,,,,,,,,,,,,,,,,,,,,,,,,
KBUR,Burbank,,34.1808,-118.3089,2012-06-12 22:53:00,,CLR,10.0,,61,,,,56.0,,83,5.0,190.0,,29.05,1.0,Rising,,,,77.0,61.0,,,,,,,,,,,,,,,,,,,,,,,,,,,,,,,,,,,,,,,,,,,,,,,,,,,,,,,,,,,,,,
KBUR,Burbank,,34.1808,-118.3089,2012-06-12 23:53:00,,CLR,9.0,,60,,,,56.0,,86,3.0,180.0,,29.05,,,,,,,,,,,,,,,,,,,,,,,,,,,,,,,,,,,,,,,,,,,,,,,,,,,,,,,,,,,,,,,,,,,,,
KBUR,Burbank,,34.1808,-118.3089,2012-06-13 00:22:00,,SCT,8.0,,59,,,,55.0,,88,3.0,200.0,,29.07,,,,,,,,,,,,,,,,,,,,,,,,,,,,,,,,,,,,,,,,,,,,,,,,,,,,,,,,,,,,,,,,,,,,,
KBUR,Burbank,,34.1808,-118.3089,2012-06-13 00:32:00,,BKN,7.0,,59,,,,55.0,,88,5.0,180.0,,29.06,,,,,,,,,,,,,,,,,,,,,,,,,,,,,,,,,,,,,,,,,,,,,,,,,,,,,,,,,,,,,,,,,,,,,
KBUR,Burbank,,34.1808,-118.3089,2012-06-13 00:53:00,,OVC,7.0,,59,,,,56.0,,90,5.0,170.0,,29.03,,,,,,80.0,58.0,,,,,,,,,,,,,,,,,,,,,,,,,,,,,,,,,,,,,,,,,,,,,,,,,,,,,,,,,,,,,,
KBUR,Burbank,,34.1808,-118.3089,2012-06-13 01:53:00,,OVC,6.0,,60,,,,56.0,,86,6.0,160.0,,29.02,2.0,Falling Rapidly,,,,,,,,,,,,,,,,,,,,,,,,,,,,,,,,,,,,,,,,,,,,,,,,,,,,,,,,,,,,,,,,,,,
KBUR,Burbank,,34.1808,-118.3089,2012-06-13 02:53:00,,OVC,5.0,,59,,,,56.0,,90,3.0,180.0,,29.01,,,,,,,,,,,,,,,,,,,,,,,,,,,,,,,,,,,,,,,,,,,,,,,,,,,,,,,,,,,,,,,,,,,,,
KBUR,Burbank,,34.1808,-118.3089,2012-06-13 03:53:00,,OVC,5.0,,60,,,,56.0,,86,3.0,150.0,,29.0,,,,,,,,,,,,,,,,,,,,,,,,,,,,,,,,,,,,,,,,,,,,,,,,,,,,,,,,,,,,,,,,,,,,,
KBUR,Burbank,,34.1808,-118.3089,2012-06-13 04:53:00,,OVC,5.0,,59,,,,56.0,,90,6.0,170.0,,29.0,2.0,Falling,,,,61.0,59.0,,,,,,,,,,,,,,,,,,,,,,,,,,,,,,,,,,,,,,,,,,,,,,,,,,,,,,,,,,,,,,
KBUR,Burbank,,34.1808,-118.3089,2012-06-13 05:53:00,,OVC,3.0,,59,,,,56.0,,90,5.0,100.0,,29.0,,,,,,,,,,,,,,,,,,,,,,,,,,,,,,,,,,,,,,,,,,,,,,,,,,,,,,,,,,,,,,,,,,,,,
KBUR,Burbank,,34.1808,-118.3089,2012-06-13 06:53:00,,OVC,3.0,,60,,,,56.0,,86,5.0,180.0,,29.01,,,,,,,,,,,,,,,,,,,,,,,,,,,,,,,,,,,,,,,,,,,,,,,,,,,,,,,,,,,,,,,,,,,,,
KBUR,Burbank,,34.1808,-118.3089,2012-06-13 07:53:00,,OVC,3.0,,61,,,,56.0,,83,3.0,280.0,,29.01,1.0,Rising,,,,,,,,,,,,,,,,,,,,,,,,,,,,,,,,,,,,,,,,,,,,,,,,,,,,,,,,,,,,,,,,,,,
KBUR,Burbank,,34.1808,-118.3089,2012-06-13 08:53:00,,OVC,4.0,,63,,,,56.0,,78,3.0,180.0,,29.01,,,,,,,,,,,,,,,,,,,,,,,,,,,,,,,,,,,,,,,,,,,,,,,,,,,,,,,,,,,,,,,,,,,,,
KBUR,Burbank,,34.1808,-118.3089,2012-06-13 09:26:00,,OVC,4.0,,63,,,,55.0,,77,7.0,210.0,,29.04,,,,,,,,,,,,,,,,,,,,,,,,,,,,,,,,,,,,,,,,,,,,,,,,,,,,,,,,,,,,,,,,,,,,,
KBUR,Burbank,,34.1808,-118.3089,2012-06-13 09:53:00,,BKN,4.0,,67,,,,57.0,,70,6.0,110.0,,29.01,,,,,,,,,,,,,,,,,,,,,,,,,,,,,,,,,,,,,,,,,,,,,,,,,,,,,,,,,,,,,,,,,,,,,
KBUR,Burbank,,34.1808,-118.3089,2012-06-13 10:07:00,,FEW,5.0,,66,,,,57.0,,73,3.0,160.0,,29.03,,,,,,,,,,,,,,,,,,,,,,,,,,,,,,,,,,,,,,,,,,,,,,,,,,,,,,,,,,,,,,,,,,,,,
KBUR,Burbank,,34.1808,-118.3089,2012-06-13 10:53:00,,CLR,5.0,,69,,,,57.0,,65,,,,29.0,2.0,Falling Rapidly,,,,70.0,59.0,,,,,,,,,,,,,,,,,,,,,,,,,,,,,,,,,,,,,,,,,,,,,,,,,,,,,,,,,,,,,,
KBUR,Burbank,,34.1808,-118.3089,2012-06-13 11:53:00,,CLR,7.0,,72,,,,56.0,,57,12.0,180.0,,29.0,,,,,,,,,,,,,,,,,,,,,,,,,,,,,,,,,,,,,,,,,,,,,,,,,,,,,,,,,,,,,,,,,,,,,
KBUR,Burbank,,34.1808,-118.3089,2012-06-13 12:53:00,,CLR,10.0,,73,,,,56.0,,55,13.0,180.0,18.0,28.98,,,,,,,,,,,,,,,,,,,,,,,,,,,,,,,,,,,,,,,,,,,,,,,,,,,,,,,,,,,,,,,,,,,,,
KBUR,Burbank,,34.1808,-118.3089,2012-06-13 13:53:00,,CLR,10.0,,73,,,,55.0,,53,13.0,180.0,,28.97,2.0,Falling Rapidly,,,,,,,,,,,,,,,,,,,,,,,,,,,,,,,,,,,,,,,,,,,,,,,,,,,,,,,,,,,,,,,,,,,
KBUR,Burbank,,34.1808,-118.3089,2012-06-13 14:53:00,,CLR,10.0,,74,,,,56.0,,53,12.0,180.0,,28.96,,,,,,,,,,,,,,,,,,,,,,,,,,,,,,,,,,,,,,,,,,,,,,,,,,,,,,,,,,,,,,,,,,,,,
KBUR,Burbank,,34.1808,-118.3089,2012-06-13 15:53:00,,CLR,10.0,,74,,,,57.0,,55,10.0,200.0,,28.95,,,,,,,,,,,,,,,,,,,,,,,,,,,,,,,,,,,,,,,,,,,,,,,,,,,,,,,,,,,,,,,,,,,,,
KBUR,Burbank,,34.1808,-118.3089,2012-06-13 16:53:00,,CLR,10.0,,74,,,,57.0,,55,10.0,170.0,,28.94,2.0,Falling,,,,75.0,69.0,,,,,,,,,,,,,,,,,,,,,,,,,,,,,,,,,,,,,,,,,,,,,,,,,,,,,,,,,,,,,,
KBUR,Burbank,,34.1808,-118.3089,2012-06-13 17:53:00,,CLR,10.0,,71,,,,57.0,,61,10.0,170.0,,28.93,,,,,,,,,,,,,,,,,,,,,,,,,,,,,,,,,,,,,,,,,,,,,,,,,,,,,,,,,,,,,,,,,,,,,
KBUR,Burbank,,34.1808,-118.3089,2012-06-13 18:53:00,,CLR,10.0,,69,,,,57.0,,65,9.0,190.0,,28.92,,,,,,,,,,,,,,,,,,,,,,,,,,,,,,,,,,,,,,,,,,,,,,,,,,,,,,,,,,,,,,,,,,,,,
KBUR,Burbank,,34.1808,-118.3089,2012-06-13 19:53:00,,CLR,10.0,,65,,,,56.0,,73,8.0,190.0,,28.93,0.0,Steady,,,,,,,,,,,,,,,,,,,,,,,,,,,,,,,,,,,,,,,,,,,,,,,,,,,,,,,,,,,,,,,,,,,
KBUR,Burbank,,34.1808,-118.3089,2012-06-13 20:53:00,,CLR,10.0,,62,,,,56.0,,80,8.0,180.0,,28.95,,,,,,,,,,,,,,,,,,,,,,,,,,,,,,,,,,,,,,,,,,,,,,,,,,,,,,,,,,,,,,,,,,,,,
KBUR,Burbank,,34.1808,-118.3089,2012-06-13 21:53:00,,CLR,10.0,,61,,,,56.0,,83,5.0,180.0,,28.96,,,,,,,,,,,,,,,,,,,,,,,,,,,,,,,,,,,,,,,,,,,,,,,,,,,,,,,,,,,,,,,,,,,,,
KBUR,Burbank,,34.1808,-118.3089,2012-06-13 22:53:00,,CLR,9.0,,60,,,,55.0,,83,6.0,180.0,,28.97,1.0,Rising,,,,74.0,60.0,,,,,,,,,,,,,,,,,,,,,,,,,,,,,,,,,,,,,,,,,,,,,,,,,,,,,,,,,,,,,,
KBUR,Burbank,,34.1808,-118.3089,2012-06-13 23:33:00,,BKN,9.0,,61,,,,55.0,,82,6.0,170.0,,28.99,,,,,,,,,,,,,,,,,,,,,,,,,,,,,,,,,,,,,,,,,,,,,,,,,,,,,,,,,,,,,,,,,,,,,
KBUR,Burbank,,34.1808,-118.3089,2012-06-13 23:53:00,,OVC,8.0,,61,,,,56.0,,83,7.0,120.0,,28.96,,,,,,,,,,,,,,,,,,,,,,,,,,,,,,,,,,,,,,,,,,,,,,,,,,,,,,,,,,,,,,,,,,,,,
KBUR,Burbank,,34.1808,-118.3089,2012-06-14 00:53:00,,OVC,7.0,,61,,,,56.0,,83,7.0,140.0,,28.96,,,,,,75.0,59.0,,,,,,,,,,,,,,,,,,,,,,,,,,,,,,,,,,,,,,,,,,,,,,,,,,,,,,,,,,,,,,
KBUR,Burbank,,34.1808,-118.3089,2012-06-14 01:53:00,,OVC,7.0,,61,,,,56.0,,83,6.0,180.0,,28.96,2.0,Falling Rapidly,,,,,,,,,,,,,,,,,,,,,,,,,,,,,,,,,,,,,,,,,,,,,,,,,,,,,,,,,,,,,,,,,,,
KBUR,Burbank,,34.1808,-118.3089,2012-06-14 02:53:00,,OVC,7.0,,61,,,,56.0,,83,3.0,160.0,,28.95,,,,,,,,,,,,,,,,,,,,,,,,,,,,,,,,,,,,,,,,,,,,,,,,,,,,,,,,,,,,,,,,,,,,,
KBUR,Burbank,,34.1808,-118.3089,2012-06-14 03:53:00,,OVC,8.0,,62,,,,55.0,,78,6.0,140.0,,28.95,,,,,,,,,,,,,,,,,,,,,,,,,,,,,,,,,,,,,,,,,,,,,,,,,,,,,,,,,,,,,,,,,,,,,
KBUR,Burbank,,34.1808,-118.3089,2012-06-14 04:07:00,,OVC,8.0,,63,,,,55.0,,77,7.0,140.0,,28.98,,,,,,,,,,,,,,,,,,,,,,,,,,,,,,,,,,,,,,,,,,,,,,,,,,,,,,,,,,,,,,,,,,,,,
KBUR,Burbank,,34.1808,-118.3089,2012-06-14 04:53:00,,OVC,9.0,,62,,,,54.0,,75,6.0,100.0,,28.95,2.0,Falling,,,,62.0,60.0,,,,,,,,,,,,,,,,,,,,,,,,,,,,,,,,,,,,,,,,,,,,,,,,,,,,,,,,,,,,,,
KBUR,Burbank,,34.1808,-118.3089,2012-06-14 05:53:00,,OVC,10.0,,61,,,,55.0,,81,7.0,170.0,,28.96,,,,,,,,,,,,,,,,,,,,,,,,,,,,,,,,,,,,,,,,,,,,,,,,,,,,,,,,,,,,,,,,,,,,,
KBUR,Burbank,,34.1808,-118.3089,2012-06-14 06:53:00,,OVC,10.0,,60,,,,54.0,,80,7.0,160.0,,28.98,,,,,,,,,,,,,,,,,,,,,,,,,,,,,,,,,,,,,,,,,,,,,,,,,,,,,,,,,,,,,,,,,,,,,
KBUR,Burbank,,34.1808,-118.3089,2012-06-14 07:53:00,,OVC,10.0,,60,,,,54.0,,80,5.0,190.0,,28.99,1.0,Rising Rapidly,,,,,,,,,,,,,,,,,,,,,,,,,,,,,,,,,,,,,,,,,,,,,,,,,,,,,,,,,,,,,,,,,,,
KBUR,Burbank,,34.1808,-118.3089,2012-06-14 08:53:00,,OVC,10.0,,60,,,,54.0,,80,3.0,180.0,,29.0,,,,,,,,,,,,,,,,,,,,,,,,,,,,,,,,,,,,,,,,,,,,,,,,,,,,,,,,,,,,,,,,,,,,,
KBUR,Burbank,,34.1808,-118.3089,2012-06-14 09:53:00,,OVC,9.0,,62,,,,54.0,,75,5.0,220.0,,28.99,,,,,,,,,,,,,,,,,,,,,,,,,,,,,,,,,,,,,,,,,,,,,,,,,,,,,,,,,,,,,,,,,,,,,
KBUR,Burbank,,34.1808,-118.3089,2012-06-14 10:53:00,,BKN,6.0,,64,,,,54.0,,70,3.0,160.0,,28.99,0.0,Steady,,,,65.0,60.0,,,,,,,,,,,,,,,,,,,,,,,,,,,,,,,,,,,,,,,,,,,,,,,,,,,,,,,,,,,,,,
KBUR,Burbank,,34.1808,-118.3089,2012-06-14 11:00:00,,SCT,6.0,,64,,,,54.0,,68,3.0,,,29.02,,,,,,,,,,,,,,,,,,,,,,,,,,,,,,,,,,,,,,,,,,,,,,,,,,,,,,,,,,,,,,,,,,,,,
KBUR,Burbank,,34.1808,-118.3089,2012-06-14 11:53:00,,FEW,6.0,,67,,,,55.0,,66,7.0,150.0,,28.99,,,,,,,,,,,,,,,,,,,,,,,,,,,,,,,,,,,,,,,,,,,,,,,,,,,,,,,,,,,,,,,,,,,,,
KBUR,Burbank,,34.1808,-118.3089,2012-06-14 12:53:00,,CLR,10.0,,70,,,,54.0,,57,7.0,180.0,,28.98,,,,,,,,,,,,,,,,,,,,,,,,,,,,,,,,,,,,,,,,,,,,,,,,,,,,,,,,,,,,,,,,,,,,,
KBUR,Burbank,,34.1808,-118.3089,2012-06-14 13:53:00,,CLR,10.0,,73,,,,56.0,,55,,,,28.97,2.0,Falling Rapidly,,,,,,,,,,,,,,,,,,,,,,,,,,,,,,,,,,,,,,,,,,,,,,,,,,,,,,,,,,,,,,,,,,,
KBUR,Burbank,,34.1808,-118.3089,2012-06-14 14:53:00,,CLR,10.0,,74,,,,56.0,,53,5.0,,,28.95,,,,,,,,,,,,,,,,,,,,,,,,,,,,,,,,,,,,,,,,,,,,,,,,,,,,,,,,,,,,,,,,,,,,,
KBUR,Burbank,,34.1808,-118.3089,2012-06-14 15:53:00,,CLR,10.0,,74,,,,56.0,,53,10.0,180.0,,28.94,,,,,,,,,,,,,,,,,,,,,,,,,,,,,,,,,,,,,,,,,,,,,,,,,,,,,,,,,,,,,,,,,,,,,
KBUR,Burbank,,34.1808,-118.3089,2012-06-14 16:53:00,,CLR,10.0,,73,,,,56.0,,55,9.0,160.0,,28.93,2.0,Falling,,,,76.0,64.0,,,,,,,,,,,,,,,,,,,,,,,,,,,,,,,,,,,,,,,,,,,,,,,,,,,,,,,,,,,,,,
KBUR,Burbank,,34.1808,-118.3089,2012-06-14 17:53:00,,CLR,10.0,,70,,,,56.0,,61,12.0,180.0,,28.94,,,,,,,,,,,,,,,,,,,,,,,,,,,,,,,,,,,,,,,,,,,,,,,,,,,,,,,,,,,,,,,,,,,,,
KBUR,Burbank,,34.1808,-118.3089,2012-06-14 18:53:00,,CLR,10.0,,67,,,,56.0,,68,12.0,180.0,,28.95,,,,,,,,,,,,,,,,,,,,,,,,,,,,,,,,,,,,,,,,,,,,,,,,,,,,,,,,,,,,,,,,,,,,,
KBUR,Burbank,,34.1808,-118.3089,2012-06-14 19:53:00,,CLR,10.0,,64,,,,56.0,,75,8.0,180.0,,28.96,1.0,Rising Rapidly,,,,,,,,,,,,,,,,,,,,,,,,,,,,,,,,,,,,,,,,,,,,,,,,,,,,,,,,,,,,,,,,,,,
KBUR,Burbank,,34.1808,-118.3089,2012-06-14 20:53:00,,CLR,10.0,,62,,,,56.0,,80,8.0,180.0,,28.97,,,,,,,,,,,,,,,,,,,,,,,,,,,,,,,,,,,,,,,,,,,,,,,,,,,,,,,,,,,,,,,,,,,,,
KBUR,Burbank,,34.1808,-118.3089,2012-06-14 21:48:00,,BKN,10.0,,61,,,,55.0,,82,7.0,170.0,,29.01,,,,,,,,,,,,,,,,,,,,,,,,,,,,,,,,,,,,,,,,,,,,,,,,,,,,,,,,,,,,,,,,,,,,,
KBUR,Burbank,,34.1808,-118.3089,2012-06-14 21:53:00,,BKN,10.0,,61,,,,56.0,,83,7.0,180.0,,28.99,,,,,,,,,,,,,,,,,,,,,,,,,,,,,,,,,,,,,,,,,,,,,,,,,,,,,,,,,,,,,,,,,,,,,
KBUR,Burbank,,34.1808,-118.3089,2012-06-14 22:53:00,,OVC,10.0,,62,,,,56.0,,80,7.0,180.0,,28.99,1.0,Rising,,,,74.0,61.0,,,,,,,,,,,,,,,,,,,,,,,,,,,,,,,,,,,,,,,,,,,,,,,,,,,,,,,,,,,,,,
KBUR,Burbank,,34.1808,-118.3089,2012-06-14 23:53:00,,OVC,10.0,,62,,,,56.0,,80,5.0,180.0,,28.98,,,,,,,,,,,,,,,,,,,,,,,,,,,,,,,,,,,,,,,,,,,,,,,,,,,,,,,,,,,,,,,,,,,,,
KBUR,Burbank,,34.1808,-118.3089,2012-06-15 00:53:00,,OVC,10.0,,61,,,,56.0,,83,5.0,200.0,,28.98,,,,,,76.0,60.0,,,,,,,,,,,,,,,,,,,,,,,,,,,,,,,,,,,,,,,,,,,,,,,,,,,,,,,,,,,,,,
KBUR,Burbank,,34.1808,-118.3089,2012-06-15 01:53:00,,OVC,9.0,,61,,,,56.0,,83,6.0,150.0,,28.97,2.0,Falling,,,,,,,,,,,,,,,,,,,,,,,,,,,,,,,,,,,,,,,,,,,,,,,,,,,,,,,,,,,,,,,,,,,
KBUR,Burbank,,34.1808,-118.3089,2012-06-15 02:53:00,,OVC,10.0,,60,,,,55.0,,83,5.0,170.0,,28.96,,,,,,,,,,,,,,,,,,,,,,,,,,,,,,,,,,,,,,,,,,,,,,,,,,,,,,,,,,,,,,,,,,,,,
KBUR,Burbank,,34.1808,-118.3089,2012-06-15 03:53:00,,OVC,10.0,,60,,,,55.0,,83,3.0,180.0,,28.96,,,,,,,,,,,,,,,,,,,,,,,,,,,,,,,,,,,,,,,,,,,,,,,,,,,,,,,,,,,,,,,,,,,,,
KBUR,Burbank,,34.1808,-118.3089,2012-06-15 04:53:00,,OVC,10.0,,60,,,,55.0,,83,,,,28.95,2.0,Falling,,,,62.0,60.0,,,,,,,,,,,,,,,,,,,,,,,,,,,,,,,,,,,,,,,,,,,,,,,,,,,,,,,,,,,,,,
KBUR,Burbank,,34.1808,-118.3089,2012-06-15 05:53:00,,OVC,10.0,,60,,,,55.0,,83,3.0,170.0,,28.96,,,,,,,,,,,,,,,,,,,,,,,,,,,,,,,,,,,,,,,,,,,,,,,,,,,,,,,,,,,,,,,,,,,,,
KBUR,Burbank,,34.1808,-118.3089,2012-06-15 06:53:00,,OVC,9.0,,60,,,,54.0,,80,3.0,190.0,,28.97,,,,,,,,,,,,,,,,,,,,,,,,,,,,,,,,,,,,,,,,,,,,,,,,,,,,,,,,,,,,,,,,,,,,,
KBUR,Burbank,,34.1808,-118.3089,2012-06-15 07:53:00,,OVC,9.0,,60,,,,54.0,,80,3.0,190.0,,28.99,1.0,Rising Rapidly,,,,,,,,,,,,,,,,,,,,,,,,,,,,,,,,,,,,,,,,,,,,,,,,,,,,,,,,,,,,,,,,,,,
KBUR,Burbank,,34.1808,-118.3089,2012-06-15 08:51:00,,OVC,9.0,,61,,,,54.0,,77,,,,29.02,,,,,,,,,,,,,,,,,,,,,,,,,,,,,,,,,,,,,,,,,,,,,,,,,,,,,,,,,,,,,,,,,,,,,
KBUR,Burbank,,34.1808,-118.3089,2012-06-15 08:53:00,,OVC,9.0,,61,,,,54.0,,78,3.0,190.0,,29.0,,,,,,,,,,,,,,,,,,,,,,,,,,,,,,,,,,,,,,,,,,,,,,,,,,,,,,,,,,,,,,,,,,,,,
KBUR,Burbank,,34.1808,-118.3089,2012-06-15 09:53:00,,OVC,10.0,,62,,,,54.0,,75,,,,29.01,,,,,,,,,,,,,,,,,,,,,,,,,,,,,,,,,,,,,,,,,,,,,,,,,,,,,,,,,,,,,,,,,,,,,
KBUR,Burbank,,34.1808,-118.3089,2012-06-15 10:53:00,,OVC,10.0,,64,,,,54.0,,70,5.0,110.0,,29.01,1.0,Rising Rapidly,,,,64.0,60.0,,,,,,,,,,,,,,,,,,,,,,,,,,,,,,,,,,,,,,,,,,,,,,,,,,,,,,,,,,,,,,
KBUR,Burbank,,34.1808,-118.3089,2012-06-15 11:53:00,,SCT,10.0,,67,,,,53.0,,61,3.0,150.0,,29.01,,,,,,,,,,,,,,,,,,,,,,,,,,,,,,,,,,,,,,,,,,,,,,,,,,,,,,,,,,,,,,,,,,,,,
KBUR,Burbank,,34.1808,-118.3089,2012-06-15 12:53:00,,CLR,10.0,,70,,,,53.0,,55,7.0,,,28.99,,,,,,,,,,,,,,,,,,,,,,,,,,,,,,,,,,,,,,,,,,,,,,,,,,,,,,,,,,,,,,,,,,,,,
KBUR,Burbank,,34.1808,-118.3089,2012-06-15 13:53:00,,CLR,10.0,,72,,,,54.0,,53,9.0,220.0,,28.97,2.0,Falling Rapidly,,,,,,,,,,,,,,,,,,,,,,,,,,,,,,,,,,,,,,,,,,,,,,,,,,,,,,,,,,,,,,,,,,,
KBUR,Burbank,,34.1808,-118.3089,2012-06-15 14:53:00,,CLR,10.0,,72,,,,55.0,,55,7.0,190.0,,28.97,,,,,,,,,,,,,,,,,,,,,,,,,,,,,,,,,,,,,,,,,,,,,,,,,,,,,,,,,,,,,,,,,,,,,
KBUR,Burbank,,34.1808,-118.3089,2012-06-15 15:53:00,,CLR,10.0,,72,,,,55.0,,55,9.0,180.0,,28.96,,,,,,,,,,,,,,,,,,,,,,,,,,,,,,,,,,,,,,,,,,,,,,,,,,,,,,,,,,,,,,,,,,,,,
KBUR,Burbank,,34.1808,-118.3089,2012-06-15 16:53:00,,CLR,10.0,,71,,,,55.0,,57,12.0,180.0,,28.95,2.0,Falling,,,,73.0,63.0,,,,,,,,,,,,,,,,,,,,,,,,,,,,,,,,,,,,,,,,,,,,,,,,,,,,,,,,,,,,,,
KBUR,Burbank,,34.1808,-118.3089,2012-06-15 17:53:00,,CLR,10.0,,69,,,,55.0,,61,13.0,170.0,,28.95,,,,,,,,,,,,,,,,,,,,,,,,,,,,,,,,,,,,,,,,,,,,,,,,,,,,,,,,,,,,,,,,,,,,,
KBUR,Burbank,,34.1808,-118.3089,2012-06-15 18:53:00,,CLR,10.0,,66,,,,55.0,,68,9.0,180.0,,28.96,,,,,,,,,,,,,,,,,,,,,,,,,,,,,,,,,,,,,,,,,,,,,,,,,,,,,,,,,,,,,,,,,,,,,
KBUR,Burbank,,34.1808,-118.3089,2012-06-15 19:53:00,,FEW,10.0,,64,,,,56.0,,75,9.0,180.0,,28.97,1.0,Rising Rapidly,,,,,,,,,,,,,,,,,,,,,,,,,,,,,,,,,,,,,,,,,,,,,,,,,,,,,,,,,,,,,,,,,,,
KBUR,Burbank,,34.1808,-118.3089,2012-06-15 20:49:00,,BKN,10.0,,63,,,,55.0,,77,7.0,190.0,,29.01,,,,,,,,,,,,,,,,,,,,,,,,,,,,,,,,,,,,,,,,,,,,,,,,,,,,,,,,,,,,,,,,,,,,,
KBUR,Burbank,,34.1808,-118.3089,2012-06-15 20:53:00,,OVC,10.0,,62,,,,55.0,,78,8.0,180.0,,28.98,,,,,,,,,,,,,,,,,,,,,,,,,,,,,,,,,,,,,,,,,,,,,,,,,,,,,,,,,,,,,,,,,,,,,
KBUR,Burbank,,34.1808,-118.3089,2012-06-15 21:53:00,,OVC,10.0,,62,,,,55.0,,78,5.0,200.0,,29.0,,,,,,,,,,,,,,,,,,,,,,,,,,,,,,,,,,,,,,,,,,,,,,,,,,,,,,,,,,,,,,,,,,,,,
KBUR,Burbank,,34.1808,-118.3089,2012-06-15 22:53:00,,OVC,10.0,,62,,,,55.0,,78,3.0,180.0,,29.0,0.0,Steady,,,,72.0,62.0,,,,,,,,,,,,,,,,,,,,,,,,,,,,,,,,,,,,,,,,,,,,,,,,,,,,,,,,,,,,,,
KBUR,Burbank,,34.1808,-118.3089,2012-06-15 23:53:00,,OVC,10.0,,62,,,,55.0,,78,3.0,170.0,,28.98,,,,,,,,,,,,,,,,,,,,,,,,,,,,,,,,,,,,,,,,,,,,,,,,,,,,,,,,,,,,,,,,,,,,,
KBUR,Burbank,,34.1808,-118.3089,2012-06-16 00:53:00,,OVC,10.0,,62,,,,55.0,,78,,,,28.96,,,,,,73.0,60.0,,,,,,,,,,,,,,,,,,,,,,,,,,,,,,,,,,,,,,,,,,,,,,,,,,,,,,,,,,,,,,
KBUR,Burbank,,34.1808,-118.3089,2012-06-16 01:53:00,,OVC,10.0,,63,,,,55.0,,75,5.0,180.0,,28.95,2.0,Falling,,,,,,,,,,,,,,,,,,,,,,,,,,,,,,,,,,,,,,,,,,,,,,,,,,,,,,,,,,,,,,,,,,,
KBUR,Burbank,,34.1808,-118.3089,2012-06-16 02:53:00,,OVC,10.0,,62,,,,55.0,,78,3.0,190.0,,28.95,,,,,,,,,,,,,,,,,,,,,,,,,,,,,,,,,,,,,,,,,,,,,,,,,,,,,,,,,,,,,,,,,,,,,
KBUR,Burbank,,34.1808,-118.3089,2012-06-16 03:53:00,,OVC,9.0,,62,,,,55.0,,78,,,,28.95,,,,,,,,,,,,,,,,,,,,,,,,,,,,,,,,,,,,,,,,,,,,,,,,,,,,,,,,,,,,,,,,,,,,,
KBUR,Burbank,,34.1808,-118.3089,2012-06-16 04:53:00,,OVC,9.0,,62,,,,55.0,,78,6.0,20.0,,28.96,1.0,Rising Rapidly,,,,63.0,61.0,,,,,,,,,,,,,,,,,,,,,,,,,,,,,,,,,,,,,,,,,,,,,,,,,,,,,,,,,,,,,,
KBUR,Burbank,,34.1808,-118.3089,2012-06-16 05:53:00,,OVC,6.0,,61,,,,55.0,,81,3.0,50.0,,28.97,,,,,,,,,,,,,,,,,,,,,,,,,,,,,,,,,,,,,,,,,,,,,,,,,,,,,,,,,,,,,,,,,,,,,
KBUR,Burbank,,34.1808,-118.3089,2012-06-16 06:32:00,,OVC,7.0,,63,,,,55.0,,77,,,,29.01,,,,,,,,,,,,,,,,,,,,,,,,,,,,,,,,,,,,,,,,,,,,,,,,,,,,,,,,,,,,,,,,,,,,,
KBUR,Burbank,,34.1808,-118.3089,2012-06-16 06:53:00,,OVC,6.0,,62,,,,55.0,,78,5.0,60.0,,28.99,,,,,,,,,,,,,,,,,,,,,,,,,,,,,,,,,,,,,,,,,,,,,,,,,,,,,,,,,,,,,,,,,,,,,
KBUR,Burbank,,34.1808,-118.3089,2012-06-16 07:53:00,,OVC,7.0,,62,,,,55.0,,78,6.0,160.0,,29.01,1.0,Rising Rapidly,,,,,,,,,,,,,,,,,,,,,,,,,,,,,,,,,,,,,,,,,,,,,,,,,,,,,,,,,,,,,,,,,,,
KBUR,Burbank,,34.1808,-118.3089,2012-06-16 08:53:00,,OVC,7.0,,63,,,,56.0,,78,8.0,150.0,,29.02,,,,,,,,,,,,,,,,,,,,,,,,,,,,,,,,,,,,,,,,,,,,,,,,,,,,,,,,,,,,,,,,,,,,,
KBUR,Burbank,,34.1808,-118.3089,2012-06-16 09:53:00,,CLR,7.0,,65,,,,56.0,,73,,,,29.01,,,,,,,,,,,,,,,,,,,,,,,,,,,,,,,,,,,,,,,,,,,,,,,,,,,,,,,,,,,,,,,,,,,,,
KBUR,Burbank,,34.1808,-118.3089,2012-06-16 10:53:00,,CLR,9.0,,70,,,,57.0,,63,5.0,,,29.01,0.0,Steady,,,,70.0,61.0,,,,,,,,,,,,,,,,,,,,,,,,,,,,,,,,,,,,,,,,,,,,,,,,,,,,,,,,,,,,,,
KBUR,Burbank,,34.1808,-118.3089,2012-06-16 11:53:00,,CLR,10.0,,74,,,,57.0,,55,5.0,,,29.0,,,,,,,,,,,,,,,,,,,,,,,,,,,,,,,,,,,,,,,,,,,,,,,,,,,,,,,,,,,,,,,,,,,,,
KBUR,Burbank,,34.1808,-118.3089,2012-06-16 12:53:00,,CLR,10.0,,77,,,,58.0,,52,8.0,170.0,,28.98,,,,,,,,,,,,,,,,,,,,,,,,,,,,,,,,,,,,,,,,,,,,,,,,,,,,,,,,,,,,,,,,,,,,,
KBUR,Burbank,,34.1808,-118.3089,2012-06-16 13:53:00,,CLR,10.0,,78,,,,58.0,,50,8.0,170.0,,28.97,2.0,Falling Rapidly,,,,,,,,,,,,,,,,,,,,,,,,,,,,,,,,,,,,,,,,,,,,,,,,,,,,,,,,,,,,,,,,,,,
KBUR,Burbank,,34.1808,-118.3089,2012-06-16 14:53:00,,CLR,10.0,,78,,,,58.0,,50,10.0,170.0,,28.96,,,,,,,,,,,,,,,,,,,,,,,,,,,,,,,,,,,,,,,,,,,,,,,,,,,,,,,,,,,,,,,,,,,,,
KBUR,Burbank,,34.1808,-118.3089,2012-06-16 15:53:00,,CLR,10.0,,77,,,,58.0,,52,9.0,160.0,,28.95,,,,,,,,,,,,,,,,,,,,,,,,,,,,,,,,,,,,,,,,,,,,,,,,,,,,,,,,,,,,,,,,,,,,,
KBUR,Burbank,,34.1808,-118.3089,2012-06-16 16:53:00,,CLR,10.0,,77,,,,58.0,,52,10.0,180.0,,28.94,2.0,Falling Rapidly,,,,79.0,70.0,,,,,,,,,,,,,,,,,,,,,,,,,,,,,,,,,,,,,,,,,,,,,,,,,,,,,,,,,,,,,,
KBUR,Burbank,,34.1808,-118.3089,2012-06-16 17:53:00,,CLR,10.0,,73,,,,57.0,,57,10.0,180.0,,28.95,,,,,,,,,,,,,,,,,,,,,,,,,,,,,,,,,,,,,,,,,,,,,,,,,,,,,,,,,,,,,,,,,,,,,
KBUR,Burbank,,34.1808,-118.3089,2012-06-16 18:53:00,,CLR,10.0,,71,,,,57.0,,61,7.0,170.0,,28.96,,,,,,,,,,,,,,,,,,,,,,,,,,,,,,,,,,,,,,,,,,,,,,,,,,,,,,,,,,,,,,,,,,,,,
KBUR,Burbank,,34.1808,-118.3089,2012-06-16 19:53:00,,CLR,10.0,,66,,,,56.0,,70,8.0,180.0,,28.99,1.0,Rising Rapidly,,,,,,,,,,,,,,,,,,,,,,,,,,,,,,,,,,,,,,,,,,,,,,,,,,,,,,,,,,,,,,,,,,,
KBUR,Burbank,,34.1808,-118.3089,2012-06-16 20:53:00,,CLR,10.0,,66,,,,56.0,,70,9.0,120.0,,29.01,,,,,,,,,,,,,,,,,,,,,,,,,,,,,,,,,,,,,,,,,,,,,,,,,,,,,,,,,,,,,,,,,,,,,
KBUR,Burbank,,34.1808,-118.3089,2012-06-16 21:53:00,,CLR,10.0,,62,,,,56.0,,80,6.0,180.0,,29.03,,,,,,,,,,,,,,,,,,,,,,,,,,,,,,,,,,,,,,,,,,,,,,,,,,,,,,,,,,,,,,,,,,,,,
KBUR,Burbank,,34.1808,-118.3089,2012-06-16 22:53:00,,CLR,10.0,,61,,,,57.0,,87,5.0,130.0,,29.04,1.0,Rising,,,,76.0,61.0,,,,,,,,,,,,,,,,,,,,,,,,,,,,,,,,,,,,,,,,,,,,,,,,,,,,,,,,,,,,,,
KBUR,Burbank,,34.1808,-118.3089,2012-06-16 23:53:00,,CLR,10.0,,62,,,,57.0,,84,7.0,130.0,,29.05,,,,,,,,,,,,,,,,,,,,,,,,,,,,,,,,,,,,,,,,,,,,,,,,,,,,,,,,,,,,,,,,,,,,,
KBUR,Burbank,,34.1808,-118.3089,2012-06-17 00:53:00,,CLR,10.0,,60,,,,57.0,,90,,,,29.05,,,,,,79.0,60.0,,,,,,,,,,,,,,,,,,,,,,,,,,,,,,,,,,,,,,,,,,,,,,,,,,,,,,,,,,,,,,
KBUR,Burbank,,34.1808,-118.3089,2012-06-17 01:53:00,,CLR,10.0,,60,,,,57.0,,90,,,,29.05,0.0,Steady,,,,,,,,,,,,,,,,,,,,,,,,,,,,,,,,,,,,,,,,,,,,,,,,,,,,,,,,,,,,,,,,,,,
KBUR,Burbank,,34.1808,-118.3089,2012-06-17 02:53:00,,CLR,10.0,,60,,,,56.0,,86,,,,29.03,,,,,,,,,,,,,,,,,,,,,,,,,,,,,,,,,,,,,,,,,,,,,,,,,,,,,,,,,,,,,,,,,,,,,
KBUR,Burbank,,34.1808,-118.3089,2012-06-17 03:53:00,,CLR,10.0,,60,,,,55.0,,83,,,,29.02,,,,,,,,,,,,,,,,,,,,,,,,,,,,,,,,,,,,,,,,,,,,,,,,,,,,,,,,,,,,,,,,,,,,,
KBUR,Burbank,,34.1808,-118.3089,2012-06-17 04:53:00,,CLR,10.0,,59,,,,55.0,,87,,,,29.01,2.0,Falling,,,,62.0,59.0,,,,,,,,,,,,,,,,,,,,,,,,,,,,,,,,,,,,,,,,,,,,,,,,,,,,,,,,,,,,,,
KBUR,Burbank,,34.1808,-118.3089,2012-06-17 05:53:00,,CLR,10.0,,59,,,,54.0,,83,,,,29.03,,,,,,,,,,,,,,,,,,,,,,,,,,,,,,,,,,,,,,,,,,,,,,,,,,,,,,,,,,,,,,,,,,,,,
KBUR,Burbank,,34.1808,-118.3089,2012-06-17 06:53:00,,CLR,10.0,,61,,,,56.0,,83,,,,29.04,,,,,,,,,,,,,,,,,,,,,,,,,,,,,,,,,,,,,,,,,,,,,,,,,,,,,,,,,,,,,,,,,,,,,
KBUR,Burbank,,34.1808,-118.3089,2012-06-17 07:53:00,,CLR,10.0,,63,,,,57.0,,81,3.0,140.0,,29.05,1.0,Rising Rapidly,,,,,,,,,,,,,,,,,,,,,,,,,,,,,,,,,,,,,,,,,,,,,,,,,,,,,,,,,,,,,,,,,,,
KBUR,Burbank,,34.1808,-118.3089,2012-06-17 08:53:00,,CLR,10.0,,67,,,,57.0,,70,6.0,140.0,,29.06,,,,,,,,,,,,,,,,,,,,,,,,,,,,,,,,,,,,,,,,,,,,,,,,,,,,,,,,,,,,,,,,,,,,,
KBUR,Burbank,,34.1808,-118.3089,2012-06-17 09:53:00,,CLR,10.0,,70,,,,58.0,,65,7.0,130.0,,29.06,,,,,,,,,,,,,,,,,,,,,,,,,,,,,,,,,,,,,,,,,,,,,,,,,,,,,,,,,,,,,,,,,,,,,
KBUR,Burbank,,34.1808,-118.3089,2012-06-17 10:53:00,,CLR,10.0,,74,,,,58.0,,57,9.0,130.0,,29.06,1.0,Rising,,,,74.0,59.0,,,,,,,,,,,,,,,,,,,,,,,,,,,,,,,,,,,,,,,,,,,,,,,,,,,,,,,,,,,,,,
KBUR,Burbank,,34.1808,-118.3089,2012-06-17 11:53:00,,CLR,10.0,,78,,,,59.0,,52,10.0,120.0,17.0,29.06,,,,,,,,,,,,,,,,,,,,,,,,,,,,,,,,,,,,,,,,,,,,,,,,,,,,,,,,,,,,,,,,,,,,,
KBUR,Burbank,,34.1808,-118.3089,2012-06-17 12:53:00,,CLR,10.0,,79,,,,59.0,,50,7.0,210.0,,29.05,,,,,,,,,,,,,,,,,,,,,,,,,,,,,,,,,,,,,,,,,,,,,,,,,,,,,,,,,,,,,,,,,,,,,
KBUR,Burbank,,34.1808,-118.3089,2012-06-17 13:53:00,,CLR,10.0,,83,,,,59.0,,44,10.0,130.0,,29.03,2.0,Falling Rapidly,,,,,,,,,,,,,,,,,,,,,,,,,,,,,,,,,,,,,,,,,,,,,,,,,,,,,,,,,,,,,,,,,,,
KBUR,Burbank,,34.1808,-118.3089,2012-06-17 14:53:00,,CLR,10.0,,87,,,,57.0,,36,8.0,120.0,,29.01,,,,,,,,,,,,,,,,,,,,,,,,,,,,,,,,,,,,,,,,,,,,,,,,,,,,,,,,,,,,,,,,,,,,,
KBUR,Burbank,,34.1808,-118.3089,2012-06-17 15:53:00,,CLR,10.0,,88,,,,55.0,,32,9.0,170.0,,28.99,,,,,,,,,,,,,,,,,,,,,,,,,,,,,,,,,,,,,,,,,,,,,,,,,,,,,,,,,,,,,,,,,,,,,
KBUR,Burbank,,34.1808,-118.3089,2012-06-17 16:53:00,,CLR,10.0,,85,,,,56.0,,37,12.0,120.0,,28.98,2.0,Falling,,,,89.0,74.0,,,,,,,,,,,,,,,,,,,,,,,,,,,,,,,,,,,,,,,,,,,,,,,,,,,,,,,,,,,,,,
KBUR,Burbank,,34.1808,-118.3089,2012-06-17 17:53:00,,CLR,10.0,,81,,,,57.0,,44,9.0,150.0,18.0,28.99,,,,,,,,,,,,,,,,,,,,,,,,,,,,,,,,,,,,,,,,,,,,,,,,,,,,,,,,,,,,,,,,,,,,,
KBUR,Burbank,,34.1808,-118.3089,2012-06-17 18:53:00,,CLR,10.0,,78,,,,57.0,,48,10.0,130.0,,28.99,,,,,,,,,,,,,,,,,,,,,,,,,,,,,,,,,,,,,,,,,,,,,,,,,,,,,,,,,,,,,,,,,,,,,
KBUR,Burbank,,34.1808,-118.3089,2012-06-17 19:53:00,,CLR,10.0,,72,,,,58.0,,61,10.0,120.0,,28.99,1.0,Rising,,,,,,,,,,,,,,,,,,,,,,,,,,,,,,,,,,,,,,,,,,,,,,,,,,,,,,,,,,,,,,,,,,,
KBUR,Burbank,,34.1808,-118.3089,2012-06-17 20:53:00,,CLR,10.0,,66,,,,58.0,,75,8.0,120.0,,29.01,,,,,,,,,,,,,,,,,,,,,,,,,,,,,,,,,,,,,,,,,,,,,,,,,,,,,,,,,,,,,,,,,,,,,
KBUR,Burbank,,34.1808,-118.3089,2012-06-17 21:53:00,,CLR,10.0,,64,,,,58.0,,80,8.0,120.0,,29.03,,,,,,,,,,,,,,,,,,,,,,,,,,,,,,,,,,,,,,,,,,,,,,,,,,,,,,,,,,,,,,,,,,,,,
KBUR,Burbank,,34.1808,-118.3089,2012-06-17 22:53:00,,CLR,10.0,,62,,,,58.0,,86,6.0,100.0,,29.04,1.0,Rising,,,,85.0,62.0,,,,,,,,,,,,,,,,,,,,,,,,,,,,,,,,,,,,,,,,,,,,,,,,,,,,,,,,,,,,,,
KBUR,Burbank,,34.1808,-118.3089,2012-06-17 23:53:00,,CLR,8.0,,61,,,,58.0,,90,7.0,130.0,,29.04,,,,,,,,,,,,,,,,,,,,,,,,,,,,,,,,,,,,,,,,,,,,,,,,,,,,,,,,,,,,,,,,,,,,,
KBUR,Burbank,,34.1808,-118.3089,2012-06-18 00:03:00,,SCT,8.0,,61,,,,57.0,,88,7.0,110.0,,29.07,,,,,,,,,,,,,,,,,,,,,,,,,,,,,,,,,,,,,,,,,,,,,,,,,,,,,,,,,,,,,,,,,,,,,
KBUR,Burbank,,34.1808,-118.3089,2012-06-18 00:12:00,,BKN,8.0,,61,,,,57.0,,88,7.0,130.0,,29.08,,,,,,,,,,,,,,,,,,,,,,,,,,,,,,,,,,,,,,,,,,,,,,,,,,,,,,,,,,,,,,,,,,,,,
KBUR,Burbank,,34.1808,-118.3089,2012-06-18 00:53:00,,SCT,7.0,,61,,,,58.0,,90,6.0,140.0,,29.03,,,,,,89.0,59.0,,,,,,,,,,,,,,,,,,,,,,,,,,,,,,,,,,,,,,,,,,,,,,,,,,,,,,,,,,,,,,
KBUR,Burbank,,34.1808,-118.3089,2012-06-18 01:15:00,,BKN,6.0,,61,,,,57.0,,88,6.0,140.0,,29.07,,,,,,,,,,,,,,,,,,,,,,,,,,,,,,,,,,,,,,,,,,,,,,,,,,,,,,,,,,,,,,,,,,,,,
KBUR,Burbank,,34.1808,-118.3089,2012-06-18 01:23:00,,BKN,5.0,,61,,,,57.0,,88,6.0,150.0,,29.06,,,,,,,,,,,,,,,,,,,,,,,,,,,,,,,,,,,,,,,,,,,,,,,,,,,,,,,,,,,,,,,,,,,,,
KBUR,Burbank,,34.1808,-118.3089,2012-06-18 01:53:00,,OVC,5.0,,60,,,,58.0,,93,,,,29.03,2.0,Falling Rapidly,,,,,,,,,,,,,,,,,,,,,,,,,,,,,,,,,,,,,,,,,,,,,,,,,,,,,,,,,,,,,,,,,,,
KBUR,Burbank,,34.1808,-118.3089,2012-06-18 02:53:00,,OVC,4.0,,60,,,,58.0,,93,3.0,160.0,,29.03,,,,,,,,,,,,,,,,,,,,,,,,,,,,,,,,,,,,,,,,,,,,,,,,,,,,,,,,,,,,,,,,,,,,,
KBUR,Burbank,,34.1808,-118.3089,2012-06-18 03:53:00,,OVC,4.0,,59,,,,58.0,,96,3.0,180.0,,29.03,,,,,,,,,,,,,,,,,,,,,,,,,,,,,,,,,,,,,,,,,,,,,,,,,,,,,,,,,,,,,,,,,,,,,
KBUR,Burbank,,34.1808,-118.3089,2012-06-18 04:53:00,,OVC,5.0,,60,,,,57.0,,90,3.0,40.0,,29.03,2.0,Falling Rapidly,,,,62.0,59.0,,,,,,,,,,,,,,,,,,,,,,,,,,,,,,,,,,,,,,,,,,,,,,,,,,,,,,,,,,,,,,
KBUR,Burbank,,34.1808,-118.3089,2012-06-18 04:57:00,,OVC,5.0,,61,,,,57.0,,88,,,,29.06,,,,,,,,,,,,,,,,,,,,,,,,,,,,,,,,,,,,,,,,,,,,,,,,,,,,,,,,,,,,,,,,,,,,,
KBUR,Burbank,,34.1808,-118.3089,2012-06-18 05:53:00,,OVC,3.0,,60,,,,57.0,,90,3.0,,,29.03,,,,,,,,,,,,,,,,,,,,,,,,,,,,,,,,,,,,,,,,,,,,,,,,,,,,,,,,,,,,,,,,,,,,,
KBUR,Burbank,,34.1808,-118.3089,2012-06-18 06:53:00,,OVC,3.0,,60,,,,57.0,,90,,,,29.04,,,,,,,,,,,,,,,,,,,,,,,,,,,,,,,,,,,,,,,,,,,,,,,,,,,,,,,,,,,,,,,,,,,,,
KBUR,Burbank,,34.1808,-118.3089,2012-06-18 07:53:00,,OVC,3.0,,60,,,,57.0,,90,5.0,160.0,,29.06,1.0,Rising Rapidly,,,,,,,,,,,,,,,,,,,,,,,,,,,,,,,,,,,,,,,,,,,,,,,,,,,,,,,,,,,,,,,,,,,
KBUR,Burbank,,34.1808,-118.3089,2012-06-18 08:53:00,,FEW,5.0,,62,,,,57.0,,84,5.0,130.0,,29.07,,,,,,,,,,,,,,,,,,,,,,,,,,,,,,,,,,,,,,,,,,,,,,,,,,,,,,,,,,,,,,,,,,,,,
KBUR,Burbank,,34.1808,-118.3089,2012-06-18 09:53:00,,CLR,5.0,,67,,,,58.0,,73,5.0,150.0,,29.06,,,,,,,,,,,,,,,,,,,,,,,,,,,,,,,,,,,,,,,,,,,,,,,,,,,,,,,,,,,,,,,,,,,,,
KBUR,Burbank,,34.1808,-118.3089,2012-06-18 10:53:00,,CLR,6.0,,72,,,,58.0,,61,8.0,170.0,,29.06,1.0,Rising,,,,72.0,60.0,,,,,,,,,,,,,,,,,,,,,,,,,,,,,,,,,,,,,,,,,,,,,,,,,,,,,,,,,,,,,,
KBUR,Burbank,,34.1808,-118.3089,2012-06-18 11:53:00,,CLR,6.0,,75,,,,58.0,,55,9.0,120.0,,29.05,,,,,,,,,,,,,,,,,,,,,,,,,,,,,,,,,,,,,,,,,,,,,,,,,,,,,,,,,,,,,,,,,,,,,
KBUR,Burbank,,34.1808,-118.3089,2012-06-18 12:53:00,,CLR,6.0,,76,,,,58.0,,54,9.0,160.0,,29.03,,,,,,,,,,,,,,,,,,,,,,,,,,,,,,,,,,,,,,,,,,,,,,,,,,,,,,,,,,,,,,,,,,,,,
KBUR,Burbank,,34.1808,-118.3089,2012-06-18 13:53:00,,CLR,10.0,,77,,,,57.0,,50,8.0,170.0,,29.02,2.0,Falling Rapidly,,,,,,,,,,,,,,,,,,,,,,,,,,,,,,,,,,,,,,,,,,,,,,,,,,,,,,,,,,,,,,,,,,,
KBUR,Burbank,,34.1808,-118.3089,2012-06-18 14:53:00,,CLR,10.0,,78,,,,57.0,,48,13.0,180.0,,29.0,,,,,,,,,,,,,,,,,,,,,,,,,,,,,,,,,,,,,,,,,,,,,,,,,,,,,,,,,,,,,,,,,,,,,
KBUR,Burbank,,34.1808,-118.3089,2012-06-18 15:53:00,,CLR,10.0,,76,,,,56.0,,50,12.0,180.0,,28.99,,,,,,,,,,,,,,,,,,,,,,,,,,,,,,,,,,,,,,,,,,,,,,,,,,,,,,,,,,,,,,,,,,,,,
KBUR,Burbank,,34.1808,-118.3089,2012-06-18 16:53:00,,CLR,10.0,,75,,,,56.0,,51,10.0,170.0,,28.98,2.0,Falling,,,,79.0,71.0,,,,,,,,,,,,,,,,,,,,,,,,,,,,,,,,,,,,,,,,,,,,,,,,,,,,,,,,,,,,,,
KBUR,Burbank,,34.1808,-118.3089,2012-06-18 17:53:00,,CLR,10.0,,73,,,,56.0,,55,10.0,180.0,,28.97,,,,,,,,,,,,,,,,,,,,,,,,,,,,,,,,,,,,,,,,,,,,,,,,,,,,,,,,,,,,,,,,,,,,,
KBUR,Burbank,,34.1808,-118.3089,2012-06-18 18:53:00,,CLR,10.0,,69,,,,56.0,,63,7.0,170.0,,28.98,,,,,,,,,,,,,,,,,,,,,,,,,,,,,,,,,,,,,,,,,,,,,,,,,,,,,,,,,,,,,,,,,,,,,
KBUR,Burbank,,34.1808,-118.3089,2012-06-18 19:53:00,,CLR,10.0,,66,,,,56.0,,70,8.0,120.0,,28.99,1.0,Rising Rapidly,,,,,,,,,,,,,,,,,,,,,,,,,,,,,,,,,,,,,,,,,,,,,,,,,,,,,,,,,,,,,,,,,,,
KBUR,Burbank,,34.1808,-118.3089,2012-06-18 20:53:00,,CLR,10.0,,64,,,,56.0,,75,8.0,120.0,,29.0,,,,,,,,,,,,,,,,,,,,,,,,,,,,,,,,,,,,,,,,,,,,,,,,,,,,,,,,,,,,,,,,,,,,,
KBUR,Burbank,,34.1808,-118.3089,2012-06-18 21:53:00,,CLR,10.0,,62,,,,56.0,,80,7.0,110.0,,29.01,,,,,,,,,,,,,,,,,,,,,,,,,,,,,,,,,,,,,,,,,,,,,,,,,,,,,,,,,,,,,,,,,,,,,
KBUR,Burbank,,34.1808,-118.3089,2012-06-18 22:53:00,,CLR,10.0,,61,,,,56.0,,83,6.0,120.0,,29.02,1.0,Rising Rapidly,,,,75.0,61.0,,,,,,,,,,,,,,,,,,,,,,,,,,,,,,,,,,,,,,,,,,,,,,,,,,,,,,,,,,,,,,
KBUR,Burbank,,34.1808,-118.3089,2012-06-18 23:04:00,,FEW,10.0,,61,,,,55.0,,82,7.0,110.0,,29.05,,,,,,,,,,,,,,,,,,,,,,,,,,,,,,,,,,,,,,,,,,,,,,,,,,,,,,,,,,,,,,,,,,,,,
KBUR,Burbank,,34.1808,-118.3089,2012-06-18 23:28:00,,BKN,10.0,,61,,,,55.0,,82,8.0,110.0,,29.05,,,,,,,,,,,,,,,,,,,,,,,,,,,,,,,,,,,,,,,,,,,,,,,,,,,,,,,,,,,,,,,,,,,,,
KBUR,Burbank,,34.1808,-118.3089,2012-06-18 23:53:00,,OVC,10.0,,60,,,,56.0,,86,9.0,110.0,,29.02,,,,,,,,,,,,,,,,,,,,,,,,,,,,,,,,,,,,,,,,,,,,,,,,,,,,,,,,,,,,,,,,,,,,,
KBUR,Burbank,,34.1808,-118.3089,2012-06-19 00:53:00,,OVC,9.0,,60,,,,56.0,,86,6.0,130.0,,29.03,,,,,,79.0,59.0,,,,,,,,,,,,,,,,,,,,,,,,,,,,,,,,,,,,,,,,,,,,,,,,,,,,,,,,,,,,,,
KBUR,Burbank,,34.1808,-118.3089,2012-06-19 01:53:00,,OVC,10.0,,60,,,,56.0,,86,6.0,150.0,,29.03,1.0,Rising,,,,,,,,,,,,,,,,,,,,,,,,,,,,,,,,,,,,,,,,,,,,,,,,,,,,,,,,,,,,,,,,,,,
KBUR,Burbank,,34.1808,-118.3089,2012-06-19 02:53:00,,OVC,10.0,,59,,,,55.0,,87,6.0,170.0,,29.03,,,,,,,,,,,,,,,,,,,,,,,,,,,,,,,,,,,,,,,,,,,,,,,,,,,,,,,,,,,,,,,,,,,,,
KBUR,Burbank,,34.1808,-118.3089,2012-06-19 03:53:00,,OVC,9.0,,59,,,,55.0,,87,5.0,170.0,,29.03,,,,,,,,,,,,,,,,,,,,,,,,,,,,,,,,,,,,,,,,,,,,,,,,,,,,,,,,,,,,,,,,,,,,,
KBUR,Burbank,,34.1808,-118.3089,2012-06-19 04:53:00,,OVC,8.0,,59,,,,55.0,,87,6.0,140.0,,29.03,0.0,Steady,,,,61.0,58.0,,,,,,,,,,,,,,,,,,,,,,,,,,,,,,,,,,,,,,,,,,,,,,,,,,,,,,,,,,,,,,
KBUR,Burbank,,34.1808,-118.3089,2012-06-19 05:53:00,,OVC,4.0,,59,,,,55.0,,87,6.0,170.0,,29.04,,,,,,,,,,,,,,,,,,,,,,,,,,,,,,,,,,,,,,,,,,,,,,,,,,,,,,,,,,,,,,,,,,,,,
KBUR,Burbank,,34.1808,-118.3089,2012-06-19 06:53:00,,OVC,5.0,,59,,,,55.0,,87,3.0,190.0,,29.05,,,,,,,,,,,,,,,,,,,,,,,,,,,,,,,,,,,,,,,,,,,,,,,,,,,,,,,,,,,,,,,,,,,,,
KBUR,Burbank,,34.1808,-118.3089,2012-06-19 07:53:00,,OVC,6.0,,61,,,,55.0,,81,3.0,180.0,,29.06,1.0,Rising,,,,,,,,,,,,,,,,,,,,,,,,,,,,,,,,,,,,,,,,,,,,,,,,,,,,,,,,,,,,,,,,,,,
KBUR,Burbank,,34.1808,-118.3089,2012-06-19 08:53:00,,OVC,6.0,,62,,,,55.0,,78,5.0,150.0,,29.06,,,,,,,,,,,,,,,,,,,,,,,,,,,,,,,,,,,,,,,,,,,,,,,,,,,,,,,,,,,,,,,,,,,,,
KBUR,Burbank,,34.1808,-118.3089,2012-06-19 09:53:00,,SCT,7.0,,65,,,,55.0,,70,8.0,140.0,,29.05,,,,,,,,,,,,,,,,,,,,,,,,,,,,,,,,,,,,,,,,,,,,,,,,,,,,,,,,,,,,,,,,,,,,,
KBUR,Burbank,,34.1808,-118.3089,2012-06-19 10:53:00,,CLR,10.0,,68,,,,55.0,,63,7.0,140.0,,29.04,2.0,Falling Rapidly,,,,69.0,59.0,,,,,,,,,,,,,,,,,,,,,,,,,,,,,,,,,,,,,,,,,,,,,,,,,,,,,,,,,,,,,,
KBUR,Burbank,,34.1808,-118.3089,2012-06-19 11:53:00,,CLR,8.0,,70,,,,55.0,,59,10.0,180.0,16.0,29.03,,,,,,,,,,,,,,,,,,,,,,,,,,,,,,,,,,,,,,,,,,,,,,,,,,,,,,,,,,,,,,,,,,,,,
KBUR,Burbank,,34.1808,-118.3089,2012-06-19 12:53:00,,CLR,10.0,,73,,,,55.0,,53,9.0,180.0,,29.01,,,,,,,,,,,,,,,,,,,,,,,,,,,,,,,,,,,,,,,,,,,,,,,,,,,,,,,,,,,,,,,,,,,,,
KBUR,Burbank,,34.1808,-118.3089,2012-06-19 13:53:00,,CLR,10.0,,74,,,,55.0,,52,9.0,210.0,,29.0,2.0,Falling Rapidly,,,,,,,,,,,,,,,,,,,,,,,,,,,,,,,,,,,,,,,,,,,,,,,,,,,,,,,,,,,,,,,,,,,
KBUR,Burbank,,34.1808,-118.3089,2012-06-19 14:53:00,,CLR,10.0,,75,,,,55.0,,50,13.0,190.0,,28.98,,,,,,,,,,,,,,,,,,,,,,,,,,,,,,,,,,,,,,,,,,,,,,,,,,,,,,,,,,,,,,,,,,,,,
KBUR,Burbank,,34.1808,-118.3089,2012-06-19 15:53:00,,CLR,10.0,,74,,,,55.0,,52,10.0,160.0,,28.97,,,,,,,,,,,,,,,,,,,,,,,,,,,,,,,,,,,,,,,,,,,,,,,,,,,,,,,,,,,,,,,,,,,,,
KBUR,Burbank,,34.1808,-118.3089,2012-06-19 16:53:00,,CLR,10.0,,73,,,,55.0,,53,13.0,180.0,,28.96,2.0,Falling,,,,77.0,68.0,,,,,,,,,,,,,,,,,,,,,,,,,,,,,,,,,,,,,,,,,,,,,,,,,,,,,,,,,,,,,,
KBUR,Burbank,,34.1808,-118.3089,2012-06-19 17:53:00,,CLR,10.0,,71,,,,55.0,,57,13.0,180.0,,28.95,,,,,,,,,,,,,,,,,,,,,,,,,,,,,,,,,,,,,,,,,,,,,,,,,,,,,,,,,,,,,,,,,,,,,
KBUR,Burbank,,34.1808,-118.3089,2012-06-19 18:53:00,,CLR,10.0,,68,,,,55.0,,63,10.0,170.0,,28.95,,,,,,,,,,,,,,,,,,,,,,,,,,,,,,,,,,,,,,,,,,,,,,,,,,,,,,,,,,,,,,,,,,,,,
KBUR,Burbank,,34.1808,-118.3089,2012-06-19 19:53:00,,CLR,10.0,,64,,,,55.0,,72,9.0,180.0,,28.97,1.0,Rising Rapidly,,,,,,,,,,,,,,,,,,,,,,,,,,,,,,,,,,,,,,,,,,,,,,,,,,,,,,,,,,,,,,,,,,,
KBUR,Burbank,,34.1808,-118.3089,2012-06-19 20:53:00,,CLR,10.0,,62,,,,55.0,,78,8.0,180.0,,28.97,,,,,,,,,,,,,,,,,,,,,,,,,,,,,,,,,,,,,,,,,,,,,,,,,,,,,,,,,,,,,,,,,,,,,
KBUR,Burbank,,34.1808,-118.3089,2012-06-19 21:53:00,,CLR,10.0,,61,,,,55.0,,81,6.0,180.0,,28.98,,,,,,,,,,,,,,,,,,,,,,,,,,,,,,,,,,,,,,,,,,,,,,,,,,,,,,,,,,,,,,,,,,,,,
KBUR,Burbank,,34.1808,-118.3089,2012-06-19 22:53:00,,CLR,10.0,,60,,,,55.0,,83,3.0,180.0,,28.99,1.0,Rising,,,,73.0,60.0,,,,,,,,,,,,,,,,,,,,,,,,,,,,,,,,,,,,,,,,,,,,,,,,,,,,,,,,,,,,,,
KBUR,Burbank,,34.1808,-118.3089,2012-06-19 23:53:00,,CLR,10.0,,59,,,,55.0,,87,3.0,180.0,,28.98,,,,,,,,,,,,,,,,,,,,,,,,,,,,,,,,,,,,,,,,,,,,,,,,,,,,,,,,,,,,,,,,,,,,,
KBUR,Burbank,,34.1808,-118.3089,2012-06-20 00:53:00,,CLR,10.0,,58,,,,55.0,,90,5.0,180.0,,28.98,,,,,,77.0,58.0,,,,,,,,,,,,,,,,,,,,,,,,,,,,,,,,,,,,,,,,,,,,,,,,,,,,,,,,,,,,,,
KBUR,Burbank,,34.1808,-118.3089,2012-06-20 01:24:00,,BKN,9.0,,57,,,,55.0,,94,5.0,180.0,,29.01,,,,,,,,,,,,,,,,,,,,,,,,,,,,,,,,,,,,,,,,,,,,,,,,,,,,,,,,,,,,,,,,,,,,,
KBUR,Burbank,,34.1808,-118.3089,2012-06-20 01:53:00,,OVC,10.0,,58,,,,55.0,,90,3.0,180.0,,28.98,2.0,Falling,,,,,,,,,,,,,,,,,,,,,,,,,,,,,,,,,,,,,,,,,,,,,,,,,,,,,,,,,,,,,,,,,,,
KBUR,Burbank,,34.1808,-118.3089,2012-06-20 02:35:00,,OVC,10.0,,57,,,,55.0,,94,,,,28.99,,,,,,,,,,,,,,,,,,,,,,,,,,,,,,,,,,,,,,,,,,,,,,,,,,,,,,,,,,,,,,,,,,,,,
KBUR,Burbank,,34.1808,-118.3089,2012-06-20 02:53:00,,OVC,10.0,,58,,,,55.0,,90,5.0,200.0,,28.97,,,,,,,,,,,,,,,,,,,,,,,,,,,,,,,,,,,,,,,,,,,,,,,,,,,,,,,,,,,,,,,,,,,,,
KBUR,Burbank,,34.1808,-118.3089,2012-06-20 03:53:00,,OVC,9.0,,58,,,,55.0,,90,3.0,110.0,,28.97,,,,,,,,,,,,,,,,,,,,,,,,,,,,,,,,,,,,,,,,,,,,,,,,,,,,,,,,,,,,,,,,,,,,,
KBUR,Burbank,,34.1808,-118.3089,2012-06-20 04:53:00,,OVC,9.0,,58,,,,55.0,,90,5.0,130.0,,28.98,0.0,Steady,,,,60.0,58.0,,,,,,,,,,,,,,,,,,,,,,,,,,,,,,,,,,,,,,,,,,,,,,,,,,,,,,,,,,,,,,
KBUR,Burbank,,34.1808,-118.3089,2012-06-20 05:53:00,,OVC,8.0,,59,,,,55.0,,87,3.0,170.0,,28.98,,,,,,,,,,,,,,,,,,,,,,,,,,,,,,,,,,,,,,,,,,,,,,,,,,,,,,,,,,,,,,,,,,,,,
KBUR,Burbank,,34.1808,-118.3089,2012-06-20 06:53:00,,OVC,6.0,,59,,,,55.0,,87,5.0,90.0,,28.99,,,,,,,,,,,,,,,,,,,,,,,,,,,,,,,,,,,,,,,,,,,,,,,,,,,,,,,,,,,,,,,,,,,,,
KBUR,Burbank,,34.1808,-118.3089,2012-06-20 07:53:00,,OVC,4.0,,59,,,,55.0,,87,,,,29.01,1.0,Rising Rapidly,,,,,,,,,,,,,,,,,,,,,,,,,,,,,,,,,,,,,,,,,,,,,,,,,,,,,,,,,,,,,,,,,,,
KBUR,Burbank,,34.1808,-118.3089,2012-06-20 08:53:00,,OVC,5.0,,60,,,,55.0,,83,,,,29.01,,,,,,,,,,,,,,,,,,,,,,,,,,,,,,,,,,,,,,,,,,,,,,,,,,,,,,,,,,,,,,,,,,,,,
KBUR,Burbank,,34.1808,-118.3089,2012-06-20 09:53:00,,OVC,6.0,,63,,,,55.0,,75,6.0,200.0,,29.0,,,,,,,,,,,,,,,,,,,,,,,,,,,,,,,,,,,,,,,,,,,,,,,,,,,,,,,,,,,,,,,,,,,,,
KBUR,Burbank,,34.1808,-118.3089,2012-06-20 10:15:00,,SCT,7.0,,64,,,,55.0,,73,,,,29.03,,,,,,,,,,,,,,,,,,,,,,,,,,,,,,,,,,,,,,,,,,,,,,,,,,,,,,,,,,,,,,,,,,,,,
KBUR,Burbank,,34.1808,-118.3089,2012-06-20 10:53:00,,CLR,5.0,,67,,,,56.0,,68,,,,29.0,2.0,Falling Rapidly,,,,68.0,59.0,,,,,,,,,,,,,,,,,,,,,,,,,,,,,,,,,,,,,,,,,,,,,,,,,,,,,,,,,,,,,,
KBUR,Burbank,,34.1808,-118.3089,2012-06-20 11:53:00,,CLR,9.0,,72,,,,56.0,,57,6.0,200.0,,28.99,,,,,,,,,,,,,,,,,,,,,,,,,,,,,,,,,,,,,,,,,,,,,,,,,,,,,,,,,,,,,,,,,,,,,
KBUR,Burbank,,34.1808,-118.3089,2012-06-20 12:53:00,,CLR,7.0,,74,,,,56.0,,53,8.0,170.0,,28.98,,,,,,,,,,,,,,,,,,,,,,,,,,,,,,,,,,,,,,,,,,,,,,,,,,,,,,,,,,,,,,,,,,,,,
KBUR,Burbank,,34.1808,-118.3089,2012-06-20 13:53:00,,CLR,10.0,,75,,,,56.0,,51,7.0,,,28.97,2.0,Falling,,,,,,,,,,,,,,,,,,,,,,,,,,,,,,,,,,,,,,,,,,,,,,,,,,,,,,,,,,,,,,,,,,,
KBUR,Burbank,,34.1808,-118.3089,2012-06-20 14:53:00,,CLR,10.0,,77,,,,56.0,,48,,,,28.97,,,,,,,,,,,,,,,,,,,,,,,,,,,,,,,,,,,,,,,,,,,,,,,,,,,,,,,,,,,,,,,,,,,,,
KBUR,Burbank,,34.1808,-118.3089,2012-06-20 15:53:00,,CLR,10.0,,78,,,,57.0,,48,7.0,,,28.95,,,,,,,,,,,,,,,,,,,,,,,,,,,,,,,,,,,,,,,,,,,,,,,,,,,,,,,,,,,,,,,,,,,,,
KBUR,Burbank,,34.1808,-118.3089,2012-06-20 16:53:00,,CLR,10.0,,78,,,,56.0,,46,8.0,150.0,,28.95,2.0,Falling Rapidly,,,,79.0,66.0,,,,,,,,,,,,,,,,,,,,,,,,,,,,,,,,,,,,,,,,,,,,,,,,,,,,,,,,,,,,,,
KBUR,Burbank,,34.1808,-118.3089,2012-06-20 17:53:00,,CLR,10.0,,77,,,,53.0,,43,9.0,150.0,,28.94,,,,,,,,,,,,,,,,,,,,,,,,,,,,,,,,,,,,,,,,,,,,,,,,,,,,,,,,,,,,,,,,,,,,,
KBUR,Burbank,,34.1808,-118.3089,2012-06-20 18:53:00,,CLR,10.0,,73,,,,55.0,,53,10.0,180.0,,28.95,,,,,,,,,,,,,,,,,,,,,,,,,,,,,,,,,,,,,,,,,,,,,,,,,,,,,,,,,,,,,,,,,,,,,
KBUR,Burbank,,34.1808,-118.3089,2012-06-20 19:53:00,,CLR,10.0,,69,,,,55.0,,61,7.0,180.0,,28.97,1.0,Rising Rapidly,,,,,,,,,,,,,,,,,,,,,,,,,,,,,,,,,,,,,,,,,,,,,,,,,,,,,,,,,,,,,,,,,,,
KBUR,Burbank,,34.1808,-118.3089,2012-06-20 20:53:00,,CLR,10.0,,66,,,,55.0,,68,5.0,180.0,,28.98,,,,,,,,,,,,,,,,,,,,,,,,,,,,,,,,,,,,,,,,,,,,,,,,,,,,,,,,,,,,,,,,,,,,,
KBUR,Burbank,,34.1808,-118.3089,2012-06-20 21:53:00,,CLR,10.0,,64,,,,55.0,,72,7.0,180.0,,28.99,,,,,,,,,,,,,,,,,,,,,,,,,,,,,,,,,,,,,,,,,,,,,,,,,,,,,,,,,,,,,,,,,,,,,
KBUR,Burbank,,34.1808,-118.3089,2012-06-20 22:53:00,,CLR,10.0,,63,,,,55.0,,75,5.0,180.0,,29.0,1.0,Rising,,,,79.0,63.0,,,,,,,,,,,,,,,,,,,,,,,,,,,,,,,,,,,,,,,,,,,,,,,,,,,,,,,,,,,,,,
KBUR,Burbank,,34.1808,-118.3089,2012-06-20 23:53:00,,CLR,10.0,,63,,,,56.0,,78,7.0,140.0,,29.0,,,,,,,,,,,,,,,,,,,,,,,,,,,,,,,,,,,,,,,,,,,,,,,,,,,,,,,,,,,,,,,,,,,,,
KBUR,Burbank,,34.1808,-118.3089,2012-06-21 00:53:00,,FEW,8.0,,59,,,,56.0,,90,6.0,180.0,,29.01,,,,,,79.0,58.0,,,,,,,,,,,,,,,,,,,,,,,,,,,,,,,,,,,,,,,,,,,,,,,,,,,,,,,,,,,,,,
KBUR,Burbank,,34.1808,-118.3089,2012-06-21 01:06:00,,BKN,8.0,,61,,,,55.0,,82,5.0,190.0,,29.03,,,,,,,,,,,,,,,,,,,,,,,,,,,,,,,,,,,,,,,,,,,,,,,,,,,,,,,,,,,,,,,,,,,,,
KBUR,Burbank,,34.1808,-118.3089,2012-06-21 01:53:00,,OVC,8.0,,60,,,,56.0,,86,7.0,150.0,,29.0,0.0,Steady,,,,,,,,,,,,,,,,,,,,,,,,,,,,,,,,,,,,,,,,,,,,,,,,,,,,,,,,,,,,,,,,,,,
KBUR,Burbank,,34.1808,-118.3089,2012-06-21 02:53:00,,OVC,8.0,,60,,,,56.0,,86,8.0,130.0,,29.0,,,,,,,,,,,,,,,,,,,,,,,,,,,,,,,,,,,,,,,,,,,,,,,,,,,,,,,,,,,,,,,,,,,,,
KBUR,Burbank,,34.1808,-118.3089,2012-06-21 03:53:00,,OVC,7.0,,60,,,,56.0,,86,7.0,130.0,,29.0,,,,,,,,,,,,,,,,,,,,,,,,,,,,,,,,,,,,,,,,,,,,,,,,,,,,,,,,,,,,,,,,,,,,,
KBUR,Burbank,,34.1808,-118.3089,2012-06-21 04:53:00,,OVC,7.0,,59,,,,56.0,,90,5.0,170.0,,29.0,1.0,Rising Rapidly,,,,63.0,59.0,,,,,,,,,,,,,,,,,,,,,,,,,,,,,,,,,,,,,,,,,,,,,,,,,,,,,,,,,,,,,,
KBUR,Burbank,,34.1808,-118.3089,2012-06-21 05:53:00,,OVC,7.0,,58,,,,56.0,,93,3.0,220.0,,29.02,,,,,,,,,,,,,,,,,,,,,,,,,,,,,,,,,,,,,,,,,,,,,,,,,,,,,,,,,,,,,,,,,,,,,
KBUR,Burbank,,34.1808,-118.3089,2012-06-21 06:07:00,,OVC,4.0,,59,,,,55.0,,88,5.0,190.0,,29.05,,,,,,,,,,,,,,,,,,,,,,,,,,,,,,,,,,,,,,,,,,,,,,,,,,,,,,,,,,,,,,,,,,,,,
KBUR,Burbank,,34.1808,-118.3089,2012-06-21 06:53:00,,OVC,4.0,,59,,,,55.0,,87,6.0,190.0,,29.03,,,,,,,,,,,,,,,,,,,,,,,,,,,,,,,,,,,,,,,,,,,,,,,,,,,,,,,,,,,,,,,,,,,,,
KBUR,Burbank,,34.1808,-118.3089,2012-06-21 07:53:00,,OVC,4.0,,59,,,,56.0,,90,,,,29.04,1.0,Rising,,,,,,,,,,,,,,,,,,,,,,,,,,,,,,,,,,,,,,,,,,,,,,,,,,,,,,,,,,,,,,,,,,,
KBUR,Burbank,,34.1808,-118.3089,2012-06-21 08:53:00,,OVC,5.0,,60,,,,56.0,,86,,,,29.07,,,,,,,,,,,,,,,,,,,,,,,,,,,,,,,,,,,,,,,,,,,,,,,,,,,,,,,,,,,,,,,,,,,,,
KBUR,Burbank,,34.1808,-118.3089,2012-06-21 09:26:00,,OVC,5.0,,61,,,,55.0,,82,3.0,210.0,,29.1,,,,,,,,,,,,,,,,,,,,,,,,,,,,,,,,,,,,,,,,,,,,,,,,,,,,,,,,,,,,,,,,,,,,,
KBUR,Burbank,,34.1808,-118.3089,2012-06-21 09:53:00,,OVC,5.0,,62,,,,56.0,,80,,,,29.07,,,,,,,,,,,,,,,,,,,,,,,,,,,,,,,,,,,,,,,,,,,,,,,,,,,,,,,,,,,,,,,,,,,,,
KBUR,Burbank,,34.1808,-118.3089,2012-06-21 10:38:00,,FEW,6.0,,66,,,,55.0,,68,,,,29.09,,,,,,,,,,,,,,,,,,,,,,,,,,,,,,,,,,,,,,,,,,,,,,,,,,,,,,,,,,,,,,,,,,,,,
KBUR,Burbank,,34.1808,-118.3089,2012-06-21 10:53:00,,CLR,7.0,,66,,,,56.0,,70,3.0,,,29.06,0.0,Steady,,,,67.0,58.0,,,,,,,,,,,,,,,,,,,,,,,,,,,,,,,,,,,,,,,,,,,,,,,,,,,,,,,,,,,,,,
KBUR,Burbank,,34.1808,-118.3089,2012-06-21 11:53:00,,CLR,7.0,,72,,,,57.0,,59,6.0,,,29.05,,,,,,,,,,,,,,,,,,,,,,,,,,,,,,,,,,,,,,,,,,,,,,,,,,,,,,,,,,,,,,,,,,,,,
KBUR,Burbank,,34.1808,-118.3089,2012-06-21 12:53:00,,CLR,10.0,,74,,,,56.0,,53,7.0,200.0,,29.04,,,,,,,,,,,,,,,,,,,,,,,,,,,,,,,,,,,,,,,,,,,,,,,,,,,,,,,,,,,,,,,,,,,,,
KBUR,Burbank,,34.1808,-118.3089,2012-06-21 13:53:00,,CLR,10.0,,75,,,,57.0,,53,8.0,180.0,16.0,29.03,2.0,Falling,,,,,,,,,,,,,,,,,,,,,,,,,,,,,,,,,,,,,,,,,,,,,,,,,,,,,,,,,,,,,,,,,,,
KBUR,Burbank,,34.1808,-118.3089,2012-06-21 14:53:00,,CLR,10.0,,75,,,,56.0,,51,13.0,180.0,,29.02,,,,,,,,,,,,,,,,,,,,,,,,,,,,,,,,,,,,,,,,,,,,,,,,,,,,,,,,,,,,,,,,,,,,,
KBUR,Burbank,,34.1808,-118.3089,2012-06-21 15:53:00,,CLR,10.0,,75,,,,56.0,,51,10.0,180.0,,29.01,,,,,,,,,,,,,,,,,,,,,,,,,,,,,,,,,,,,,,,,,,,,,,,,,,,,,,,,,,,,,,,,,,,,,
KBUR,Burbank,,34.1808,-118.3089,2012-06-21 16:53:00,,CLR,10.0,,74,,,,56.0,,53,13.0,180.0,,29.0,2.0,Falling,,,,77.0,66.0,,,,,,,,,,,,,,,,,,,,,,,,,,,,,,,,,,,,,,,,,,,,,,,,,,,,,,,,,,,,,,
KBUR,Burbank,,34.1808,-118.3089,2012-06-21 17:53:00,,CLR,10.0,,71,,,,55.0,,57,12.0,180.0,,29.0,,,,,,,,,,,,,,,,,,,,,,,,,,,,,,,,,,,,,,,,,,,,,,,,,,,,,,,,,,,,,,,,,,,,,
KBUR,Burbank,,34.1808,-118.3089,2012-06-21 18:53:00,,CLR,10.0,,69,,,,55.0,,61,10.0,180.0,,29.01,,,,,,,,,,,,,,,,,,,,,,,,,,,,,,,,,,,,,,,,,,,,,,,,,,,,,,,,,,,,,,,,,,,,,
KBUR,Burbank,,34.1808,-118.3089,2012-06-21 19:53:00,,CLR,10.0,,65,,,,55.0,,70,7.0,180.0,,29.02,1.0,Rising Rapidly,,,,,,,,,,,,,,,,,,,,,,,,,,,,,,,,,,,,,,,,,,,,,,,,,,,,,,,,,,,,,,,,,,,
KBUR,Burbank,,34.1808,-118.3089,2012-06-21 20:53:00,,CLR,10.0,,63,,,,55.0,,75,8.0,120.0,,29.03,,,,,,,,,,,,,,,,,,,,,,,,,,,,,,,,,,,,,,,,,,,,,,,,,,,,,,,,,,,,,,,,,,,,,
KBUR,Burbank,,34.1808,-118.3089,2012-06-21 21:53:00,,CLR,10.0,,61,,,,55.0,,81,8.0,130.0,,29.04,,,,,,,,,,,,,,,,,,,,,,,,,,,,,,,,,,,,,,,,,,,,,,,,,,,,,,,,,,,,,,,,,,,,,
KBUR,Burbank,,34.1808,-118.3089,2012-06-21 22:53:00,,CLR,10.0,,60,,,,55.0,,83,5.0,190.0,,29.04,1.0,Rising,,,,74.0,59.0,,,,,,,,,,,,,,,,,,,,,,,,,,,,,,,,,,,,,,,,,,,,,,,,,,,,,,,,,,,,,,
KBUR,Burbank,,34.1808,-118.3089,2012-06-21 23:53:00,,CLR,10.0,,59,,,,55.0,,87,5.0,180.0,,29.03,,,,,,,,,,,,,,,,,,,,,,,,,,,,,,,,,,,,,,,,,,,,,,,,,,,,,,,,,,,,,,,,,,,,,
KBUR,Burbank,,34.1808,-118.3089,2012-06-22 00:53:00,,CLR,10.0,,59,,,,55.0,,87,6.0,,,29.03,,,,,,77.0,58.0,,,,,,,,,,,,,,,,,,,,,,,,,,,,,,,,,,,,,,,,,,,,,,,,,,,,,,,,,,,,,,
KBUR,Burbank,,34.1808,-118.3089,2012-06-22 01:46:00,,SCT,9.0,,57,,,,55.0,,94,3.0,190.0,,29.06,,,,,,,,,,,,,,,,,,,,,,,,,,,,,,,,,,,,,,,,,,,,,,,,,,,,,,,,,,,,,,,,,,,,,
KBUR,Burbank,,34.1808,-118.3089,2012-06-22 01:53:00,,BKN,9.0,,58,,,,55.0,,90,3.0,190.0,,29.02,2.0,Falling Rapidly,,,,,,,,,,,,,,,,,,,,,,,,,,,,,,,,,,,,,,,,,,,,,,,,,,,,,,,,,,,,,,,,,,,
KBUR,Burbank,,34.1808,-118.3089,2012-06-22 02:53:00,,OVC,8.0,,58,,,,55.0,,90,5.0,160.0,,29.02,,,,,,,,,,,,,,,,,,,,,,,,,,,,,,,,,,,,,,,,,,,,,,,,,,,,,,,,,,,,,,,,,,,,,
KBUR,Burbank,,34.1808,-118.3089,2012-06-22 03:53:00,,OVC,8.0,,58,,,,55.0,,90,3.0,110.0,,29.03,,,,,,,,,,,,,,,,,,,,,,,,,,,,,,,,,,,,,,,,,,,,,,,,,,,,,,,,,,,,,,,,,,,,,
KBUR,Burbank,,34.1808,-118.3089,2012-06-22 04:53:00,,OVC,8.0,,59,,,,55.0,,87,6.0,160.0,,29.03,1.0,Rising Rapidly,,,,60.0,58.0,,,,,,,,,,,,,,,,,,,,,,,,,,,,,,,,,,,,,,,,,,,,,,,,,,,,,,,,,,,,,,
KBUR,Burbank,,34.1808,-118.3089,2012-06-22 05:53:00,,OVC,7.0,,58,,,,55.0,,90,6.0,160.0,,29.05,,,,,,,,,,,,,,,,,,,,,,,,,,,,,,,,,,,,,,,,,,,,,,,,,,,,,,,,,,,,,,,,,,,,,
KBUR,Burbank,,34.1808,-118.3089,2012-06-22 06:53:00,,OVC,5.0,,58,,,,55.0,,90,3.0,170.0,,29.05,,,,,,,,,,,,,,,,,,,,,,,,,,,,,,,,,,,,,,,,,,,,,,,,,,,,,,,,,,,,,,,,,,,,,
KBUR,Burbank,,34.1808,-118.3089,2012-06-22 07:53:00,,OVC,4.0,,59,,,,55.0,,87,3.0,180.0,,29.07,1.0,Rising,,,,,,,,,,,,,,,,,,,,,,,,,,,,,,,,,,,,,,,,,,,,,,,,,,,,,,,,,,,,,,,,,,,
KBUR,Burbank,,34.1808,-118.3089,2012-06-22 08:53:00,,OVC,4.0,,60,,,,55.0,,83,,,,29.07,,,,,,,,,,,,,,,,,,,,,,,,,,,,,,,,,,,,,,,,,,,,,,,,,,,,,,,,,,,,,,,,,,,,,
KBUR,Burbank,,34.1808,-118.3089,2012-06-22 09:29:00,,OVC,4.0,,61,,,,55.0,,82,,,,29.1,,,,,,,,,,,,,,,,,,,,,,,,,,,,,,,,,,,,,,,,,,,,,,,,,,,,,,,,,,,,,,,,,,,,,
KBUR,Burbank,,34.1808,-118.3089,2012-06-22 09:53:00,,OVC,4.0,,62,,,,56.0,,80,,,,29.07,,,,,,,,,,,,,,,,,,,,,,,,,,,,,,,,,,,,,,,,,,,,,,,,,,,,,,,,,,,,,,,,,,,,,
KBUR,Burbank,,34.1808,-118.3089,2012-06-22 10:26:00,,SCT,6.0,,64,,,,55.0,,73,,,,29.09,,,,,,,,,,,,,,,,,,,,,,,,,,,,,,,,,,,,,,,,,,,,,,,,,,,,,,,,,,,,,,,,,,,,,
KBUR,Burbank,,34.1808,-118.3089,2012-06-22 10:53:00,,CLR,5.0,,67,,,,56.0,,68,6.0,140.0,,29.05,2.0,Falling Rapidly,,,,67.0,58.0,,,,,,,,,,,,,,,,,,,,,,,,,,,,,,,,,,,,,,,,,,,,,,,,,,,,,,,,,,,,,,
KBUR,Burbank,,34.1808,-118.3089,2012-06-22 11:53:00,,CLR,8.0,,71,,,,56.0,,59,7.0,210.0,,29.04,,,,,,,,,,,,,,,,,,,,,,,,,,,,,,,,,,,,,,,,,,,,,,,,,,,,,,,,,,,,,,,,,,,,,
KBUR,Burbank,,34.1808,-118.3089,2012-06-22 12:53:00,,CLR,10.0,,73,,,,56.0,,55,9.0,170.0,,29.03,,,,,,,,,,,,,,,,,,,,,,,,,,,,,,,,,,,,,,,,,,,,,,,,,,,,,,,,,,,,,,,,,,,,,
KBUR,Burbank,,34.1808,-118.3089,2012-06-22 13:53:00,,CLR,10.0,,75,,,,56.0,,51,9.0,150.0,,29.01,2.0,Falling Rapidly,,,,,,,,,,,,,,,,,,,,,,,,,,,,,,,,,,,,,,,,,,,,,,,,,,,,,,,,,,,,,,,,,,,
KBUR,Burbank,,34.1808,-118.3089,2012-06-22 14:53:00,,CLR,10.0,,75,,,,55.0,,50,10.0,160.0,,28.99,,,,,,,,,,,,,,,,,,,,,,,,,,,,,,,,,,,,,,,,,,,,,,,,,,,,,,,,,,,,,,,,,,,,,
KBUR,Burbank,,34.1808,-118.3089,2012-06-22 15:53:00,,CLR,10.0,,76,,,,54.0,,46,10.0,170.0,,28.97,,,,,,,,,,,,,,,,,,,,,,,,,,,,,,,,,,,,,,,,,,,,,,,,,,,,,,,,,,,,,,,,,,,,,
KBUR,Burbank,,34.1808,-118.3089,2012-06-22 16:53:00,,CLR,10.0,,76,,,,55.0,,48,9.0,180.0,,28.96,2.0,Falling,,,,77.0,66.0,,,,,,,,,,,,,,,,,,,,,,,,,,,,,,,,,,,,,,,,,,,,,,,,,,,,,,,,,,,,,,
KBUR,Burbank,,34.1808,-118.3089,2012-06-22 17:53:00,,CLR,10.0,,73,,,,55.0,,53,9.0,180.0,,28.95,,,,,,,,,,,,,,,,,,,,,,,,,,,,,,,,,,,,,,,,,,,,,,,,,,,,,,,,,,,,,,,,,,,,,
KBUR,Burbank,,34.1808,-118.3089,2012-06-22 18:53:00,,CLR,10.0,,70,,,,54.0,,57,10.0,180.0,,28.95,,,,,,,,,,,,,,,,,,,,,,,,,,,,,,,,,,,,,,,,,,,,,,,,,,,,,,,,,,,,,,,,,,,,,
KBUR,Burbank,,34.1808,-118.3089,2012-06-22 19:53:00,,CLR,10.0,,68,,,,54.0,,61,10.0,110.0,,28.96,0.0,Steady,,,,,,,,,,,,,,,,,,,,,,,,,,,,,,,,,,,,,,,,,,,,,,,,,,,,,,,,,,,,,,,,,,,
KBUR,Burbank,,34.1808,-118.3089,2012-06-22 20:53:00,,CLR,10.0,,65,,,,53.0,,65,9.0,110.0,,28.96,,,,,,,,,,,,,,,,,,,,,,,,,,,,,,,,,,,,,,,,,,,,,,,,,,,,,,,,,,,,,,,,,,,,,
KBUR,Burbank,,34.1808,-118.3089,2012-06-22 21:53:00,,CLR,10.0,,63,,,,53.0,,70,8.0,90.0,,28.96,,,,,,,,,,,,,,,,,,,,,,,,,,,,,,,,,,,,,,,,,,,,,,,,,,,,,,,,,,,,,,,,,,,,,
KBUR,Burbank,,34.1808,-118.3089,2012-06-22 22:53:00,,CLR,10.0,,63,,,,54.0,,72,6.0,100.0,,28.95,2.0,Falling Rapidly,,,,76.0,63.0,,,,,,,,,,,,,,,,,,,,,,,,,,,,,,,,,,,,,,,,,,,,,,,,,,,,,,,,,,,,,,
KBUR,Burbank,,34.1808,-118.3089,2012-06-22 23:53:00,,CLR,10.0,,61,,,,54.0,,78,6.0,140.0,,28.95,,,,,,,,,,,,,,,,,,,,,,,,,,,,,,,,,,,,,,,,,,,,,,,,,,,,,,,,,,,,,,,,,,,,,
KBUR,Burbank,,34.1808,-118.3089,2012-06-23 00:53:00,,CLR,10.0,,61,,,,54.0,,78,7.0,100.0,,28.94,,,,,,77.0,58.0,,,,,,,,,,,,,,,,,,,,,,,,,,,,,,,,,,,,,,,,,,,,,,,,,,,,,,,,,,,,,,
KBUR,Burbank,,34.1808,-118.3089,2012-06-23 01:53:00,,CLR,10.0,,60,,,,54.0,,80,7.0,110.0,,28.94,0.0,Steady,,,,,,,,,,,,,,,,,,,,,,,,,,,,,,,,,,,,,,,,,,,,,,,,,,,,,,,,,,,,,,,,,,,
KBUR,Burbank,,34.1808,-118.3089,2012-06-23 02:53:00,,CLR,10.0,,59,,,,54.0,,83,3.0,100.0,,28.95,,,,,,,,,,,,,,,,,,,,,,,,,,,,,,,,,,,,,,,,,,,,,,,,,,,,,,,,,,,,,,,,,,,,,
KBUR,Burbank,,34.1808,-118.3089,2012-06-23 03:53:00,,CLR,10.0,,58,,,,53.0,,84,,,,28.95,,,,,,,,,,,,,,,,,,,,,,,,,,,,,,,,,,,,,,,,,,,,,,,,,,,,,,,,,,,,,,,,,,,,,
KBUR,Burbank,,34.1808,-118.3089,2012-06-23 04:53:00,,CLR,10.0,,59,,,,54.0,,83,3.0,150.0,,28.95,1.0,Rising,,,,62.0,58.0,,,,,,,,,,,,,,,,,,,,,,,,,,,,,,,,,,,,,,,,,,,,,,,,,,,,,,,,,,,,,,
KBUR,Burbank,,34.1808,-118.3089,2012-06-23 05:53:00,,CLR,10.0,,58,,,,54.0,,87,,,,28.96,,,,,,,,,,,,,,,,,,,,,,,,,,,,,,,,,,,,,,,,,,,,,,,,,,,,,,,,,,,,,,,,,,,,,
KBUR,Burbank,,34.1808,-118.3089,2012-06-23 06:53:00,,CLR,10.0,,59,,,,53.0,,81,,,,28.97,,,,,,,,,,,,,,,,,,,,,,,,,,,,,,,,,,,,,,,,,,,,,,,,,,,,,,,,,,,,,,,,,,,,,
KBUR,Burbank,,34.1808,-118.3089,2012-06-23 07:53:00,,FEW,10.0,,60,,,,54.0,,80,,,,28.97,1.0,Rising,,,,,,,,,,,,,,,,,,,,,,,,,,,,,,,,,,,,,,,,,,,,,,,,,,,,,,,,,,,,,,,,,,,
KBUR,Burbank,,34.1808,-118.3089,2012-06-23 08:53:00,,CLR,10.0,,63,,,,53.0,,70,3.0,180.0,,28.97,,,,,,,,,,,,,,,,,,,,,,,,,,,,,,,,,,,,,,,,,,,,,,,,,,,,,,,,,,,,,,,,,,,,,
KBUR,Burbank,,34.1808,-118.3089,2012-06-23 09:53:00,,CLR,10.0,,67,,,,54.0,,63,5.0,140.0,,28.97,,,,,,,,,,,,,,,,,,,,,,,,,,,,,,,,,,,,,,,,,,,,,,,,,,,,,,,,,,,,,,,,,,,,,
KBUR,Burbank,,34.1808,-118.3089,2012-06-23 10:53:00,,CLR,10.0,,71,,,,54.0,,55,8.0,190.0,,28.97,0.0,Steady,,,,71.0,57.0,,,,,,,,,,,,,,,,,,,,,,,,,,,,,,,,,,,,,,,,,,,,,,,,,,,,,,,,,,,,,,
KBUR,Burbank,,34.1808,-118.3089,2012-06-23 11:53:00,,CLR,10.0,,73,,,,54.0,,51,9.0,160.0,17.0,28.97,,,,,,,,,,,,,,,,,,,,,,,,,,,,,,,,,,,,,,,,,,,,,,,,,,,,,,,,,,,,,,,,,,,,,
KBUR,Burbank,,34.1808,-118.3089,2012-06-23 12:53:00,,CLR,10.0,,74,,,,55.0,,52,7.0,190.0,,28.96,,,,,,,,,,,,,,,,,,,,,,,,,,,,,,,,,,,,,,,,,,,,,,,,,,,,,,,,,,,,,,,,,,,,,
KBUR,Burbank,,34.1808,-118.3089,2012-06-23 13:53:00,,CLR,10.0,,76,,,,54.0,,46,12.0,180.0,16.0,28.95,2.0,Falling Rapidly,,,,,,,,,,,,,,,,,,,,,,,,,,,,,,,,,,,,,,,,,,,,,,,,,,,,,,,,,,,,,,,,,,,
KBUR,Burbank,,34.1808,-118.3089,2012-06-23 14:53:00,,CLR,10.0,,77,,,,53.0,,43,8.0,170.0,17.0,28.94,,,,,,,,,,,,,,,,,,,,,,,,,,,,,,,,,,,,,,,,,,,,,,,,,,,,,,,,,,,,,,,,,,,,,
KBUR,Burbank,,34.1808,-118.3089,2012-06-23 15:53:00,,CLR,10.0,,76,,,,52.0,,43,12.0,180.0,,28.95,,,,,,,,,,,,,,,,,,,,,,,,,,,,,,,,,,,,,,,,,,,,,,,,,,,,,,,,,,,,,,,,,,,,,
KBUR,Burbank,,34.1808,-118.3089,2012-06-23 16:53:00,,CLR,10.0,,77,,,,51.0,,40,10.0,160.0,,28.94,2.0,Falling Rapidly,,,,79.0,70.0,,,,,,,,,,,,,,,,,,,,,,,,,,,,,,,,,,,,,,,,,,,,,,,,,,,,,,,,,,,,,,
KBUR,Burbank,,34.1808,-118.3089,2012-06-23 17:53:00,,CLR,10.0,,75,,,,53.0,,46,9.0,170.0,,28.93,,,,,,,,,,,,,,,,,,,,,,,,,,,,,,,,,,,,,,,,,,,,,,,,,,,,,,,,,,,,,,,,,,,,,
KBUR,Burbank,,34.1808,-118.3089,2012-06-23 18:53:00,,CLR,10.0,,72,,,,55.0,,55,8.0,160.0,,28.95,,,,,,,,,,,,,,,,,,,,,,,,,,,,,,,,,,,,,,,,,,,,,,,,,,,,,,,,,,,,,,,,,,,,,
KBUR,Burbank,,34.1808,-118.3089,2012-06-23 19:53:00,,CLR,10.0,,69,,,,54.0,,58,8.0,130.0,,28.97,1.0,Rising Rapidly,,,,,,,,,,,,,,,,,,,,,,,,,,,,,,,,,,,,,,,,,,,,,,,,,,,,,,,,,,,,,,,,,,,
KBUR,Burbank,,34.1808,-118.3089,2012-06-23 20:53:00,,CLR,10.0,,67,,,,53.0,,61,5.0,130.0,,28.98,,,,,,,,,,,,,,,,,,,,,,,,,,,,,,,,,,,,,,,,,,,,,,,,,,,,,,,,,,,,,,,,,,,,,
KBUR,Burbank,,34.1808,-118.3089,2012-06-23 21:53:00,,CLR,10.0,,65,,,,53.0,,65,3.0,160.0,,29.0,,,,,,,,,,,,,,,,,,,,,,,,,,,,,,,,,,,,,,,,,,,,,,,,,,,,,,,,,,,,,,,,,,,,,
KBUR,Burbank,,34.1808,-118.3089,2012-06-23 22:53:00,,CLR,10.0,,64,,,,53.0,,67,,,,29.0,1.0,Rising,,,,77.0,64.0,,,,,,,,,,,,,,,,,,,,,,,,,,,,,,,,,,,,,,,,,,,,,,,,,,,,,,,,,,,,,,
KBUR,Burbank,,34.1808,-118.3089,2012-06-23 23:53:00,,CLR,10.0,,64,,,,53.0,,67,3.0,120.0,,29.01,,,,,,,,,,,,,,,,,,,,,,,,,,,,,,,,,,,,,,,,,,,,,,,,,,,,,,,,,,,,,,,,,,,,,
KBUR,Burbank,,34.1808,-118.3089,2012-06-24 00:53:00,,CLR,10.0,,63,,,,53.0,,70,5.0,130.0,,29.01,,,,,,79.0,57.0,,,,,,,,,,,,,,,,,,,,,,,,,,,,,,,,,,,,,,,,,,,,,,,,,,,,,,,,,,,,,,
KBUR,Burbank,,34.1808,-118.3089,2012-06-24 01:53:00,,CLR,10.0,,62,,,,53.0,,72,3.0,110.0,,29.01,1.0,Rising,,,,,,,,,,,,,,,,,,,,,,,,,,,,,,,,,,,,,,,,,,,,,,,,,,,,,,,,,,,,,,,,,,,
KBUR,Burbank,,34.1808,-118.3089,2012-06-24 02:53:00,,CLR,10.0,,62,,,,54.0,,75,5.0,100.0,,29.02,,,,,,,,,,,,,,,,,,,,,,,,,,,,,,,,,,,,,,,,,,,,,,,,,,,,,,,,,,,,,,,,,,,,,
KBUR,Burbank,,34.1808,-118.3089,2012-06-24 03:53:00,,CLR,10.0,,61,,,,53.0,,75,3.0,90.0,,29.03,,,,,,,,,,,,,,,,,,,,,,,,,,,,,,,,,,,,,,,,,,,,,,,,,,,,,,,,,,,,,,,,,,,,,
KBUR,Burbank,,34.1808,-118.3089,2012-06-24 04:53:00,,CLR,10.0,,59,,,,53.0,,81,3.0,50.0,,29.04,1.0,Rising,,,,65.0,59.0,,,,,,,,,,,,,,,,,,,,,,,,,,,,,,,,,,,,,,,,,,,,,,,,,,,,,,,,,,,,,,
KBUR,Burbank,,34.1808,-118.3089,2012-06-24 05:53:00,,CLR,10.0,,59,,,,52.0,,78,,,,29.06,,,,,,,,,,,,,,,,,,,,,,,,,,,,,,,,,,,,,,,,,,,,,,,,,,,,,,,,,,,,,,,,,,,,,
KBUR,Burbank,,34.1808,-118.3089,2012-06-24 06:53:00,,CLR,10.0,,61,,,,53.0,,75,,,,29.07,,,,,,,,,,,,,,,,,,,,,,,,,,,,,,,,,,,,,,,,,,,,,,,,,,,,,,,,,,,,,,,,,,,,,
KBUR,Burbank,,34.1808,-118.3089,2012-06-24 07:53:00,,CLR,10.0,,63,,,,54.0,,72,,,,29.08,1.0,Rising,,,,,,,,,,,,,,,,,,,,,,,,,,,,,,,,,,,,,,,,,,,,,,,,,,,,,,,,,,,,,,,,,,,
KBUR,Burbank,,34.1808,-118.3089,2012-06-24 08:53:00,,CLR,10.0,,67,,,,54.0,,63,,,,29.09,,,,,,,,,,,,,,,,,,,,,,,,,,,,,,,,,,,,,,,,,,,,,,,,,,,,,,,,,,,,,,,,,,,,,
KBUR,Burbank,,34.1808,-118.3089,2012-06-24 09:53:00,,CLR,10.0,,70,,,,54.0,,57,5.0,200.0,,29.09,,,,,,,,,,,,,,,,,,,,,,,,,,,,,,,,,,,,,,,,,,,,,,,,,,,,,,,,,,,,,,,,,,,,,
KBUR,Burbank,,34.1808,-118.3089,2012-06-24 10:53:00,,CLR,10.0,,74,,,,53.0,,48,5.0,,,29.09,0.0,Steady,,,,74.0,58.0,,,,,,,,,,,,,,,,,,,,,,,,,,,,,,,,,,,,,,,,,,,,,,,,,,,,,,,,,,,,,,
KBUR,Burbank,,34.1808,-118.3089,2012-06-24 11:53:00,,CLR,10.0,,76,,,,51.0,,42,3.0,,,29.08,,,,,,,,,,,,,,,,,,,,,,,,,,,,,,,,,,,,,,,,,,,,,,,,,,,,,,,,,,,,,,,,,,,,,
KBUR,Burbank,,34.1808,-118.3089,2012-06-24 12:53:00,,CLR,10.0,,78,,,,50.0,,37,10.0,160.0,,29.07,,,,,,,,,,,,,,,,,,,,,,,,,,,,,,,,,,,,,,,,,,,,,,,,,,,,,,,,,,,,,,,,,,,,,
KBUR,Burbank,,34.1808,-118.3089,2012-06-24 13:53:00,,CLR,10.0,,81,,,,40.0,,23,8.0,130.0,,29.06,2.0,Falling Rapidly,,,,,,,,,,,,,,,,,,,,,,,,,,,,,,,,,,,,,,,,,,,,,,,,,,,,,,,,,,,,,,,,,,,
KBUR,Burbank,,34.1808,-118.3089,2012-06-24 14:53:00,,CLR,10.0,,83,,,,39.0,,21,13.0,150.0,16.0,29.06,,,,,,,,,,,,,,,,,,,,,,,,,,,,,,,,,,,,,,,,,,,,,,,,,,,,,,,,,,,,,,,,,,,,,
KBUR,Burbank,,34.1808,-118.3089,2012-06-24 15:53:00,,CLR,10.0,,80,,,,43.0,,27,10.0,160.0,,29.05,,,,,,,,,,,,,,,,,,,,,,,,,,,,,,,,,,,,,,,,,,,,,,,,,,,,,,,,,,,,,,,,,,,,,
KBUR,Burbank,,34.1808,-118.3089,2012-06-24 16:53:00,,CLR,10.0,,78,,,,45.0,,31,12.0,160.0,,29.05,2.0,Falling Rapidly,,,,84.0,73.0,,,,,,,,,,,,,,,,,,,,,,,,,,,,,,,,,,,,,,,,,,,,,,,,,,,,,,,,,,,,,,
KBUR,Burbank,,34.1808,-118.3089,2012-06-24 17:53:00,,CLR,10.0,,78,,,,41.0,,27,9.0,170.0,,29.05,,,,,,,,,,,,,,,,,,,,,,,,,,,,,,,,,,,,,,,,,,,,,,,,,,,,,,,,,,,,,,,,,,,,,
KBUR,Burbank,,34.1808,-118.3089,2012-06-24 18:53:00,,CLR,10.0,,74,,,,42.0,,32,9.0,160.0,,29.05,,,,,,,,,,,,,,,,,,,,,,,,,,,,,,,,,,,,,,,,,,,,,,,,,,,,,,,,,,,,,,,,,,,,,
KBUR,Burbank,,34.1808,-118.3089,2012-06-24 19:53:00,,CLR,10.0,,70,,,,46.0,,42,10.0,160.0,,29.07,1.0,Rising Rapidly,,,,,,,,,,,,,,,,,,,,,,,,,,,,,,,,,,,,,,,,,,,,,,,,,,,,,,,,,,,,,,,,,,,
KBUR,Burbank,,34.1808,-118.3089,2012-06-24 20:53:00,,CLR,10.0,,69,,,,44.0,,40,10.0,110.0,,29.08,,,,,,,,,,,,,,,,,,,,,,,,,,,,,,,,,,,,,,,,,,,,,,,,,,,,,,,,,,,,,,,,,,,,,
KBUR,Burbank,,34.1808,-118.3089,2012-06-24 21:53:00,,CLR,10.0,,66,,,,48.0,,52,8.0,140.0,,29.1,,,,,,,,,,,,,,,,,,,,,,,,,,,,,,,,,,,,,,,,,,,,,,,,,,,,,,,,,,,,,,,,,,,,,
KBUR,Burbank,,34.1808,-118.3089,2012-06-24 22:53:00,,CLR,10.0,,64,,,,51.0,,63,6.0,120.0,,29.11,1.0,Rising,,,,79.0,63.0,,,,,,,,,,,,,,,,,,,,,,,,,,,,,,,,,,,,,,,,,,,,,,,,,,,,,,,,,,,,,,
KBUR,Burbank,,34.1808,-118.3089,2012-06-24 23:53:00,,CLR,10.0,,62,,,,52.0,,70,6.0,100.0,,29.11,,,,,,,,,,,,,,,,,,,,,,,,,,,,,,,,,,,,,,,,,,,,,,,,,,,,,,,,,,,,,,,,,,,,,
KBUR,Burbank,,34.1808,-118.3089,2012-06-25 00:53:00,,CLR,10.0,,61,,,,52.0,,72,3.0,90.0,,29.12,,,,,,84.0,58.0,,,,,,,,,,,,,,,,,,,,,,,,,,,,,,,,,,,,,,,,,,,,,,,,,,,,,,,,,,,,,,
KBUR,Burbank,,34.1808,-118.3089,2012-06-25 01:53:00,,CLR,10.0,,60,,,,51.0,,72,6.0,90.0,,29.12,1.0,Rising,,,,,,,,,,,,,,,,,,,,,,,,,,,,,,,,,,,,,,,,,,,,,,,,,,,,,,,,,,,,,,,,,,,
KBUR,Burbank,,34.1808,-118.3089,2012-06-25 02:53:00,,CLR,10.0,,59,,,,51.0,,75,7.0,90.0,,29.12,,,,,,,,,,,,,,,,,,,,,,,,,,,,,,,,,,,,,,,,,,,,,,,,,,,,,,,,,,,,,,,,,,,,,
KBUR,Burbank,,34.1808,-118.3089,2012-06-25 03:53:00,,CLR,10.0,,58,,,,50.0,,75,,,,29.13,,,,,,,,,,,,,,,,,,,,,,,,,,,,,,,,,,,,,,,,,,,,,,,,,,,,,,,,,,,,,,,,,,,,,
KBUR,Burbank,,34.1808,-118.3089,2012-06-25 04:53:00,,CLR,10.0,,55,,,,42.0,,62,3.0,320.0,,29.14,1.0,Rising Rapidly,,,,64.0,55.0,,,,,,,,,,,,,,,,,,,,,,,,,,,,,,,,,,,,,,,,,,,,,,,,,,,,,,,,,,,,,,
KBUR,Burbank,,34.1808,-118.3089,2012-06-25 05:53:00,,CLR,10.0,,55,,,,40.0,,57,,,,29.14,,,,,,,,,,,,,,,,,,,,,,,,,,,,,,,,,,,,,,,,,,,,,,,,,,,,,,,,,,,,,,,,,,,,,
KBUR,Burbank,,34.1808,-118.3089,2012-06-25 06:53:00,,CLR,10.0,,57,,,,41.0,,55,,,,29.15,,,,,,,,,,,,,,,,,,,,,,,,,,,,,,,,,,,,,,,,,,,,,,,,,,,,,,,,,,,,,,,,,,,,,
KBUR,Burbank,,34.1808,-118.3089,2012-06-25 07:53:00,,CLR,10.0,,61,,,,46.0,,58,,,,29.16,1.0,Rising Rapidly,,,,,,,,,,,,,,,,,,,,,,,,,,,,,,,,,,,,,,,,,,,,,,,,,,,,,,,,,,,,,,,,,,,
KBUR,Burbank,,34.1808,-118.3089,2012-06-25 08:53:00,,CLR,10.0,,65,,,,47.0,,52,,,,29.15,,,,,,,,,,,,,,,,,,,,,,,,,,,,,,,,,,,,,,,,,,,,,,,,,,,,,,,,,,,,,,,,,,,,,
KBUR,Burbank,,34.1808,-118.3089,2012-06-25 09:53:00,,CLR,10.0,,69,,,,45.0,,42,,,,29.14,,,,,,,,,,,,,,,,,,,,,,,,,,,,,,,,,,,,,,,,,,,,,,,,,,,,,,,,,,,,,,,,,,,,,
KBUR,Burbank,,34.1808,-118.3089,2012-06-25 10:53:00,,CLR,10.0,,72,,,,44.0,,37,8.0,190.0,,29.14,2.0,Falling,,,,73.0,55.0,,,,,,,,,,,,,,,,,,,,,,,,,,,,,,,,,,,,,,,,,,,,,,,,,,,,,,,,,,,,,,
KBUR,Burbank,,34.1808,-118.3089,2012-06-25 11:53:00,,CLR,10.0,,77,,,,43.0,,30,8.0,170.0,,29.12,,,,,,,,,,,,,,,,,,,,,,,,,,,,,,,,,,,,,,,,,,,,,,,,,,,,,,,,,,,,,,,,,,,,,
KBUR,Burbank,,34.1808,-118.3089,2012-06-25 12:53:00,,CLR,10.0,,79,,,,39.0,,24,10.0,180.0,,29.12,,,,,,,,,,,,,,,,,,,,,,,,,,,,,,,,,,,,,,,,,,,,,,,,,,,,,,,,,,,,,,,,,,,,,
KBUR,Burbank,,34.1808,-118.3089,2012-06-25 13:53:00,,CLR,10.0,,79,,,,35.0,,20,10.0,160.0,,29.1,2.0,Falling Rapidly,,,,,,,,,,,,,,,,,,,,,,,,,,,,,,,,,,,,,,,,,,,,,,,,,,,,,,,,,,,,,,,,,,,
KBUR,Burbank,,34.1808,-118.3089,2012-06-25 14:53:00,,CLR,10.0,,79,,,,30.0,,17,10.0,180.0,,29.09,,,,,,,,,,,,,,,,,,,,,,,,,,,,,,,,,,,,,,,,,,,,,,,,,,,,,,,,,,,,,,,,,,,,,
KBUR,Burbank,,34.1808,-118.3089,2012-06-25 15:53:00,,CLR,10.0,,80,,,,,,17,10.0,160.0,,29.07,,,,,,,,,,,,,,,,,,,,,,,,,,,,,,,,,,,,,,,,,,,,,,,,,,,,,,,,,,,,,,,,,,,,,
KBUR,Burbank,,34.1808,-118.3089,2012-06-25 16:53:00,,CLR,10.0,,79,,,,31.0,,17,9.0,160.0,,29.06,2.0,Falling Rapidly,,,,81.0,72.0,,,,,,,,,,,,,,,,,,,,,,,,,,,,,,,,,,,,,,,,,,,,,,,,,,,,,,,,,,,,,,
KBUR,Burbank,,34.1808,-118.3089,2012-06-25 17:53:00,,CLR,10.0,,77,,,,36.0,,23,10.0,170.0,,29.05,,,,,,,,,,,,,,,,,,,,,,,,,,,,,,,,,,,,,,,,,,,,,,,,,,,,,,,,,,,,,,,,,,,,,
KBUR,Burbank,,34.1808,-118.3089,2012-06-25 18:53:00,,CLR,10.0,,74,,,,36.0,,25,9.0,170.0,,29.06,,,,,,,,,,,,,,,,,,,,,,,,,,,,,,,,,,,,,,,,,,,,,,,,,,,,,,,,,,,,,,,,,,,,,
KBUR,Burbank,,34.1808,-118.3089,2012-06-25 19:53:00,,CLR,10.0,,70,,,,41.0,,35,7.0,160.0,,29.06,2.0,Falling,,,,,,,,,,,,,,,,,,,,,,,,,,,,,,,,,,,,,,,,,,,,,,,,,,,,,,,,,,,,,,,,,,,
KBUR,Burbank,,34.1808,-118.3089,2012-06-25 20:53:00,,CLR,10.0,,69,,,,41.0,,36,6.0,100.0,,29.06,,,,,,,,,,,,,,,,,,,,,,,,,,,,,,,,,,,,,,,,,,,,,,,,,,,,,,,,,,,,,,,,,,,,,
KBUR,Burbank,,34.1808,-118.3089,2012-06-25 21:53:00,,CLR,10.0,,68,,,,47.0,,47,3.0,70.0,,29.07,,,,,,,,,,,,,,,,,,,,,,,,,,,,,,,,,,,,,,,,,,,,,,,,,,,,,,,,,,,,,,,,,,,,,
KBUR,Burbank,,34.1808,-118.3089,2012-06-25 22:53:00,,CLR,10.0,,64,,,,51.0,,63,5.0,130.0,,29.07,1.0,Rising Rapidly,,,,80.0,64.0,,,,,,,,,,,,,,,,,,,,,,,,,,,,,,,,,,,,,,,,,,,,,,,,,,,,,,,,,,,,,,
KBUR,Burbank,,34.1808,-118.3089,2012-06-25 23:53:00,,CLR,10.0,,63,,,,51.0,,65,,,,29.08,,,,,,,,,,,,,,,,,,,,,,,,,,,,,,,,,,,,,,,,,,,,,,,,,,,,,,,,,,,,,,,,,,,,,
KBUR,Burbank,,34.1808,-118.3089,2012-06-26 00:53:00,,CLR,10.0,,62,,,,51.0,,67,5.0,100.0,,29.07,,,,,,81.0,55.0,,,,,,,,,,,,,,,,,,,,,,,,,,,,,,,,,,,,,,,,,,,,,,,,,,,,,,,,,,,,,,
KBUR,Burbank,,34.1808,-118.3089,2012-06-26 01:53:00,,CLR,10.0,,61,,,,50.0,,67,,,,29.07,2.0,Falling Rapidly,,,,,,,,,,,,,,,,,,,,,,,,,,,,,,,,,,,,,,,,,,,,,,,,,,,,,,,,,,,,,,,,,,,
KBUR,Burbank,,34.1808,-118.3089,2012-06-26 02:53:00,,CLR,10.0,,60,,,,48.0,,64,,,,29.05,,,,,,,,,,,,,,,,,,,,,,,,,,,,,,,,,,,,,,,,,,,,,,,,,,,,,,,,,,,,,,,,,,,,,
KBUR,Burbank,,34.1808,-118.3089,2012-06-26 03:53:00,,CLR,10.0,,58,,,,43.0,,58,,,,29.05,,,,,,,,,,,,,,,,,,,,,,,,,,,,,,,,,,,,,,,,,,,,,,,,,,,,,,,,,,,,,,,,,,,,,
KBUR,Burbank,,34.1808,-118.3089,2012-06-26 04:53:00,,CLR,10.0,,60,,,,46.0,,60,,,,29.05,2.0,Falling,,,,65.0,58.0,,,,,,,,,,,,,,,,,,,,,,,,,,,,,,,,,,,,,,,,,,,,,,,,,,,,,,,,,,,,,,
KBUR,Burbank,,34.1808,-118.3089,2012-06-26 05:53:00,,CLR,10.0,,57,,,,41.0,,55,,,,29.05,,,,,,,,,,,,,,,,,,,,,,,,,,,,,,,,,,,,,,,,,,,,,,,,,,,,,,,,,,,,,,,,,,,,,
KBUR,Burbank,,34.1808,-118.3089,2012-06-26 06:53:00,,CLR,10.0,,60,,,,34.0,,38,,,,29.05,,,,,,,,,,,,,,,,,,,,,,,,,,,,,,,,,,,,,,,,,,,,,,,,,,,,,,,,,,,,,,,,,,,,,
KBUR,Burbank,,34.1808,-118.3089,2012-06-26 07:53:00,,CLR,10.0,,63,,,,42.0,,46,,,,29.05,1.0,Rising Rapidly,,,,,,,,,,,,,,,,,,,,,,,,,,,,,,,,,,,,,,,,,,,,,,,,,,,,,,,,,,,,,,,,,,,
KBUR,Burbank,,34.1808,-118.3089,2012-06-26 08:53:00,,CLR,10.0,,67,,,,43.0,,42,3.0,,,29.05,,,,,,,,,,,,,,,,,,,,,,,,,,,,,,,,,,,,,,,,,,,,,,,,,,,,,,,,,,,,,,,,,,,,,
KBUR,Burbank,,34.1808,-118.3089,2012-06-26 09:53:00,,CLR,10.0,,71,,,,40.0,,32,,,,29.04,,,,,,,,,,,,,,,,,,,,,,,,,,,,,,,,,,,,,,,,,,,,,,,,,,,,,,,,,,,,,,,,,,,,,
KBUR,Burbank,,34.1808,-118.3089,2012-06-26 10:53:00,,CLR,10.0,,75,,,,40.0,,28,5.0,,,29.03,2.0,Falling Rapidly,,,,76.0,56.0,,,,,,,,,,,,,,,,,,,,,,,,,,,,,,,,,,,,,,,,,,,,,,,,,,,,,,,,,,,,,,
KBUR,Burbank,,34.1808,-118.3089,2012-06-26 11:53:00,,CLR,10.0,,78,,,,43.0,,29,6.0,190.0,,29.01,,,,,,,,,,,,,,,,,,,,,,,,,,,,,,,,,,,,,,,,,,,,,,,,,,,,,,,,,,,,,,,,,,,,,
KBUR,Burbank,,34.1808,-118.3089,2012-06-26 12:53:00,,CLR,10.0,,82,,,,43.0,,25,6.0,190.0,,28.99,,,,,,,,,,,,,,,,,,,,,,,,,,,,,,,,,,,,,,,,,,,,,,,,,,,,,,,,,,,,,,,,,,,,,
KBUR,Burbank,,34.1808,-118.3089,2012-06-26 13:53:00,,CLR,10.0,,82,,,,47.0,,29,5.0,,,28.98,2.0,Falling,,,,,,,,,,,,,,,,,,,,,,,,,,,,,,,,,,,,,,,,,,,,,,,,,,,,,,,,,,,,,,,,,,,
KBUR,Burbank,,34.1808,-118.3089,2012-06-26 14:53:00,,CLR,10.0,,84,,,,45.0,,25,10.0,180.0,21.0,28.96,,,,,,,,,,,,,,,,,,,,,,,,,,,,,,,,,,,,,,,,,,,,,,,,,,,,,,,,,,,,,,,,,,,,,
KBUR,Burbank,,34.1808,-118.3089,2012-06-26 15:53:00,,CLR,10.0,,82,,,,44.0,,26,12.0,170.0,,28.95,,,,,,,,,,,,,,,,,,,,,,,,,,,,,,,,,,,,,,,,,,,,,,,,,,,,,,,,,,,,,,,,,,,,,
KBUR,Burbank,,34.1808,-118.3089,2012-06-26 16:53:00,,CLR,10.0,,82,,,,39.0,,22,10.0,170.0,,28.94,2.0,Falling,,,,84.0,75.0,,,,,,,,,,,,,,,,,,,,,,,,,,,,,,,,,,,,,,,,,,,,,,,,,,,,,,,,,,,,,,
KBUR,Burbank,,34.1808,-118.3089,2012-06-26 17:53:00,,CLR,10.0,,78,,,,45.0,,31,9.0,150.0,,28.94,,,,,,,,,,,,,,,,,,,,,,,,,,,,,,,,,,,,,,,,,,,,,,,,,,,,,,,,,,,,,,,,,,,,,
KBUR,Burbank,,34.1808,-118.3089,2012-06-26 18:53:00,,CLR,10.0,,76,,,,42.0,,30,7.0,170.0,,28.94,,,,,,,,,,,,,,,,,,,,,,,,,,,,,,,,,,,,,,,,,,,,,,,,,,,,,,,,,,,,,,,,,,,,,
KBUR,Burbank,,34.1808,-118.3089,2012-06-26 19:53:00,,CLR,10.0,,73,,,,44.0,,35,8.0,160.0,,28.95,1.0,Rising Rapidly,,,,,,,,,,,,,,,,,,,,,,,,,,,,,,,,,,,,,,,,,,,,,,,,,,,,,,,,,,,,,,,,,,,
KBUR,Burbank,,34.1808,-118.3089,2012-06-26 20:53:00,,CLR,10.0,,71,,,,47.0,,42,7.0,120.0,,28.95,,,,,,,,,,,,,,,,,,,,,,,,,,,,,,,,,,,,,,,,,,,,,,,,,,,,,,,,,,,,,,,,,,,,,
KBUR,Burbank,,34.1808,-118.3089,2012-06-26 21:53:00,,CLR,10.0,,70,,,,49.0,,47,6.0,130.0,,28.96,,,,,,,,,,,,,,,,,,,,,,,,,,,,,,,,,,,,,,,,,,,,,,,,,,,,,,,,,,,,,,,,,,,,,
KBUR,Burbank,,34.1808,-118.3089,2012-06-26 22:53:00,,CLR,10.0,,67,,,,51.0,,57,5.0,120.0,,28.97,1.0,Rising Rapidly,,,,82.0,67.0,,,,,,,,,,,,,,,,,,,,,,,,,,,,,,,,,,,,,,,,,,,,,,,,,,,,,,,,,,,,,,
KBUR,Burbank,,34.1808,-118.3089,2012-06-26 23:53:00,,CLR,10.0,,65,,,,52.0,,63,6.0,110.0,,28.97,,,,,,,,,,,,,,,,,,,,,,,,,,,,,,,,,,,,,,,,,,,,,,,,,,,,,,,,,,,,,,,,,,,,,
KBUR,Burbank,,34.1808,-118.3089,2012-06-27 00:53:00,,CLR,10.0,,63,,,,51.0,,65,3.0,80.0,,28.97,,,,,,84.0,56.0,,,,,,,,,,,,,,,,,,,,,,,,,,,,,,,,,,,,,,,,,,,,,,,,,,,,,,,,,,,,,,
KBUR,Burbank,,34.1808,-118.3089,2012-06-27 01:53:00,,CLR,10.0,,64,,,,51.0,,63,3.0,100.0,,28.96,2.0,Falling Rapidly,,,,,,,,,,,,,,,,,,,,,,,,,,,,,,,,,,,,,,,,,,,,,,,,,,,,,,,,,,,,,,,,,,,
KBUR,Burbank,,34.1808,-118.3089,2012-06-27 02:53:00,,CLR,10.0,,62,,,,50.0,,65,,,,28.96,,,,,,,,,,,,,,,,,,,,,,,,,,,,,,,,,,,,,,,,,,,,,,,,,,,,,,,,,,,,,,,,,,,,,
KBUR,Burbank,,34.1808,-118.3089,2012-06-27 03:53:00,,CLR,10.0,,60,,,,44.0,,55,,,,28.95,,,,,,,,,,,,,,,,,,,,,,,,,,,,,,,,,,,,,,,,,,,,,,,,,,,,,,,,,,,,,,,,,,,,,
KBUR,Burbank,,34.1808,-118.3089,2012-06-27 04:53:00,,CLR,10.0,,58,,,,43.0,,58,,,,28.97,1.0,Rising Rapidly,,,,67.0,58.0,,,,,,,,,,,,,,,,,,,,,,,,,,,,,,,,,,,,,,,,,,,,,,,,,,,,,,,,,,,,,,
KBUR,Burbank,,34.1808,-118.3089,2012-06-27 05:53:00,,CLR,10.0,,59,,,,47.0,,64,,,,28.98,,,,,,,,,,,,,,,,,,,,,,,,,,,,,,,,,,,,,,,,,,,,,,,,,,,,,,,,,,,,,,,,,,,,,
KBUR,Burbank,,34.1808,-118.3089,2012-06-27 06:53:00,,CLR,10.0,,61,,,,47.0,,60,,,,28.99,,,,,,,,,,,,,,,,,,,,,,,,,,,,,,,,,,,,,,,,,,,,,,,,,,,,,,,,,,,,,,,,,,,,,
KBUR,Burbank,,34.1808,-118.3089,2012-06-27 07:53:00,,CLR,10.0,,66,,,,46.0,,48,,,,29.0,1.0,Rising,,,,,,,,,,,,,,,,,,,,,,,,,,,,,,,,,,,,,,,,,,,,,,,,,,,,,,,,,,,,,,,,,,,
KBUR,Burbank,,34.1808,-118.3089,2012-06-27 08:53:00,,CLR,10.0,,70,,,,46.0,,42,,,,29.01,,,,,,,,,,,,,,,,,,,,,,,,,,,,,,,,,,,,,,,,,,,,,,,,,,,,,,,,,,,,,,,,,,,,,
KBUR,Burbank,,34.1808,-118.3089,2012-06-27 09:53:00,,CLR,10.0,,74,,,,47.0,,38,3.0,,,29.01,,,,,,,,,,,,,,,,,,,,,,,,,,,,,,,,,,,,,,,,,,,,,,,,,,,,,,,,,,,,,,,,,,,,,
KBUR,Burbank,,34.1808,-118.3089,2012-06-27 10:53:00,,CLR,10.0,,79,,,,48.0,,34,7.0,120.0,,29.01,1.0,Rising,,,,79.0,58.0,,,,,,,,,,,,,,,,,,,,,,,,,,,,,,,,,,,,,,,,,,,,,,,,,,,,,,,,,,,,,,
KBUR,Burbank,,34.1808,-118.3089,2012-06-27 11:53:00,,CLR,10.0,,81,,,,48.0,,31,7.0,,,29.01,,,,,,,,,,,,,,,,,,,,,,,,,,,,,,,,,,,,,,,,,,,,,,,,,,,,,,,,,,,,,,,,,,,,,
KBUR,Burbank,,34.1808,-118.3089,2012-06-27 12:53:00,,CLR,10.0,,83,,,,47.0,,28,10.0,180.0,,29.0,,,,,,,,,,,,,,,,,,,,,,,,,,,,,,,,,,,,,,,,,,,,,,,,,,,,,,,,,,,,,,,,,,,,,
KBUR,Burbank,,34.1808,-118.3089,2012-06-27 13:53:00,,CLR,10.0,,85,,,,43.0,,23,8.0,180.0,,29.0,2.0,Falling Rapidly,,,,,,,,,,,,,,,,,,,,,,,,,,,,,,,,,,,,,,,,,,,,,,,,,,,,,,,,,,,,,,,,,,,
KBUR,Burbank,,34.1808,-118.3089,2012-06-27 14:53:00,,CLR,10.0,,86,,,,42.0,,21,8.0,170.0,,28.99,,,,,,,,,,,,,,,,,,,,,,,,,,,,,,,,,,,,,,,,,,,,,,,,,,,,,,,,,,,,,,,,,,,,,
KBUR,Burbank,,34.1808,-118.3089,2012-06-27 15:53:00,,CLR,10.0,,86,,,,40.0,,20,10.0,180.0,,28.99,,,,,,,,,,,,,,,,,,,,,,,,,,,,,,,,,,,,,,,,,,,,,,,,,,,,,,,,,,,,,,,,,,,,,
KBUR,Burbank,,34.1808,-118.3089,2012-06-27 16:53:00,,CLR,10.0,,84,,,,42.0,,23,10.0,170.0,,28.99,0.0,Steady,,,,88.0,79.0,,,,,,,,,,,,,,,,,,,,,,,,,,,,,,,,,,,,,,,,,,,,,,,,,,,,,,,,,,,,,,
KBUR,Burbank,,34.1808,-118.3089,2012-06-27 17:53:00,,CLR,10.0,,81,,,,49.0,,33,13.0,180.0,,28.99,,,,,,,,,,,,,,,,,,,,,,,,,,,,,,,,,,,,,,,,,,,,,,,,,,,,,,,,,,,,,,,,,,,,,
KBUR,Burbank,,34.1808,-118.3089,2012-06-27 18:53:00,,CLR,10.0,,77,,,,50.0,,39,9.0,170.0,,29.0,,,,,,,,,,,,,,,,,,,,,,,,,,,,,,,,,,,,,,,,,,,,,,,,,,,,,,,,,,,,,,,,,,,,,
KBUR,Burbank,,34.1808,-118.3089,2012-06-27 19:53:00,,CLR,10.0,,74,,,,48.0,,40,8.0,170.0,,29.01,1.0,Rising Rapidly,,,,,,,,,,,,,,,,,,,,,,,,,,,,,,,,,,,,,,,,,,,,,,,,,,,,,,,,,,,,,,,,,,,
KBUR,Burbank,,34.1808,-118.3089,2012-06-27 20:53:00,,CLR,10.0,,72,,,,50.0,,46,7.0,120.0,,29.02,,,,,,,,,,,,,,,,,,,,,,,,,,,,,,,,,,,,,,,,,,,,,,,,,,,,,,,,,,,,,,,,,,,,,
KBUR,Burbank,,34.1808,-118.3089,2012-06-27 21:53:00,,CLR,10.0,,69,,,,51.0,,53,8.0,90.0,,29.05,,,,,,,,,,,,,,,,,,,,,,,,,,,,,,,,,,,,,,,,,,,,,,,,,,,,,,,,,,,,,,,,,,,,,
KBUR,Burbank,,34.1808,-118.3089,2012-06-27 22:53:00,,CLR,10.0,,67,,,,54.0,,63,3.0,120.0,,29.06,1.0,Rising,,,,84.0,67.0,,,,,,,,,,,,,,,,,,,,,,,,,,,,,,,,,,,,,,,,,,,,,,,,,,,,,,,,,,,,,,
KBUR,Burbank,,34.1808,-118.3089,2012-06-27 23:53:00,,CLR,10.0,,65,,,,54.0,,68,,,,29.07,,,,,,,,,,,,,,,,,,,,,,,,,,,,,,,,,,,,,,,,,,,,,,,,,,,,,,,,,,,,,,,,,,,,,
KBUR,Burbank,,34.1808,-118.3089,2012-06-28 00:53:00,,CLR,10.0,,64,,,,53.0,,67,3.0,70.0,,29.07,,,,,,88.0,58.0,,,,,,,,,,,,,,,,,,,,,,,,,,,,,,,,,,,,,,,,,,,,,,,,,,,,,,,,,,,,,,
KBUR,Burbank,,34.1808,-118.3089,2012-06-28 01:53:00,,CLR,10.0,,63,,,,54.0,,72,,,,29.07,1.0,Rising,,,,,,,,,,,,,,,,,,,,,,,,,,,,,,,,,,,,,,,,,,,,,,,,,,,,,,,,,,,,,,,,,,,
KBUR,Burbank,,34.1808,-118.3089,2012-06-28 02:53:00,,CLR,10.0,,63,,,,53.0,,70,,,,29.07,,,,,,,,,,,,,,,,,,,,,,,,,,,,,,,,,,,,,,,,,,,,,,,,,,,,,,,,,,,,,,,,,,,,,
KBUR,Burbank,,34.1808,-118.3089,2012-06-28 03:53:00,,CLR,10.0,,60,,,,47.0,,62,,,,29.08,,,,,,,,,,,,,,,,,,,,,,,,,,,,,,,,,,,,,,,,,,,,,,,,,,,,,,,,,,,,,,,,,,,,,
KBUR,Burbank,,34.1808,-118.3089,2012-06-28 04:53:00,,CLR,10.0,,59,,,,39.0,,48,,,,29.08,1.0,Rising,,,,67.0,59.0,,,,,,,,,,,,,,,,,,,,,,,,,,,,,,,,,,,,,,,,,,,,,,,,,,,,,,,,,,,,,,
KBUR,Burbank,,34.1808,-118.3089,2012-06-28 05:53:00,,CLR,10.0,,58,,,,39.0,,49,,,,29.09,,,,,,,,,,,,,,,,,,,,,,,,,,,,,,,,,,,,,,,,,,,,,,,,,,,,,,,,,,,,,,,,,,,,,
KBUR,Burbank,,34.1808,-118.3089,2012-06-28 06:53:00,,CLR,10.0,,61,,,,39.0,,44,,,,29.11,,,,,,,,,,,,,,,,,,,,,,,,,,,,,,,,,,,,,,,,,,,,,,,,,,,,,,,,,,,,,,,,,,,,,
KBUR,Burbank,,34.1808,-118.3089,2012-06-28 07:53:00,,CLR,10.0,,65,,,,46.0,,50,,,,29.12,1.0,Rising Rapidly,,,,,,,,,,,,,,,,,,,,,,,,,,,,,,,,,,,,,,,,,,,,,,,,,,,,,,,,,,,,,,,,,,,
KBUR,Burbank,,34.1808,-118.3089,2012-06-28 08:53:00,,CLR,10.0,,69,,,,47.0,,45,,,,29.13,,,,,,,,,,,,,,,,,,,,,,,,,,,,,,,,,,,,,,,,,,,,,,,,,,,,,,,,,,,,,,,,,,,,,
KBUR,Burbank,,34.1808,-118.3089,2012-06-28 09:53:00,,CLR,10.0,,74,,,,51.0,,45,6.0,110.0,,29.14,,,,,,,,,,,,,,,,,,,,,,,,,,,,,,,,,,,,,,,,,,,,,,,,,,,,,,,,,,,,,,,,,,,,,
KBUR,Burbank,,34.1808,-118.3089,2012-06-28 10:53:00,,CLR,10.0,,79,,,,46.0,,31,,,,29.14,1.0,Rising,,,,79.0,58.0,,,,,,,,,,,,,,,,,,,,,,,,,,,,,,,,,,,,,,,,,,,,,,,,,,,,,,,,,,,,,,
KBUR,Burbank,,34.1808,-118.3089,2012-06-28 11:53:00,,CLR,10.0,,82,,,,49.0,,31,7.0,140.0,,29.14,,,,,,,,,,,,,,,,,,,,,,,,,,,,,,,,,,,,,,,,,,,,,,,,,,,,,,,,,,,,,,,,,,,,,
KBUR,Burbank,,34.1808,-118.3089,2012-06-28 12:53:00,,CLR,10.0,,85,,,,51.0,,31,10.0,180.0,,29.12,,,,,,,,,,,,,,,,,,,,,,,,,,,,,,,,,,,,,,,,,,,,,,,,,,,,,,,,,,,,,,,,,,,,,
KBUR,Burbank,,34.1808,-118.3089,2012-06-28 13:53:00,,CLR,10.0,,86,,,,47.0,,26,9.0,190.0,,29.11,2.0,Falling Rapidly,,,,,,,,,,,,,,,,,,,,,,,,,,,,,,,,,,,,,,,,,,,,,,,,,,,,,,,,,,,,,,,,,,,
KBUR,Burbank,,34.1808,-118.3089,2012-06-28 14:53:00,,CLR,10.0,,85,,,,45.0,,25,13.0,170.0,,29.12,,,,,,,,,,,,,,,,,,,,,,,,,,,,,,,,,,,,,,,,,,,,,,,,,,,,,,,,,,,,,,,,,,,,,
KBUR,Burbank,,34.1808,-118.3089,2012-06-28 15:53:00,,CLR,10.0,,85,,,,42.0,,22,9.0,180.0,,29.11,,,,,,,,,,,,,,,,,,,,,,,,,,,,,,,,,,,,,,,,,,,,,,,,,,,,,,,,,,,,,,,,,,,,,
KBUR,Burbank,,34.1808,-118.3089,2012-06-28 16:53:00,,CLR,10.0,,84,,,,44.0,,25,8.0,150.0,,29.1,2.0,Falling Rapidly,,,,87.0,80.0,,,,,,,,,,,,,,,,,,,,,,,,,,,,,,,,,,,,,,,,,,,,,,,,,,,,,,,,,,,,,,
KBUR,Burbank,,34.1808,-118.3089,2012-06-28 17:53:00,,CLR,10.0,,83,,,,46.0,,27,10.0,160.0,,29.1,,,,,,,,,,,,,,,,,,,,,,,,,,,,,,,,,,,,,,,,,,,,,,,,,,,,,,,,,,,,,,,,,,,,,
KBUR,Burbank,,34.1808,-118.3089,2012-06-28 18:53:00,,CLR,10.0,,80,,,,47.0,,31,8.0,180.0,,29.1,,,,,,,,,,,,,,,,,,,,,,,,,,,,,,,,,,,,,,,,,,,,,,,,,,,,,,,,,,,,,,,,,,,,,
KBUR,Burbank,,34.1808,-118.3089,2012-06-28 19:53:00,,CLR,10.0,,76,,,,46.0,,35,10.0,130.0,,29.11,1.0,Rising Rapidly,,,,,,,,,,,,,,,,,,,,,,,,,,,,,,,,,,,,,,,,,,,,,,,,,,,,,,,,,,,,,,,,,,,
KBUR,Burbank,,34.1808,-118.3089,2012-06-28 20:53:00,,CLR,10.0,,71,,,,53.0,,53,7.0,130.0,,29.13,,,,,,,,,,,,,,,,,,,,,,,,,,,,,,,,,,,,,,,,,,,,,,,,,,,,,,,,,,,,,,,,,,,,,
KBUR,Burbank,,34.1808,-118.3089,2012-06-28 21:53:00,,CLR,10.0,,69,,,,54.0,,58,5.0,110.0,,29.14,,,,,,,,,,,,,,,,,,,,,,,,,,,,,,,,,,,,,,,,,,,,,,,,,,,,,,,,,,,,,,,,,,,,,
KBUR,Burbank,,34.1808,-118.3089,2012-06-28 22:53:00,,CLR,10.0,,67,,,,55.0,,66,5.0,120.0,,29.15,1.0,Rising,,,,85.0,67.0,,,,,,,,,,,,,,,,,,,,,,,,,,,,,,,,,,,,,,,,,,,,,,,,,,,,,,,,,,,,,,
